link,email,name,add1,add2,city,state,postcode,phone,q1,q2,q3,q4,q5
https://www.surveymonkey.com/r/LYBYW8B,ymmxl1@gmail.com,Megan Chang,1BP0 clin.ton dr Lne.,Aparttmentt.17A,Hollis,NH,03049,7298455796,Thompkins Square Park,Konstantin Satchek,Manhattan,Varial Flip,8
https://www.surveymonkey.com/r/LYBYW8B,limmyyingran@gmail.com,Robert Green,EB0P Brookfield Cir R0AD,Reception-Room.11,Framingham,MA,01701,7116158449,Thompkins Square Park,Konstantin Satchek,Manhattan,Varial Flip,6
https://www.surveymonkey.com/r/LYBYW8B,limmyyingran2@gmail.com,KCPRO Dixon,SJTX 217 MIA DR Stret,APT77011,Newark,DE,19711,7687367722,Thompkins Square Park,Konstantin Satchek,Manhattan,Varial Flip,7
https://www.surveymonkey.com/r/LYBYW8B,limmyyingran3@gmail.com,Richard Bowers,40B1 Oakdale Ave Lane.,Concierge.10,Nashua,NH,03062,7990303323,Thompkins Square Park,Konstantin Satchek,Manhattan,Varial Flip,2
https://www.surveymonkey.com/r/LYBYW8B,ymmxl2@gmail.com,Kevin Woods,OJ0E clin.ton dr R0AD,Flt. #17A,Hollis,NH,03049,7400077281,Thompkins Square Park,Konstantin Satchek,Manhattan,Varial Flip,6
https://www.surveymonkey.com/r/LYBYW8B,ymmxl33@gmail.com,Brandy Odonnell,A7EO clinton dr Strt.,House.17A,Hollis,NH,03049,7678417988,Thompkins Square Park,Konstantin Satchek,Manhattan,Varial Flip,4
https://www.surveymonkey.com/r/LYBYW8B,ymmxl44@gmail.com,KCPRO Wagner,JXVT 217 MIA DR Stret,APT77011,Newark,DE,19711,7214001703,Thompkins Square Park,Konstantin Satchek,Manhattan,Varial Flip,3
https://www.surveymonkey.com/r/LYBYW8B,1001334546u@gmail.com,Juan Campos,2JXM clinton dr Ln,Apptment17A,Hollis,NH,03049,7108949356,Thompkins Square Park,Konstantin Satchek,Manhattan,Varial Flip,6
https://www.surveymonkey.com/r/LYBYW8B,ihatetyping3485443@gmail.com,Christine King,EZGN Oakdale Ave Ln,Apartmente.10,Nashua,NH,03062,7387242304,Thompkins Square Park,Konstantin Satchek,Manhattan,Varial Flip,5
https://www.surveymonkey.com/r/LYBYW8B,purplekick536138@gmail.com,mchefs Cruz,YW4X Gold Pan Rd,Apartmente11234,Charlotte,NC,28215,7847416577,Thompkins Square Park,Konstantin Satchek,Manhattan,Varial Flip,0
https://www.surveymonkey.com/r/LYBYW8B,baylorandres453@gmail.com,Renee Mcgrath,BKC5 clinton dr Lne,Appartmentt17A,Hollis,NH,03049,7166074828,Thompkins Square Park,Konstantin Satchek,Manhattan,Varial Flip,6
https://www.surveymonkey.com/r/LYBYW8B,jorgewilder048@gmail.com,Jeffkc ymmxl,7R2G sw 74th ave ste220,Appartment.14865,Tigard,OR,97224,7820212255,Thompkins Square Park,Konstantin Satchek,Manhattan,Varial Flip,5
https://www.surveymonkey.com/r/LYBYW8B,raymondleland945@gmail.com,Lisa Barrera,ERR2 Oakdale Ave Lne,Appartmente10,Nashua,NH,03062,7391516520,Thompkins Square Park,Konstantin Satchek,Manhattan,Varial Flip,5
https://www.surveymonkey.com/r/LYBYW8B,malifedi51@gmail.com,Kyle Blair,2GGU Brookfield Cir Lane,Front Desk.11,Framingham,MA,01701,7190256691,Thompkins Square Park,Konstantin Satchek,Manhattan,Varial Flip,2
https://www.surveymonkey.com/r/LYBYW8B,thomasmoort35@gmail.com,Rachel Sutton,GZTY Brookfield Cir Lane.,H0USE11,Framingham,MA,01701,7573118389,Thompkins Square Park,Konstantin Satchek,Manhattan,Varial Flip,7
https://www.surveymonkey.com/r/LYBYW8B,oscarnob65@gmail.com,mchefs Cruz,LNO6 Gold Pan Stret,Reception Room.11234,Charlotte,NC,28215,7454708823,Thompkins Square Park,Konstantin Satchek,Manhattan,Varial Flip,8
https://www.surveymonkey.com/r/LYBYW8B,joshmao37@gmail.com,Thomas Garcia,SOSR Oakdale Ave Rd,Appartmente10,Nashua,NH,03062,7662631334,Thompkins Square Park,Konstantin Satchek,Manhattan,Varial Flip,3
https://www.surveymonkey.com/r/LYBYW8B,hazlewoodz63@gmail.com,KCPRO Hamilton,ERML 217 MIA DR Lne.,APT77011,Newark,DE,19711,7682714223,Thompkins Square Park,Konstantin Satchek,Manhattan,Varial Flip,5
https://www.surveymonkey.com/r/LYBYW8B,sammie.witvoet044@zosomail.com,Cheryl Durham,NDBL Oakdale Ave Ln.,Concierge Desk10,Nashua,NH,03062,7126103999,Thompkins Square Park,Konstantin Satchek,Manhattan,Varial Flip,7
https://www.surveymonkey.com/r/LYBYW8B,toos.vangeerenstein610@zosomail.com,Tammy Woods,GYCL Brookfield Cir Rd,Reception.11,Framingham,MA,01701,7601347569,Thompkins Square Park,Konstantin Satchek,Manhattan,Varial Flip,6
https://www.surveymonkey.com/r/LYBYW8B,ischa.meulendijks123@zosomail.com,Michelle Green,FGCS Brookfield Cir Lne.,Reception Desk11,Framingham,MA,01701,7297767525,Thompkins Square Park,Konstantin Satchek,Manhattan,Varial Flip,9
https://www.surveymonkey.com/r/LYBYW8B,anoek.wobben634@zosomail.com,Linda Dunn,31I5 clin.ton dr Strt,Flat17A,Hollis,NH,03049,7761068201,Thompkins Square Park,Konstantin Satchek,Manhattan,Varial Flip,1
https://www.surveymonkey.com/r/LYBYW8B,steije.beugelsdijk228@zosomail.com,KCPRO Smith,BXOG 217 MIA DR Street,APT77011,Newark,DE,19711,7118692498,Thompkins Square Park,Konstantin Satchek,Manhattan,Varial Flip,6
https://www.surveymonkey.com/r/LYBYW8B,necmettin.raats413@zosomail.com,Jeffkc ymmxl,E9QQ sw 74th ave ste220,Reception Room.14865,Tigard,OR,97224,7574674001,Thompkins Square Park,Konstantin Satchek,Manhattan,Varial Flip,1
https://www.surveymonkey.com/r/LYBYW8B,feyyaz.deboer715@zosomail.com,Jeffkc ymmxl,0URD sw 74th ave ste220,Lobby14865,Tigard,OR,97224,7674220515,Thompkins Square Park,Konstantin Satchek,Manhattan,Varial Flip,4
https://www.surveymonkey.com/r/LYBYW8B,jetse.hoffmans678@zosomail.com,Jennifer Ross,EZKA Oakdale Ave St,Apartmentt10,Nashua,NH,03062,7166524279,Thompkins Square Park,Konstantin Satchek,Manhattan,Varial Flip,6
https://www.surveymonkey.com/r/LYBYW8B,fatih.heldens741@zosomail.com,Jeffkc ymmxl,4VUD sw 74th ave ste220,Unit14865,Tigard,OR,97224,7423955479,Thompkins Square Park,Konstantin Satchek,Manhattan,Varial Flip,9
https://www.surveymonkey.com/r/LYBYW8B,musab.bont564@zosomail.com,Mallory Barnett,8OLP clinton dr Stret.,Hse.17A,Hollis,NH,03049,7765466199,Thompkins Square Park,Konstantin Satchek,Manhattan,Varial Flip,4
https://www.surveymonkey.com/r/LYBYW8B,hester.swinkels648@zosomail.com,Aaron Snyder,UUBZ clin.ton dr R0AD,Apartment17A,Hollis,NH,03049,7581511870,Thompkins Square Park,Konstantin Satchek,Manhattan,Varial Flip,5
https://www.surveymonkey.com/r/LYBYW8B,khaled.vanaanholt647@zosomail.com,Mikayla Sanchez,3626 Oakdale Ave Rd,Reception-Room.10,Nashua,NH,03062,7362627532,Thompkins Square Park,Konstantin Satchek,Manhattan,Varial Flip,8
https://www.surveymonkey.com/r/LYBYW8B,zef.kruisselbrink316@zosomail.com,Mark Harrell,1910 Oakdale Ave Rd,Reception Desk.10,Nashua,NH,03062,7670474467,Thompkins Square Park,Konstantin Satchek,Manhattan,Varial Flip,5
https://www.surveymonkey.com/r/LYBYW8B,frouke.petri115@zosomail.com,James Bradley,ON9J clinton dr Lne,R00M17A,Hollis,NH,03049,7041501741,Thompkins Square Park,Konstantin Satchek,Manhattan,Varial Flip,6
https://www.surveymonkey.com/r/LYBYW8B,gaya.eussen281@zosomail.com,KCPRO Allen,WLL6 217 MIA DR Street.,APT77011,Newark,DE,19711,7462009237,Thompkins Square Park,Konstantin Satchek,Manhattan,Varial Flip,8
https://www.surveymonkey.com/r/LYBYW8B,muriel.vansleeuwen116@zosomail.com,Tammy Pratt,Z1IM clin.ton dr Strt,Room17A,Hollis,NH,03049,7131578381,Thompkins Square Park,Konstantin Satchek,Manhattan,Varial Flip,9
https://www.surveymonkey.com/r/LYBYW8B,dorine.spaargaren835@zosomail.com,Seth Miller,IZPX Oakdale Ave Rd,Reception Lounge.10,Nashua,NH,03062,7389389747,Thompkins Square Park,Konstantin Satchek,Manhattan,Varial Flip,8
https://www.surveymonkey.com/r/LYBYW8B,chantalle.eversdijk638@zosomail.com,Luke Romero,E5GA clin.ton dr Stret,#17A,Hollis,NH,03049,7837639458,Thompkins Square Park,Konstantin Satchek,Manhattan,Varial Flip,4
https://www.surveymonkey.com/r/LYBYW8B,nawid.voermans886@zosomail.com,Sarah Rodriguez,HAQQ Brookfield Cir Road,Appt11,Framingham,MA,01701,7072494300,Thompkins Square Park,Konstantin Satchek,Manhattan,Varial Flip,5
https://www.surveymonkey.com/r/LYBYW8B,geordy.benning450@zosomail.com,Andrea Mann,HLIQ clinton dr Stret,Flat17A,Hollis,NH,03049,7390896592,Thompkins Square Park,Konstantin Satchek,Manhattan,Varial Flip,3
https://www.surveymonkey.com/r/LYBYW8B,margarethe.vandekamp544@zosomail.com,Jeffkc ymmxl,R8VO sw 74th ave ste220,Appt.14865,Tigard,OR,97224,7044255550,Thompkins Square Park,Konstantin Satchek,Manhattan,Varial Flip,9
https://www.surveymonkey.com/r/LYBYW8B,baran.luesink063@zosomail.com,Amy Olsen,JQY5 Brookfield Cir Rd.,R00M11,Framingham,MA,01701,7873628009,Thompkins Square Park,Konstantin Satchek,Manhattan,Varial Flip,3
https://www.surveymonkey.com/r/LYBYW8B,dianthe.voets724@zosomail.com,Amber Maynard,GNPO Oakdale Ave St,Appartment10,Nashua,NH,03062,7008694411,Thompkins Square Park,Konstantin Satchek,Manhattan,Varial Flip,7
https://www.surveymonkey.com/r/LYBYW8B,rueben.ippel512@zosomail.com,mchefs Cruz,EHMQ Gold Pan Lane,Flat.11234,Charlotte,NC,28215,7630459401,Thompkins Square Park,Konstantin Satchek,Manhattan,Varial Flip,7
https://www.surveymonkey.com/r/LYBYW8B,lin.smeenk830@zosomail.com,Carrie Matthews,XRUM Brookfield Cir R0AD,Aparttment.11,Framingham,MA,01701,7002007633,Thompkins Square Park,Konstantin Satchek,Manhattan,Varial Flip,1
https://www.surveymonkey.com/r/LYBYW8B,jorieke.schoute336@zosomail.com,mchefs Cruz,ZE0U Gold Pan Ln,Apartmentt11234,Charlotte,NC,28215,7173451950,Thompkins Square Park,Konstantin Satchek,Manhattan,Varial Flip,2
https://www.surveymonkey.com/r/LYBYW8B,hanneke.teravest238@zosomail.com,KCPRO Wallace,QVGK 217 MIA DR Stret.,APT77011,Newark,DE,19711,7970396151,Thompkins Square Park,Konstantin Satchek,Manhattan,Varial Flip,4
https://www.surveymonkey.com/r/LYBYW8B,blessing.vankoot104@zosomail.com,mchefs Cruz,GCBL Gold Pan Road,Aptment11234,Charlotte,NC,28215,7646260662,Thompkins Square Park,Konstantin Satchek,Manhattan,Varial Flip,0
https://www.surveymonkey.com/r/LYBYW8B,ewald.hofmann071@zosomail.com,Jeffkc ymmxl,VJ4I sw 74th ave ste220,House.14865,Tigard,OR,97224,7109353105,Thompkins Square Park,Konstantin Satchek,Manhattan,Varial Flip,8
https://www.surveymonkey.com/r/LYBYW8B,roberta.tjoelker115@zosomail.com,KCPRO Carlson,M0PE 217 MIA DR Road,APT77011,Newark,DE,19711,7892323432,Thompkins Square Park,Konstantin Satchek,Manhattan,Varial Flip,7
https://www.surveymonkey.com/r/LYBYW8B,jurrit.cecilia384@zosomail.com,Paul Johnston,EKPN clin.ton dr Lne,Unit. #17A,Hollis,NH,03049,7659763720,Thompkins Square Park,Konstantin Satchek,Manhattan,Varial Flip,6
https://www.surveymonkey.com/r/LYBYW8B,chenoa.westendorp600@zosomail.com,mchefs Cruz,02UV Gold Pan Road.,Front Desk.11234,Charlotte,NC,28215,7599008411,Thompkins Square Park,Konstantin Satchek,Manhattan,Varial Flip,4
https://www.surveymonkey.com/r/LYBYW8B,lorna.haasnoot808@zosomail.com,KCPRO Roberts,Y3ZP 217 MIA DR R0AD,APT77011,Newark,DE,19711,7246174860,Thompkins Square Park,Konstantin Satchek,Manhattan,Varial Flip,5
https://www.surveymonkey.com/r/LYBYW8B,yoni.kik035@zosomail.com,Jaime Lopez,DVDB Brookfield Cir Ln,H0USE11,Framingham,MA,01701,7629786995,Thompkins Square Park,Konstantin Satchek,Manhattan,Varial Flip,1
https://www.surveymonkey.com/r/LYBYW8B,milena.bliek404@zosomail.com,Jeffkc ymmxl,GL1F sw 74th ave ste220,Concierge.14865,Tigard,OR,97224,7625501261,Thompkins Square Park,Konstantin Satchek,Manhattan,Varial Flip,9
https://www.surveymonkey.com/r/LYBYW8B,tisha.roijmans251@zosomail.com,Chloe Douglas,UHOT clin.ton dr Strt.,H0USE. #17A,Hollis,NH,03049,7626837634,Thompkins Square Park,Konstantin Satchek,Manhattan,Varial Flip,5
https://www.surveymonkey.com/r/LYBYW8B,leony.vanvegten765@zosomail.com,Thomas Davis,MWOP Oakdale Ave Lne,Reception.10,Nashua,NH,03062,7606478476,Thompkins Square Park,Konstantin Satchek,Manhattan,Varial Flip,0
https://www.surveymonkey.com/r/LYBYW8B,otis.holwerda455@zosomail.com,Katherine Mcdowell,P7RF clin.ton dr Rd.,Reception Room17A,Hollis,NH,03049,7384197635,Thompkins Square Park,Konstantin Satchek,Manhattan,Varial Flip,3
https://www.surveymonkey.com/r/LYBYW8B,dunya.vermue150@zosomail.com,KCPRO Mclean,JQNF 217 MIA DR Ln,APT77011,Newark,DE,19711,7576249648,Thompkins Square Park,Konstantin Satchek,Manhattan,Varial Flip,5
https://www.surveymonkey.com/r/LYBYW8B,sil.leeuwestein328@zosomail.com,mchefs Cruz,O9VZ Gold Pan Stret,Aptment11234,Charlotte,NC,28215,7652730019,Thompkins Square Park,Konstantin Satchek,Manhattan,Varial Flip,4
https://www.surveymonkey.com/r/LYBYW8B,ruben.oudevrielink328@zosomail.com,Megan Villanueva,5T3X Oakdale Ave Lne,Front Desk.10,Nashua,NH,03062,7396346764,Thompkins Square Park,Konstantin Satchek,Manhattan,Varial Flip,7
https://www.surveymonkey.com/r/LYBYW8B,vikram.tuinstra010@zosomail.com,Sandra Fernandez,SI5F Brookfield Cir Stret,Appartment.11,Framingham,MA,01701,7228556765,Thompkins Square Park,Konstantin Satchek,Manhattan,Varial Flip,5
https://www.surveymonkey.com/r/LYBYW8B,manouk.pelser162@zosomail.com,Peter Thornton,5P81 clin.ton dr Rd,Unit17A,Hollis,NH,03049,7825641495,Thompkins Square Park,Konstantin Satchek,Manhattan,Varial Flip,7
https://www.surveymonkey.com/r/LYBYW8B,ytsje.exel368@zosomail.com,Jeffkc ymmxl,PKP3 sw 74th ave ste220,H0USE14865,Tigard,OR,97224,7091171668,Thompkins Square Park,Konstantin Satchek,Manhattan,Varial Flip,2
https://www.surveymonkey.com/r/LYBYW8B,midas.bex456@zosomail.com,Joshua Cain,5KFK Brookfield Cir Lane,Concierge Desk.11,Framingham,MA,01701,7035291511,Thompkins Square Park,Konstantin Satchek,Manhattan,Varial Flip,8
https://www.surveymonkey.com/r/LYBYW8B,roelie.winkelaar428@zosomail.com,Melissa Jacobson,WF01 Oakdale Ave Ln.,Room10,Nashua,NH,03062,7115768845,Thompkins Square Park,Konstantin Satchek,Manhattan,Varial Flip,9
https://www.surveymonkey.com/r/LYBYW8B,rachel.kempen427@zosomail.com,Brittany Herring,DX3E clin.ton dr Stret,Appartmente17A,Hollis,NH,03049,7758751527,Thompkins Square Park,Konstantin Satchek,Manhattan,Varial Flip,9
https://www.surveymonkey.com/r/LYBYW8B,carlin.goulooze470@zosomail.com,Jeffkc ymmxl,SS8J sw 74th ave ste220,Concierge Desk14865,Tigard,OR,97224,7062080857,Thompkins Square Park,Konstantin Satchek,Manhattan,Varial Flip,4
https://www.surveymonkey.com/r/LYBYW8B,lolkje.kwekkeboom250@zosomail.com,Bethany Hayes,RFZ8 clinton dr Road.,Concierge Lounge17A,Hollis,NH,03049,7068096968,Thompkins Square Park,Konstantin Satchek,Manhattan,Varial Flip,2
https://www.surveymonkey.com/r/LYBYW8B,faisel.regter677@zosomail.com,Donna Davies,91BL clinton dr Rd,Aparttment.17A,Hollis,NH,03049,7164907854,Thompkins Square Park,Konstantin Satchek,Manhattan,Varial Flip,9
https://www.surveymonkey.com/r/LYBYW8B,dijana.deboer824@sowomail.com,Sabrina Leon,230N Brookfield Cir Stret,Reception-Room11,Framingham,MA,01701,7448460481,Thompkins Square Park,Konstantin Satchek,Manhattan,Varial Flip,3
https://www.surveymonkey.com/r/LYBYW8B,aimane.vanbreemen856@sowomail.com,KCPRO Miller,N7JZ 217 MIA DR Lne.,APT77011,Newark,DE,19711,7112839063,Thompkins Square Park,Konstantin Satchek,Manhattan,Varial Flip,4
https://www.surveymonkey.com/r/LYBYW8B,jael.haaksman606@sowomail.com,Chloe Tucker,4A3O Brookfield Cir Lane,Concierge Desk.11,Framingham,MA,01701,7526277561,Thompkins Square Park,Konstantin Satchek,Manhattan,Varial Flip,5
https://www.surveymonkey.com/r/LYBYW8B,karlijn.vanheugten068@sowomail.com,Crystal Bruce,EDDC clinton dr Road,Apartmente.17A,Hollis,NH,03049,7835027651,Thompkins Square Park,Konstantin Satchek,Manhattan,Varial Flip,7
https://www.surveymonkey.com/r/LYBYW8B,karima.franse372@sowomail.com,John Dennis,R67X clin.ton dr Street.,Reception-Desk.17A,Hollis,NH,03049,7205559437,Thompkins Square Park,Konstantin Satchek,Manhattan,Varial Flip,9
https://www.surveymonkey.com/r/LYBYW8B,estelle.vantellingen823@sowomail.com,mchefs Cruz,KGGN Gold Pan Strt,Apptment11234,Charlotte,NC,28215,7280677883,Thompkins Square Park,Konstantin Satchek,Manhattan,Varial Flip,7
https://www.surveymonkey.com/r/LYBYW8B,roselie.mik137@sowomail.com,KCPRO Wilson,LYBT 217 MIA DR Rd.,APT77011,Newark,DE,19711,7130709634,Thompkins Square Park,Konstantin Satchek,Manhattan,Varial Flip,2
https://www.surveymonkey.com/r/LYBYW8B,joske.hoefman810@sowomail.com,KCPRO Robinson,FD85 217 MIA DR Lane.,APT77011,Newark,DE,19711,7594798575,Thompkins Square Park,Konstantin Satchek,Manhattan,Varial Flip,3
https://www.surveymonkey.com/r/LYBYW8B,simran.baas234@sowomail.com,Laura Cook,ZVFI Oakdale Ave Ln,Aparttmentt.10,Nashua,NH,03062,7539022433,Thompkins Square Park,Konstantin Satchek,Manhattan,Varial Flip,9
https://www.surveymonkey.com/r/LYBYW8B,hamed.hoogkamer050@sowomail.com,Lisa Garcia,F7YO clinton dr Road.,Appt.17A,Hollis,NH,03049,7664282973,Thompkins Square Park,Konstantin Satchek,Manhattan,Varial Flip,0
https://www.surveymonkey.com/r/LYBYW8B,loes.ferwerda414@sowomail.com,Dustin Wolfe,TZPC clinton dr Strt,Concierge17A,Hollis,NH,03049,7155122632,Thompkins Square Park,Konstantin Satchek,Manhattan,Varial Flip,7
https://www.surveymonkey.com/r/LYBYW8B,danique.brummelhuis605@sowomail.com,Jeffkc ymmxl,JT0V sw 74th ave ste220,Reception Desk14865,Tigard,OR,97224,7014976420,Thompkins Square Park,Konstantin Satchek,Manhattan,Varial Flip,9
https://www.surveymonkey.com/r/LYBYW8B,clyde.luik563@sowomail.com,Brandon Berry,2LDI Oakdale Ave Lane,Aparttment.10,Nashua,NH,03062,7836368855,Thompkins Square Park,Konstantin Satchek,Manhattan,Varial Flip,3
https://www.surveymonkey.com/r/LYBYW8B,fenne.vandenboogaart373@sowomail.com,Renee Ferguson,BJH2 clin.ton dr Rd,Hse.17A,Hollis,NH,03049,7180699318,Thompkins Square Park,Konstantin Satchek,Manhattan,Varial Flip,8
https://www.surveymonkey.com/r/LYBYW8B,quintijn.ouwehand541@sowomail.com,Jeffkc ymmxl,B2PH sw 74th ave ste220,Concierge.14865,Tigard,OR,97224,7042684772,Thompkins Square Park,Konstantin Satchek,Manhattan,Varial Flip,1
https://www.surveymonkey.com/r/LYBYW8B,seyda.vanheesch623@sowomail.com,KCPRO Becker,RBMX 217 MIA DR R0AD,APT77011,Newark,DE,19711,7829874719,Thompkins Square Park,Konstantin Satchek,Manhattan,Varial Flip,1
https://www.surveymonkey.com/r/LYBYW8B,jorn.coffie526@sowomail.com,Anthony Reid,YTCB clinton dr Strt.,Reception Desk17A,Hollis,NH,03049,7396640756,Thompkins Square Park,Konstantin Satchek,Manhattan,Varial Flip,3
https://www.surveymonkey.com/r/LYBYW8B,colin.campfens480@sowomail.com,Jeffkc ymmxl,R9KG sw 74th ave ste220,Hse14865,Tigard,OR,97224,7405360262,Thompkins Square Park,Konstantin Satchek,Manhattan,Varial Flip,1
https://www.surveymonkey.com/r/LYBYW8B,maher.voorneveld301@sowomail.com,Catherine Johnston,ZSD5 Brookfield Cir Road,Reception-Lounge.11,Framingham,MA,01701,7227334388,Thompkins Square Park,Konstantin Satchek,Manhattan,Varial Flip,8
https://www.surveymonkey.com/r/LYBYW8B,kazimir.bottema134@sowomail.com,Peter Wood,3HS5 Oakdale Ave Stret,Front Desk.10,Nashua,NH,03062,7311350249,Thompkins Square Park,Konstantin Satchek,Manhattan,Varial Flip,8
https://www.surveymonkey.com/r/LYBYW8B,dorothea.vandevelde708@sowomail.com,KCPRO Hooper,Y0HN 217 MIA DR Lne,APT77011,Newark,DE,19711,7333614418,Thompkins Square Park,Konstantin Satchek,Manhattan,Varial Flip,3
https://www.surveymonkey.com/r/LYBYW8B,suraj.qualm434@sowomail.com,Benjamin Smith,4FDO clinton dr Strt,Appt17A,Hollis,NH,03049,7899088183,Thompkins Square Park,Konstantin Satchek,Manhattan,Varial Flip,4
https://www.surveymonkey.com/r/LYBYW8B,hanin.cuijpers027@sowomail.com,Susan Lopez,7OAI Brookfield Cir Stret.,Appartmentt11,Framingham,MA,01701,7985861743,Thompkins Square Park,Konstantin Satchek,Manhattan,Varial Flip,1
https://www.surveymonkey.com/r/LYBYW8B,nouk.michel447@sowomail.com,David Clark,0PUA Oakdale Ave Ln.,Appartmentt10,Nashua,NH,03062,7626334718,Thompkins Square Park,Konstantin Satchek,Manhattan,Varial Flip,9
https://www.surveymonkey.com/r/LYBYW8B,roman.boone546@soxomail.com,Lauren Giles,0OBC Oakdale Ave R0AD,Reception-Desk.10,Nashua,NH,03062,7294901295,Thompkins Square Park,Konstantin Satchek,Manhattan,Varial Flip,5
https://www.surveymonkey.com/r/LYBYW8B,kenneth.creusen367@sowomail.com,Jeffkc ymmxl,A0QZ sw 74th ave ste220,Concierge Lounge.14865,Tigard,OR,97224,7391876741,Thompkins Square Park,Konstantin Satchek,Manhattan,Varial Flip,1
https://www.surveymonkey.com/r/LYBYW8B,nemanja.takens244@sowomail.com,KCPRO Johnson,S46L 217 MIA DR Lane,APT77011,Newark,DE,19711,7553320549,Thompkins Square Park,Konstantin Satchek,Manhattan,Varial Flip,0
https://www.surveymonkey.com/r/LYBYW8B,roger.spek305@sowomail.com,Ronald Garcia,6X50 clin.ton dr Lne.,Reception-Room.17A,Hollis,NH,03049,7838397888,Thompkins Square Park,Konstantin Satchek,Manhattan,Varial Flip,9
https://www.surveymonkey.com/r/LYBYW8B,lysette.stigter822@sowomail.com,Jordan Walker,E46V Oakdale Ave Stret,Lobby.10,Nashua,NH,03062,7710820791,Thompkins Square Park,Konstantin Satchek,Manhattan,Varial Flip,3
https://www.surveymonkey.com/r/LYBYW8B,raoul.vanuden181@sowomail.com,KCPRO Lucas,5N62 217 MIA DR St.,APT77011,Newark,DE,19711,7630716230,Thompkins Square Park,Konstantin Satchek,Manhattan,Varial Flip,1
https://www.surveymonkey.com/r/LYBYW8B,Harthorne-Jammie@outlook.com,KCPRO Bell,YO8L 217 MIA DR Strt,APT77011,Newark,DE,19711,7324964820,Thompkins Square Park,Konstantin Satchek,Manhattan,Varial Flip,8
https://www.surveymonkey.com/r/LYBYW8B,divina-buikema@outlook.com,Henry Gordon,XM4G clin.ton dr Rd.,Reception-Lounge17A,Hollis,NH,03049,7609762683,Thompkins Square Park,Konstantin Satchek,Manhattan,Varial Flip,3
https://www.surveymonkey.com/r/LYBYW8B,Eden-Reas92@hotmail.com,Benjamin Garcia,IRUO Brookfield Cir Stret,Number.11,Framingham,MA,01701,7939521876,Thompkins Square Park,Konstantin Satchek,Manhattan,Varial Flip,7
https://www.surveymonkey.com/r/LYBYW8B,galdon_teressa@outlook.com,Vanessa Gonzalez,9MOF clinton dr Lne,Appartment.17A,Hollis,NH,03049,7584163216,Thompkins Square Park,Konstantin Satchek,Manhattan,Varial Flip,0
https://www.surveymonkey.com/r/LYBYW8B,mitchell_parara@outlook.com,Michael Dennis,S2E4 clin.ton dr Strt,Apartment17A,Hollis,NH,03049,7527500967,Thompkins Square Park,Konstantin Satchek,Manhattan,Varial Flip,9
https://www.surveymonkey.com/r/LYBYW8B,Mihalkovic.Daniella76@hotmail.com,Mary Sellers,3TJR Brookfield Cir Stret,N.11,Framingham,MA,01701,7579169429,Thompkins Square Park,Konstantin Satchek,Manhattan,Varial Flip,9
https://www.surveymonkey.com/r/LYBYW8B,Piantanida-Zachary@outlook.com,Gary Chambers,6QD9 clinton dr Ln,Reception.17A,Hollis,NH,03049,7109445035,Thompkins Square Park,Konstantin Satchek,Manhattan,Varial Flip,3
https://www.surveymonkey.com/r/LYBYW8B,Charney-Malcom@outlook.com,Jeffkc ymmxl,L3AY sw 74th ave ste220,Aptment14865,Tigard,OR,97224,7779292958,Thompkins Square Park,Konstantin Satchek,Manhattan,Varial Flip,5
https://www.surveymonkey.com/r/LYBYW8B,bemberry_hiram@hotmail.com,Tammy Brown,4OI5 clinton dr Lane.,Apptment17A,Hollis,NH,03049,7319929380,Thompkins Square Park,Konstantin Satchek,Manhattan,Varial Flip,9
https://www.surveymonkey.com/r/LYBYW8B,HuttenDarrin@outlook.com,mchefs Cruz,GOY8 Gold Pan Street,Apt.11234,Charlotte,NC,28215,7416526742,Thompkins Square Park,Konstantin Satchek,Manhattan,Varial Flip,1
https://www.surveymonkey.com/r/LYBYW8B,silvey.sunny@outlook.com,Erica Bruce,ER8A Oakdale Ave Strt,Concierge Desk.10,Nashua,NH,03062,7584379754,Thompkins Square Park,Konstantin Satchek,Manhattan,Varial Flip,1
https://www.surveymonkey.com/r/LYBYW8B,darwin_jolla88@hotmail.com,mchefs Cruz,GYVO Gold Pan Lane.,Reception-Desk.11234,Charlotte,NC,28215,7167660974,Thompkins Square Park,Konstantin Satchek,Manhattan,Varial Flip,7
https://www.surveymonkey.com/r/LYBYW8B,friebel.fermin@outlook.com,Matthew King,E08E clinton dr Street.,Appartmente17A,Hollis,NH,03049,7285145645,Thompkins Square Park,Konstantin Satchek,Manhattan,Varial Flip,8
https://www.surveymonkey.com/r/LYBYW8B,schmitz_judie94@outlook.com,mchefs Cruz,VS43 Gold Pan Street,Concierge11234,Charlotte,NC,28215,7551065784,Thompkins Square Park,Konstantin Satchek,Manhattan,Varial Flip,6
https://www.surveymonkey.com/r/LYBYW8B,Rosalinda.Feickert83@hotmail.com,Candice Ramos,MMUT Oakdale Ave Ln,Reception Lounge.10,Nashua,NH,03062,7902366087,Thompkins Square Park,Konstantin Satchek,Manhattan,Varial Flip,2
https://www.surveymonkey.com/r/LYBYW8B,aliza-speraw@outlook.com,Jeffkc ymmxl,XVA6 sw 74th ave ste220,Appartment.14865,Tigard,OR,97224,7222721367,Thompkins Square Park,Konstantin Satchek,Manhattan,Varial Flip,6
https://www.surveymonkey.com/r/LYBYW8B,kikkert-roberto@outlook.com,mchefs Cruz,AWL9 Gold Pan Strt,Aptment11234,Charlotte,NC,28215,7526187414,Thompkins Square Park,Konstantin Satchek,Manhattan,Varial Flip,6
https://www.surveymonkey.com/r/LYBYW8B,Luke_Widdowson@hotmail.com,mchefs Cruz,W9SH Gold Pan Lane,Flt11234,Charlotte,NC,28215,7098530862,Thompkins Square Park,Konstantin Satchek,Manhattan,Varial Flip,1
https://www.surveymonkey.com/r/LYBYW8B,Laine_Galaz99@outlook.com,Jeffkc ymmxl,LO7N sw 74th ave ste220,Concierge Lounge14865,Tigard,OR,97224,7647786602,Thompkins Square Park,Konstantin Satchek,Manhattan,Varial Flip,0
https://www.surveymonkey.com/r/LYBYW8B,Alvin-Kulakowski@outlook.com,Gregory Ruiz,IMGK Brookfield Cir Street.,Aparttmentt.11,Framingham,MA,01701,7293820041,Thompkins Square Park,Konstantin Satchek,Manhattan,Varial Flip,6
https://www.surveymonkey.com/r/LYBYW8B,Maciak.Raymundo93@hotmail.com,Robert Carroll,ZKIU clin.ton dr Stret,Front Desk.17A,Hollis,NH,03049,7244732809,Thompkins Square Park,Konstantin Satchek,Manhattan,Varial Flip,1
https://www.surveymonkey.com/r/LYBYW8B,Kymberly-Nealer@outlook.com,KCPRO Romero,JR03 217 MIA DR Road,APT77011,Newark,DE,19711,7033251363,Thompkins Square Park,Konstantin Satchek,Manhattan,Varial Flip,0
https://www.surveymonkey.com/r/LYBYW8B,Wojtas-Deangelo@outlook.com,Jeffkc ymmxl,O09Z sw 74th ave ste220,Aptment14865,Tigard,OR,97224,7875834272,Thompkins Square Park,Konstantin Satchek,Manhattan,Varial Flip,5
https://www.surveymonkey.com/r/LYBYW8B,Shawnta_Trigueiro@hotmail.com,Jeffkc ymmxl,YGPL sw 74th ave ste220,Apt14865,Tigard,OR,97224,7626713609,Thompkins Square Park,Konstantin Satchek,Manhattan,Varial Flip,2
https://www.surveymonkey.com/r/LYBYW8B,Balentine-Alline@outlook.com,Larry Howard,P1GG Oakdale Ave Street,Reception-Lounge10,Nashua,NH,03062,7591248217,Thompkins Square Park,Konstantin Satchek,Manhattan,Varial Flip,2
https://www.surveymonkey.com/r/LYBYW8B,Limber.Lauran@outlook.com,Mary King,SAIQ Brookfield Cir Lane.,Aptment. #11,Framingham,MA,01701,7981510165,Thompkins Square Park,Konstantin Satchek,Manhattan,Varial Flip,8
https://www.surveymonkey.com/r/LYBYW8B,bromagen.hoa81@hotmail.com,Ann Smith,EHQM clinton dr Lane.,Reception-Lounge.17A,Hollis,NH,03049,7687217570,Thompkins Square Park,Konstantin Satchek,Manhattan,Varial Flip,7
https://www.surveymonkey.com/r/LYBYW8B,ashly_stickel91@outlook.com,mchefs Cruz,M3C7 Gold Pan Rd.,Reception11234,Charlotte,NC,28215,7523520012,Thompkins Square Park,Konstantin Satchek,Manhattan,Varial Flip,6
https://www.surveymonkey.com/r/LYBYW8B,Jose-Mcbeath90@outlook.com,Jeffkc ymmxl,S1AQ sw 74th ave ste220,Concierge.14865,Tigard,OR,97224,7813727934,Thompkins Square Park,Konstantin Satchek,Manhattan,Varial Flip,6
https://www.surveymonkey.com/r/LYBYW8B,nia_mearing@hotmail.com,Judith Rogers,2VK8 Brookfield Cir Ln.,Unit. #11,Framingham,MA,01701,7213760620,Thompkins Square Park,Konstantin Satchek,Manhattan,Varial Flip,7
https://www.surveymonkey.com/r/LYBYW8B,timmerhollis@outlook.com,Brandon Campbell,Y5J1 Oakdale Ave St,Front-Desk.10,Nashua,NH,03062,7879683930,Thompkins Square Park,Konstantin Satchek,Manhattan,Varial Flip,1
https://www.surveymonkey.com/r/LYBYW8B,archie-bong96@outlook.com,John Benton,SZID Brookfield Cir Stret.,Appt11,Framingham,MA,01701,7344329509,Thompkins Square Park,Konstantin Satchek,Manhattan,Varial Flip,2
https://www.surveymonkey.com/r/LYBYW8B,Hollis-Flieller@hotmail.com,KCPRO Bell,AAWD 217 MIA DR St.,APT77011,Newark,DE,19711,7720471018,Thompkins Square Park,Konstantin Satchek,Manhattan,Varial Flip,5
https://www.surveymonkey.com/r/LYBYW8B,bronwyn_stachurski@outlook.com,Keith Howard,FJ7V Oakdale Ave Road.,Aptment. #10,Nashua,NH,03062,7168530337,Thompkins Square Park,Konstantin Satchek,Manhattan,Varial Flip,2
https://www.surveymonkey.com/r/LYBYW8B,prester.irwin@outlook.com,mchefs Cruz,OHXG Gold Pan Road,Reception Room11234,Charlotte,NC,28215,7818943096,Thompkins Square Park,Konstantin Satchek,Manhattan,Varial Flip,1
https://www.surveymonkey.com/r/LYBYW8B,dorisdelellis98@hotmail.com,Stacey Schultz,6NWJ clin.ton dr Street,Reception Lounge17A,Hollis,NH,03049,7800479003,Thompkins Square Park,Konstantin Satchek,Manhattan,Varial Flip,4
https://www.surveymonkey.com/r/LYBYW8B,tom-shields@outlook.com,mchefs Cruz,79JR Gold Pan Strt.,Flt11234,Charlotte,NC,28215,7085828894,Thompkins Square Park,Konstantin Satchek,Manhattan,Varial Flip,4
https://www.surveymonkey.com/r/LYBYW8B,Young.Walsworth94@outlook.com,Christine Baldwin,AIR3 Brookfield Cir Rd.,Concierge-Desk11,Framingham,MA,01701,7308574228,Thompkins Square Park,Konstantin Satchek,Manhattan,Varial Flip,6
https://www.surveymonkey.com/r/LYBYW8B,HaegerJulius@hotmail.com,Paul Perry,PFRB Oakdale Ave Strt.,Reception-Room10,Nashua,NH,03062,7775652135,Thompkins Square Park,Konstantin Satchek,Manhattan,Varial Flip,9
https://www.surveymonkey.com/r/LYBYW8B,Mauricio.Underdue@outlook.com,mchefs Cruz,PYVQ Gold Pan R0AD,Reception Desk.11234,Charlotte,NC,28215,7044567918,Thompkins Square Park,Konstantin Satchek,Manhattan,Varial Flip,6
https://www.surveymonkey.com/r/LYBYW8B,scharp.veola@outlook.com,Debra Smith,3ZX6 clin.ton dr Lne,Apartment.17A,Hollis,NH,03049,7042713901,Thompkins Square Park,Konstantin Satchek,Manhattan,Varial Flip,5
https://www.surveymonkey.com/r/LYBYW8B,lipsitz_son01@hotmail.com,James Cook,HYTS Brookfield Cir Strt.,H0USE. #11,Framingham,MA,01701,7097808062,Thompkins Square Park,Konstantin Satchek,Manhattan,Varial Flip,8
https://www.surveymonkey.com/r/LYBYW8B,Hannam-Dione95@outlook.com,KCPRO Allen,5A62 217 MIA DR Lane.,APT77011,Newark,DE,19711,7913668919,Thompkins Square Park,Konstantin Satchek,Manhattan,Varial Flip,3
https://www.surveymonkey.com/r/LYBYW8B,trey_duclo93@outlook.com,Dana Gray,XPES Oakdale Ave Stret,Lobby10,Nashua,NH,03062,7065566561,Thompkins Square Park,Konstantin Satchek,Manhattan,Varial Flip,6
https://www.surveymonkey.com/r/LYBYW8B,luisa_emdee@hotmail.com,Nancy Carroll,0EM6 clin.ton dr Rd,Appartmentt17A,Hollis,NH,03049,7088755944,Thompkins Square Park,Konstantin Satchek,Manhattan,Varial Flip,3
https://www.surveymonkey.com/r/LYBYW8B,JohannaMuzio02@outlook.com,Robert Morales,4M8F Brookfield Cir Lne,Aparttment.11,Framingham,MA,01701,7362423194,Thompkins Square Park,Konstantin Satchek,Manhattan,Varial Flip,5
https://www.surveymonkey.com/r/LYBYW8B,Lingafelt-Granville@outlook.com,Jacqueline Barnes,6IRE Brookfield Cir R0AD,#11,Framingham,MA,01701,7572470890,Thompkins Square Park,Konstantin Satchek,Manhattan,Varial Flip,5
https://www.surveymonkey.com/r/LYBYW8B,arntzleroy@hotmail.com,KCPRO Bates,21LO 217 MIA DR Lne,APT77011,Newark,DE,19711,7487581666,Thompkins Square Park,Konstantin Satchek,Manhattan,Varial Flip,6
https://www.surveymonkey.com/r/LYBYW8B,Ralph_Norviel@outlook.com,Brandon Griffin,XWF0 clin.ton dr St.,Front Desk17A,Hollis,NH,03049,7738113064,Thompkins Square Park,Konstantin Satchek,Manhattan,Varial Flip,1
https://www.surveymonkey.com/r/LYBYW8B,berry-dobrowski91@outlook.com,Jonathon Moore,P3RQ clin.ton dr Street,Apartment17A,Hollis,NH,03049,7979810628,Thompkins Square Park,Konstantin Satchek,Manhattan,Varial Flip,8
https://www.surveymonkey.com/r/LYBYW8B,pecci-milo@hotmail.com,Allison Freeman,FVH1 clinton dr Lne.,Reception-Room.17A,Hollis,NH,03049,7742075615,Thompkins Square Park,Konstantin Satchek,Manhattan,Varial Flip,9
https://www.surveymonkey.com/r/LYBYW8B,millican-demetrius00@outlook.com,KCPRO Hoffman,TD7Q 217 MIA DR R0AD,APT77011,Newark,DE,19711,7704131869,Thompkins Square Park,Konstantin Satchek,Manhattan,Varial Flip,3
https://www.surveymonkey.com/r/LYBYW8B,devon-henn@outlook.com,Karla Henson,S7LT clin.ton dr St,R00M17A,Hollis,NH,03049,7931802322,Thompkins Square Park,Konstantin Satchek,Manhattan,Varial Flip,3
https://www.surveymonkey.com/r/LYBYW8B,Hartzer-Cathrine@hotmail.com,Jeffkc ymmxl,9BP4 sw 74th ave ste220,Reception-Lounge14865,Tigard,OR,97224,7418759621,Thompkins Square Park,Konstantin Satchek,Manhattan,Varial Flip,9
https://www.surveymonkey.com/r/LYBYW8B,Stephanie_Tilley@outlook.com,Troy Collins,25HK Brookfield Cir Lane.,Flat.11,Framingham,MA,01701,7949491449,Thompkins Square Park,Konstantin Satchek,Manhattan,Varial Flip,7
https://www.surveymonkey.com/r/LYBYW8B,steve.fredregill@outlook.com,Steven Lamb,YB9P Oakdale Ave Street.,Apartmente10,Nashua,NH,03062,7422969324,Thompkins Square Park,Konstantin Satchek,Manhattan,Varial Flip,6
https://www.surveymonkey.com/r/LYBYW8B,marking_janice@hotmail.com,Nancy Burnett,3S57 Oakdale Ave Road,Appartment.10,Nashua,NH,03062,7450065125,Thompkins Square Park,Konstantin Satchek,Manhattan,Varial Flip,9
https://www.surveymonkey.com/r/LYBYW8B,Edgerton-Geri96@outlook.com,mchefs Cruz,6QUU Gold Pan Street,Apartment.11234,Charlotte,NC,28215,7434712061,Thompkins Square Park,Konstantin Satchek,Manhattan,Varial Flip,4
https://www.surveymonkey.com/r/LYBYW8B,graham.hundley94@outlook.com,Jacob Key,40R8 clin.ton dr Lne.,R00M. #17A,Hollis,NH,03049,7209599968,Thompkins Square Park,Konstantin Satchek,Manhattan,Varial Flip,9
https://www.surveymonkey.com/r/LYBYW8B,merideth.quicho@hotmail.com,mchefs Cruz,ZN9E Gold Pan St.,Reception Desk.11234,Charlotte,NC,28215,7058311744,Thompkins Square Park,Konstantin Satchek,Manhattan,Varial Flip,2
https://www.surveymonkey.com/r/LYBYW8B,WoutersMelita@outlook.com,Cynthia Miller,MMA3 Brookfield Cir Lne.,Front Desk.11,Framingham,MA,01701,7566104138,Thompkins Square Park,Konstantin Satchek,Manhattan,Varial Flip,8
https://www.surveymonkey.com/r/LYBYW8B,kory-yamagata@outlook.com,KCPRO Swanson,U92Z 217 MIA DR Rd.,APT77011,Newark,DE,19711,7622410595,Thompkins Square Park,Konstantin Satchek,Manhattan,Varial Flip,3
https://www.surveymonkey.com/r/LYBYW8B,AureaZannino@hotmail.com,Jeffkc ymmxl,0V11 sw 74th ave ste220,Apt.14865,Tigard,OR,97224,7588432216,Thompkins Square Park,Konstantin Satchek,Manhattan,Varial Flip,4
https://www.surveymonkey.com/r/LYBYW8B,seabrook-scottie@outlook.com,mchefs Cruz,SHBB Gold Pan Rd,Apartmente.11234,Charlotte,NC,28215,7845679649,Thompkins Square Park,Konstantin Satchek,Manhattan,Varial Flip,8
https://www.surveymonkey.com/r/LYBYW8B,FerneKalfas@outlook.com,Valerie Morales,M474 clinton dr Street,Concierge Desk.17A,Hollis,NH,03049,7568284390,Thompkins Square Park,Konstantin Satchek,Manhattan,Varial Flip,0
https://www.surveymonkey.com/r/LYBYW8B,NobleWease88@hotmail.com,Erika Stewart,LTJD Brookfield Cir R0AD,Concierge Lounge11,Framingham,MA,01701,7313044295,Thompkins Square Park,Konstantin Satchek,Manhattan,Varial Flip,4
https://www.surveymonkey.com/r/LYBYW8B,Marlon.Vas01@outlook.com,mchefs Cruz,Y582 Gold Pan Strt.,Reception-Desk11234,Charlotte,NC,28215,7826117695,Thompkins Square Park,Konstantin Satchek,Manhattan,Varial Flip,3
https://www.surveymonkey.com/r/LYBYW8B,chrisco_margherita@outlook.com,Jason Love,NYWK clinton dr Lane,Concierge-Desk.17A,Hollis,NH,03049,7466775381,Thompkins Square Park,Konstantin Satchek,Manhattan,Varial Flip,8
https://www.surveymonkey.com/r/LYBYW8B,ranee_risse@hotmail.com,Aaron Carson,N4MP Oakdale Ave Strt,Lobby10,Nashua,NH,03062,7389442493,Thompkins Square Park,Konstantin Satchek,Manhattan,Varial Flip,7
https://www.surveymonkey.com/r/LYBYW8B,ErkerJarred@outlook.com,Jeffkc ymmxl,0ZXS sw 74th ave ste220,Front-Desk.14865,Tigard,OR,97224,7248174937,Thompkins Square Park,Konstantin Satchek,Manhattan,Varial Flip,1
https://www.surveymonkey.com/r/LYBYW8B,Jimmie_Deveny@outlook.com,Allison Davis,XABN clin.ton dr Lane.,H0USE17A,Hollis,NH,03049,7178867888,Thompkins Square Park,Konstantin Satchek,Manhattan,Varial Flip,8
https://www.surveymonkey.com/r/LYBYW8B,toleston.carlita02@hotmail.com,David Banks,DM18 Oakdale Ave Stret.,Reception-Room.10,Nashua,NH,03062,7159578441,Thompkins Square Park,Konstantin Satchek,Manhattan,Varial Flip,2
https://www.surveymonkey.com/r/LYBYW8B,haymore.santiago@outlook.com,Jeffkc ymmxl,RIRU sw 74th ave ste220,Reception-Room.14865,Tigard,OR,97224,7704174424,Thompkins Square Park,Konstantin Satchek,Manhattan,Varial Flip,3
https://www.surveymonkey.com/r/LYBYW8B,JulianneGlasscock@outlook.com,Jeffkc ymmxl,AM6Q sw 74th ave ste220,Reception Lounge.14865,Tigard,OR,97224,7215616178,Thompkins Square Park,Konstantin Satchek,Manhattan,Varial Flip,8
https://www.surveymonkey.com/r/LYBYW8B,archie-chacon@hotmail.com,Morgan Ramirez,AFY4 clin.ton dr Ln,Appartment.17A,Hollis,NH,03049,7993254369,Thompkins Square Park,Konstantin Satchek,Manhattan,Varial Flip,6
https://www.surveymonkey.com/r/LYBYW8B,Kawell_Elden@outlook.com,Tiffany Garcia,K2IF Brookfield Cir Road.,Front-Desk.11,Framingham,MA,01701,7478730794,Thompkins Square Park,Konstantin Satchek,Manhattan,Varial Flip,1
https://www.surveymonkey.com/r/LYBYW8B,SydneyHornsby@outlook.com,Jeffkc ymmxl,29D3 sw 74th ave ste220,Aparttmentt14865,Tigard,OR,97224,7692685276,Thompkins Square Park,Konstantin Satchek,Manhattan,Varial Flip,8
https://www.surveymonkey.com/r/LYBYW8B,avril-toby86@hotmail.com,Melissa Sanders,IG23 clin.ton dr Stret,#17A,Hollis,NH,03049,7336283267,Thompkins Square Park,Konstantin Satchek,Manhattan,Varial Flip,2
https://www.surveymonkey.com/r/LYBYW8B,pinal-cletus@outlook.com,Christopher Hill,S0GX Brookfield Cir Stret.,Apartmente11,Framingham,MA,01701,7142710547,Thompkins Square Park,Konstantin Satchek,Manhattan,Varial Flip,8
https://www.surveymonkey.com/r/LYBYW8B,Tynisha.Santio@outlook.com,Shawn Sparks,U32I clin.ton dr Stret,Concierge Lounge17A,Hollis,NH,03049,7959499813,Thompkins Square Park,Konstantin Satchek,Manhattan,Varial Flip,6
https://www.surveymonkey.com/r/LYBYW8B,Roman-Bessix84@hotmail.com,Michelle Anderson,N6N1 Brookfield Cir Lane,Reception Room11,Framingham,MA,01701,7007866761,Thompkins Square Park,Konstantin Satchek,Manhattan,Varial Flip,3
https://www.surveymonkey.com/r/LYBYW8B,LukasiewiczKimberley93@outlook.com,Abigail Curtis,D3AO clinton dr Lne.,Flat.17A,Hollis,NH,03049,7224146993,Thompkins Square Park,Konstantin Satchek,Manhattan,Varial Flip,8
https://www.surveymonkey.com/r/LYBYW8B,Fenix-Joshua@outlook.com,Michael Wiggins,0WHH clin.ton dr Lane,House.17A,Hollis,NH,03049,7732621814,Thompkins Square Park,Konstantin Satchek,Manhattan,Varial Flip,4
https://www.surveymonkey.com/r/LYBYW8B,leo-labreche96@hotmail.com,mchefs Cruz,Q98O Gold Pan R0AD,Front Desk.11234,Charlotte,NC,28215,7087091318,Thompkins Square Park,Konstantin Satchek,Manhattan,Varial Flip,7
https://www.surveymonkey.com/r/LYBYW8B,pfeuffercoleman@outlook.com,Joshua Smith,9OGO Oakdale Ave Rd,Appartment10,Nashua,NH,03062,7416060540,Thompkins Square Park,Konstantin Satchek,Manhattan,Varial Flip,6
https://www.surveymonkey.com/r/LYBYW8B,Imada_Marianna@outlook.com,Billy Becker,ANYM clinton dr Stret,Concierge Desk17A,Hollis,NH,03049,7915619186,Thompkins Square Park,Konstantin Satchek,Manhattan,Varial Flip,8
https://www.surveymonkey.com/r/LYBYW8B,onan-delmar@hotmail.com,Angela Potts,WGN2 Brookfield Cir St.,Hse.11,Framingham,MA,01701,7001566901,Thompkins Square Park,Konstantin Satchek,Manhattan,Varial Flip,7
https://www.surveymonkey.com/r/LYBYW8B,FeldhausFelton99@outlook.com,KCPRO Mays,RQL7 217 MIA DR Rd,APT77011,Newark,DE,19711,7011100409,Thompkins Square Park,Konstantin Satchek,Manhattan,Varial Flip,6
https://www.surveymonkey.com/r/LYBYW8B,Prodoehl-Tona90@outlook.com,Jeffkc ymmxl,9CXV sw 74th ave ste220,Concierge Lounge.14865,Tigard,OR,97224,7394522082,Thompkins Square Park,Konstantin Satchek,Manhattan,Varial Flip,4
https://www.surveymonkey.com/r/LYBYW8B,shirar_shani98@hotmail.com,mchefs Cruz,N1VD Gold Pan Street,Concierge11234,Charlotte,NC,28215,7375612595,Thompkins Square Park,Konstantin Satchek,Manhattan,Varial Flip,3
https://www.surveymonkey.com/r/LYBYW8B,Julian.Lieurance02@outlook.com,KCPRO Browning,8AKB 217 MIA DR Road.,APT77011,Newark,DE,19711,7198149697,Thompkins Square Park,Konstantin Satchek,Manhattan,Varial Flip,6
https://www.surveymonkey.com/r/LYBYW8B,skinklemorton90@outlook.com,Bobby Curry,FWTK Oakdale Ave Road.,Aptment10,Nashua,NH,03062,7066232118,Thompkins Square Park,Konstantin Satchek,Manhattan,Varial Flip,4
https://www.surveymonkey.com/r/LYBYW8B,bussa.taunya@hotmail.com,Jeffkc ymmxl,HVGO sw 74th ave ste220,No.14865,Tigard,OR,97224,7944046857,Thompkins Square Park,Konstantin Satchek,Manhattan,Varial Flip,6
https://www.surveymonkey.com/r/LYBYW8B,alwan-alease00@outlook.com,Jacqueline Rios,QS4S clinton dr St,Aptment. #17A,Hollis,NH,03049,7173458011,Thompkins Square Park,Konstantin Satchek,Manhattan,Varial Flip,7
https://www.surveymonkey.com/r/LYBYW8B,friedle-leroy@outlook.com,KCPRO Joseph,GSJV 217 MIA DR Lane,APT77011,Newark,DE,19711,7892856400,Thompkins Square Park,Konstantin Satchek,Manhattan,Varial Flip,0
https://www.surveymonkey.com/r/LYBYW8B,odell.stones@hotmail.com,mchefs Cruz,6N77 Gold Pan Street,Concierge Room.11234,Charlotte,NC,28215,7130399184,Thompkins Square Park,Konstantin Satchek,Manhattan,Varial Flip,9
https://www.surveymonkey.com/r/LYBYW8B,promise_russel@outlook.com,Raven Bowman,A1IX clinton dr Street.,Apartment17A,Hollis,NH,03049,7204916399,Thompkins Square Park,Konstantin Satchek,Manhattan,Varial Flip,1
https://www.surveymonkey.com/r/LYBYW8B,bolinderalessandra97@outlook.com,Nathan Medina,HY2L Oakdale Ave Lane.,Concierge Room10,Nashua,NH,03062,7360858063,Thompkins Square Park,Konstantin Satchek,Manhattan,Varial Flip,5
https://www.surveymonkey.com/r/LYBYW8B,PanellaMinna@hotmail.com,Jared Matthews,FCWV Oakdale Ave St.,Appartment.10,Nashua,NH,03062,7977429058,Thompkins Square Park,Konstantin Satchek,Manhattan,Varial Flip,2
https://www.surveymonkey.com/r/LYBYW8B,Lanuza_Jackson@outlook.com,Alan Hernandez,8W78 Brookfield Cir Lane,Reception-Room.11,Framingham,MA,01701,7959510744,Thompkins Square Park,Konstantin Satchek,Manhattan,Varial Flip,1
https://www.surveymonkey.com/r/LYBYW8B,Froats-Rolf@outlook.com,Jeffkc ymmxl,PHA9 sw 74th ave ste220,Concierge Desk.14865,Tigard,OR,97224,7606467335,Thompkins Square Park,Konstantin Satchek,Manhattan,Varial Flip,5
https://www.surveymonkey.com/r/LYBYW8B,Dallas-Woodburg93@hotmail.com,Mathew Clarke,4F2C Oakdale Ave Street.,Reception Room.10,Nashua,NH,03062,7167808476,Thompkins Square Park,Konstantin Satchek,Manhattan,Varial Flip,1
