link,email,name,add1,add2,city,state,postcode,phone,q2,q3,q4
https://www.surveymonkey.com/r/3PKFVVC,brent-weiss92@outlook.com,RANDOM mchefs,clinton dr,17A yav,Hollis,NH,03049,7303972051,ansq2,ansq3,ansq4
https://www.surveymonkey.com/r/3PKFVVC,estorga_brad@outlook.com,therealmchefs Cruz,Gold Pan Rd,11234,Charlotte,NC,28215,7162722589,ansq2,ansq3,ansq4
https://www.surveymonkey.com/r/3PKFVVC,George.Klay84@outlook.com,RANDOM mchefs,Oakdale Ave,10,Nashua,NH,03062,7710628570,ansq2,ansq3,ansq4
https://www.surveymonkey.com/r/3PKFVVC,Redline.Grover97@outlook.com,therealmchefs Cruz,Gold Pan Rd,11234,Charlotte,NC,28215,7142794684,ansq2,ansq3,ansq4
https://www.surveymonkey.com/r/3PKFVVC,roosevelt_gailun@outlook.com,RANDOM mchefs,clinton dr,17A yav,Hollis,NH,03049,7225828576,ansq2,ansq3,ansq4
https://www.surveymonkey.com/r/3PKFVVC,adangornto@outlook.com,therealmchefs Cruz,Gold Pan Rd,11234,Charlotte,NC,28215,7247773912,ansq2,ansq3,ansq4
https://www.surveymonkey.com/r/3PKFVVC,Zafar-Cornelius@outlook.com,RANDOM mchefs,Oakdale Ave,10,Nashua,NH,03062,7981787897,ansq2,ansq3,ansq4
https://www.surveymonkey.com/r/3PKFVVC,hardges-kirby@outlook.com,therealmchefs Cruz,Gold Pan Rd,11234,Charlotte,NC,28215,7194007100,ansq2,ansq3,ansq4
https://www.surveymonkey.com/r/3PKFVVC,Grammont_Cyril84@outlook.com,RANDOM mchefs,Brookfield Cir,11,Framingham,MA,01701,7952711235,ansq2,ansq3,ansq4
https://www.surveymonkey.com/r/3PKFVVC,janskywally95@outlook.com,therealmchefs Cruz,Gold Pan Rd,11234,Charlotte,NC,28215,7088386207,ansq2,ansq3,ansq4
https://www.surveymonkey.com/r/3PKFVVC,Sneller_Brigid98@outlook.com,RANDOM mchefs,clinton dr,17A yav,Hollis,NH,03049,7872860258,ansq2,ansq3,ansq4
https://www.surveymonkey.com/r/3PKFVVC,bo.vent@outlook.com,RANDOM mchefs,Oakdale Ave,10,Nashua,NH,03062,7428491489,ansq2,ansq3,ansq4
https://www.surveymonkey.com/r/3PKFVVC,jerrikufalk@outlook.com,therealmchefs Cruz,Gold Pan Rd,11234,Charlotte,NC,28215,7259603822,ansq2,ansq3,ansq4
https://www.surveymonkey.com/r/3PKFVVC,Ismael-Jank@outlook.com,therealmchefs Cruz,Gold Pan Rd,11234,Charlotte,NC,28215,7279551021,ansq2,ansq3,ansq4
https://www.surveymonkey.com/r/3PKFVVC,Paz.Bredy89@outlook.com,RANDOM mchefs,Oakdale Ave,10,Nashua,NH,03062,7222636219,ansq2,ansq3,ansq4
https://www.surveymonkey.com/r/3PKFVVC,Oriol_Hyman@outlook.com,RANDOM mchefs,Brookfield Cir,11,Framingham,MA,01701,7228755279,ansq2,ansq3,ansq4
https://www.surveymonkey.com/r/3PKFVVC,ParticiaPollen@outlook.com,RANDOM mchefs,Brookfield Cir,11,Framingham,MA,01701,7960020810,ansq2,ansq3,ansq4
https://www.surveymonkey.com/r/3PKFVVC,Labady_Romeo80@outlook.com,RANDOM mchefs,Brookfield Cir,11,Framingham,MA,01701,7476798282,ansq2,ansq3,ansq4
https://www.surveymonkey.com/r/3PKFVVC,Cleo.Caravello@outlook.com,therealmchefs Cruz,Gold Pan Rd,11234,Charlotte,NC,28215,7401897217,ansq2,ansq3,ansq4
https://www.surveymonkey.com/r/3PKFVVC,MantikDick@outlook.com,therealmchefs Cruz,Gold Pan Rd,11234,Charlotte,NC,28215,7120778722,ansq2,ansq3,ansq4
https://www.surveymonkey.com/r/3PKFVVC,lench_erich79@outlook.com,RANDOM mchefs,Brookfield Cir,11,Framingham,MA,01701,7829665126,ansq2,ansq3,ansq4
https://www.surveymonkey.com/r/3PKFVVC,Dillon-Utvik@outlook.com,RANDOM mchefs,Brookfield Cir,11,Framingham,MA,01701,7055211501,ansq2,ansq3,ansq4
https://www.surveymonkey.com/r/3PKFVVC,popovec-troy@outlook.com,RANDOM mchefs,Brookfield Cir,11,Framingham,MA,01701,7945796334,ansq2,ansq3,ansq4
https://www.surveymonkey.com/r/3PKFVVC,belongie-dalila@outlook.com,therealmchefs Cruz,Gold Pan Rd,11234,Charlotte,NC,28215,7752981046,ansq2,ansq3,ansq4
https://www.surveymonkey.com/r/3PKFVVC,reda-neuner93@outlook.com,RANDOM mchefs,Brookfield Cir,11,Framingham,MA,01701,7377199534,ansq2,ansq3,ansq4
https://www.surveymonkey.com/r/3PKFVVC,bajek_missy@outlook.com,therealmchefs Cruz,Gold Pan Rd,11234,Charlotte,NC,28215,7591705487,ansq2,ansq3,ansq4
https://www.surveymonkey.com/r/3PKFVVC,Ream-Theron@outlook.com,RANDOM mchefs,Brookfield Cir,11,Framingham,MA,01701,7611236610,ansq2,ansq3,ansq4
https://www.surveymonkey.com/r/3PKFVVC,Eckrote.Cruz@outlook.com,RANDOM mchefs,Oakdale Ave,10,Nashua,NH,03062,7327342598,ansq2,ansq3,ansq4
https://www.surveymonkey.com/r/3PKFVVC,EmeryValladares@outlook.com,RANDOM mchefs,Brookfield Cir,11,Framingham,MA,01701,7739849055,ansq2,ansq3,ansq4
https://www.surveymonkey.com/r/3PKFVVC,Randell-Menier95@outlook.com,therealmchefs Cruz,Gold Pan Rd,11234,Charlotte,NC,28215,7363511439,ansq2,ansq3,ansq4
https://www.surveymonkey.com/r/3PKFVVC,GillsVelva@outlook.com,therealmchefs Cruz,Gold Pan Rd,11234,Charlotte,NC,28215,7653829041,ansq2,ansq3,ansq4
https://www.surveymonkey.com/r/3PKFVVC,aldo.sprinkles@outlook.com,RANDOM mchefs,Brookfield Cir,11,Framingham,MA,01701,7328489039,ansq2,ansq3,ansq4
https://www.surveymonkey.com/r/3PKFVVC,rohweder.susanne@outlook.com,RANDOM mchefs,Brookfield Cir,11,Framingham,MA,01701,7971627627,ansq2,ansq3,ansq4
https://www.surveymonkey.com/r/3PKFVVC,kent-busick@outlook.com,therealmchefs Cruz,Gold Pan Rd,11234,Charlotte,NC,28215,7990266347,ansq2,ansq3,ansq4
https://www.surveymonkey.com/r/3PKFVVC,wilfredbaumer00@outlook.com,RANDOM mchefs,Oakdale Ave,10,Nashua,NH,03062,7437670478,ansq2,ansq3,ansq4
https://www.surveymonkey.com/r/3PKFVVC,ramiro_kneefe@outlook.com,therealmchefs Cruz,Gold Pan Rd,11234,Charlotte,NC,28215,7955608923,ansq2,ansq3,ansq4
https://www.surveymonkey.com/r/3PKFVVC,Plath_Claude@outlook.com,therealmchefs Cruz,Gold Pan Rd,11234,Charlotte,NC,28215,7054198053,ansq2,ansq3,ansq4
https://www.surveymonkey.com/r/3PKFVVC,HaywoodCanipe02@outlook.com,RANDOM mchefs,clinton dr,17A yav,Hollis,NH,03049,7608068145,ansq2,ansq3,ansq4
https://www.surveymonkey.com/r/3PKFVVC,Sarro-Mohammad90@outlook.com,RANDOM mchefs,Brookfield Cir,11,Framingham,MA,01701,7946869430,ansq2,ansq3,ansq4
https://www.surveymonkey.com/r/3PKFVVC,spratley_benedict@outlook.com,RANDOM mchefs,clinton dr,17A yav,Hollis,NH,03049,7357179922,ansq2,ansq3,ansq4
https://www.surveymonkey.com/r/3PKFVVC,merrilee_urbani94@outlook.com,RANDOM mchefs,Brookfield Cir,11,Framingham,MA,01701,7375817370,ansq2,ansq3,ansq4
https://www.surveymonkey.com/r/3PKFVVC,Meinhardt-Georgia02@outlook.com,therealmchefs Cruz,Gold Pan Rd,11234,Charlotte,NC,28215,7203315467,ansq2,ansq3,ansq4
https://www.surveymonkey.com/r/3PKFVVC,remona.babbel@outlook.com,therealmchefs Cruz,Gold Pan Rd,11234,Charlotte,NC,28215,7078392789,ansq2,ansq3,ansq4
https://www.surveymonkey.com/r/3PKFVVC,holroyd_ashly@outlook.com,RANDOM mchefs,clinton dr,17A yav,Hollis,NH,03049,7277366660,ansq2,ansq3,ansq4
https://www.surveymonkey.com/r/3PKFVVC,angustia.lester90@outlook.com,RANDOM mchefs,Oakdale Ave,10,Nashua,NH,03062,7265718002,ansq2,ansq3,ansq4
https://www.surveymonkey.com/r/3PKFVVC,Barbara-Nagelkirk@outlook.com,therealmchefs Cruz,Gold Pan Rd,11234,Charlotte,NC,28215,7010183530,ansq2,ansq3,ansq4
https://www.surveymonkey.com/r/3PKFVVC,StanAnez@outlook.com,therealmchefs Cruz,Gold Pan Rd,11234,Charlotte,NC,28215,7560486015,ansq2,ansq3,ansq4
https://www.surveymonkey.com/r/3PKFVVC,JeremyChait@outlook.com,RANDOM mchefs,Brookfield Cir,11,Framingham,MA,01701,7837751529,ansq2,ansq3,ansq4
https://www.surveymonkey.com/r/3PKFVVC,felton_saffel@outlook.com,therealmchefs Cruz,Gold Pan Rd,11234,Charlotte,NC,28215,7495328812,ansq2,ansq3,ansq4
https://www.surveymonkey.com/r/3PKFVVC,skomsky_ali90@outlook.com,RANDOM mchefs,clinton dr,17A yav,Hollis,NH,03049,7051285386,ansq2,ansq3,ansq4
https://www.surveymonkey.com/r/3PKFVVC,Rattell_Lucas@outlook.com,therealmchefs Cruz,Gold Pan Rd,11234,Charlotte,NC,28215,7877068244,ansq2,ansq3,ansq4
https://www.surveymonkey.com/r/3PKFVVC,Grotz_Lon99@outlook.com,therealmchefs Cruz,Gold Pan Rd,11234,Charlotte,NC,28215,7181515521,ansq2,ansq3,ansq4
https://www.surveymonkey.com/r/3PKFVVC,flamcoral@outlook.com,therealmchefs Cruz,Gold Pan Rd,11234,Charlotte,NC,28215,7197447738,ansq2,ansq3,ansq4
https://www.surveymonkey.com/r/3PKFVVC,corneliusgaron@outlook.com,RANDOM mchefs,Oakdale Ave,10,Nashua,NH,03062,7674040347,ansq2,ansq3,ansq4
https://www.surveymonkey.com/r/3PKFVVC,raleighabegg@outlook.com,therealmchefs Cruz,Gold Pan Rd,11234,Charlotte,NC,28215,7318704310,ansq2,ansq3,ansq4
https://www.surveymonkey.com/r/3PKFVVC,Kowalske.Noble@outlook.com,RANDOM mchefs,Oakdale Ave,10,Nashua,NH,03062,7783144551,ansq2,ansq3,ansq4
https://www.surveymonkey.com/r/3PKFVVC,Karapetian.Cyndy99@outlook.com,RANDOM mchefs,Oakdale Ave,10,Nashua,NH,03062,7862005032,ansq2,ansq3,ansq4
https://www.surveymonkey.com/r/3PKFVVC,jurisch_lyndsey@outlook.com,RANDOM mchefs,Oakdale Ave,10,Nashua,NH,03062,7553404018,ansq2,ansq3,ansq4
https://www.surveymonkey.com/r/3PKFVVC,dinabrasch@outlook.com,RANDOM mchefs,Brookfield Cir,11,Framingham,MA,01701,7541584746,ansq2,ansq3,ansq4
https://www.surveymonkey.com/r/3PKFVVC,eugenie_chmelik@outlook.com,RANDOM mchefs,clinton dr,17A yav,Hollis,NH,03049,7837447702,ansq2,ansq3,ansq4
https://www.surveymonkey.com/r/3PKFVVC,bodensteinerkhalilah93@outlook.com,therealmchefs Cruz,Gold Pan Rd,11234,Charlotte,NC,28215,7627338963,ansq2,ansq3,ansq4
https://www.surveymonkey.com/r/3PKFVVC,Redrick-Domitila95@outlook.com,RANDOM mchefs,clinton dr,17A yav,Hollis,NH,03049,7492853899,ansq2,ansq3,ansq4
https://www.surveymonkey.com/r/3PKFVVC,davis.nodd96@outlook.com,RANDOM mchefs,Brookfield Cir,11,Framingham,MA,01701,7258394880,ansq2,ansq3,ansq4
https://www.surveymonkey.com/r/3PKFVVC,bonebright.kimberlee98@outlook.com,RANDOM mchefs,Oakdale Ave,10,Nashua,NH,03062,7133971710,ansq2,ansq3,ansq4
https://www.surveymonkey.com/r/3PKFVVC,polen-minh88@outlook.com,RANDOM mchefs,clinton dr,17A yav,Hollis,NH,03049,7514383218,ansq2,ansq3,ansq4
https://www.surveymonkey.com/r/3PKFVVC,Tesler-Sheilah@outlook.com,RANDOM mchefs,Oakdale Ave,10,Nashua,NH,03062,7362710789,ansq2,ansq3,ansq4
https://www.surveymonkey.com/r/3PKFVVC,elayne.thibadeau93@outlook.com,RANDOM mchefs,clinton dr,17A yav,Hollis,NH,03049,7084076621,ansq2,ansq3,ansq4
https://www.surveymonkey.com/r/3PKFVVC,Agosti.Julius@outlook.com,RANDOM mchefs,Oakdale Ave,10,Nashua,NH,03062,7962089331,ansq2,ansq3,ansq4
https://www.surveymonkey.com/r/3PKFVVC,mattias.romeo92@outlook.com,therealmchefs Cruz,Gold Pan Rd,11234,Charlotte,NC,28215,7472359322,ansq2,ansq3,ansq4
https://www.surveymonkey.com/r/3PKFVVC,Coleson.Gladis@outlook.com,RANDOM mchefs,Brookfield Cir,11,Framingham,MA,01701,7968569369,ansq2,ansq3,ansq4
https://www.surveymonkey.com/r/3PKFVVC,Turnball_Craig80@outlook.com,RANDOM mchefs,clinton dr,17A yav,Hollis,NH,03049,7058604018,ansq2,ansq3,ansq4
https://www.surveymonkey.com/r/3PKFVVC,klara-sorce92@outlook.com,RANDOM mchefs,Brookfield Cir,11,Framingham,MA,01701,7061860978,ansq2,ansq3,ansq4
https://www.surveymonkey.com/r/3PKFVVC,NeilKochis96@outlook.com,RANDOM mchefs,Brookfield Cir,11,Framingham,MA,01701,7058302494,ansq2,ansq3,ansq4
https://www.surveymonkey.com/r/3PKFVVC,azotea_angele@outlook.com,RANDOM mchefs,clinton dr,17A yav,Hollis,NH,03049,7486101508,ansq2,ansq3,ansq4
https://www.surveymonkey.com/r/3PKFVVC,JuanaRivira92@outlook.com,RANDOM mchefs,clinton dr,17A yav,Hollis,NH,03049,7297758183,ansq2,ansq3,ansq4
https://www.surveymonkey.com/r/3PKFVVC,lochner.rosendo@outlook.com,RANDOM mchefs,clinton dr,17A yav,Hollis,NH,03049,7998883717,ansq2,ansq3,ansq4
https://www.surveymonkey.com/r/3PKFVVC,queenie.althauser@outlook.com,RANDOM mchefs,Brookfield Cir,11,Framingham,MA,01701,7329003163,ansq2,ansq3,ansq4
https://www.surveymonkey.com/r/3PKFVVC,ClorindaDoolan@outlook.com,RANDOM mchefs,clinton dr,17A yav,Hollis,NH,03049,7273855385,ansq2,ansq3,ansq4
https://www.surveymonkey.com/r/3PKFVVC,Xavier-Schatzman@outlook.com,RANDOM mchefs,clinton dr,17A yav,Hollis,NH,03049,7913361439,ansq2,ansq3,ansq4
https://www.surveymonkey.com/r/3PKFVVC,sterling_bechtel@outlook.com,RANDOM mchefs,Oakdale Ave,10,Nashua,NH,03062,7499526597,ansq2,ansq3,ansq4
https://www.surveymonkey.com/r/3PKFVVC,malachowski.lawrence@outlook.com,RANDOM mchefs,clinton dr,17A yav,Hollis,NH,03049,7478509640,ansq2,ansq3,ansq4
https://www.surveymonkey.com/r/3PKFVVC,Morgan_Simzer@outlook.com,therealmchefs Cruz,Gold Pan Rd,11234,Charlotte,NC,28215,7422704626,ansq2,ansq3,ansq4
https://www.surveymonkey.com/r/3PKFVVC,Kelsey-Wetz97@outlook.com,RANDOM mchefs,Oakdale Ave,10,Nashua,NH,03062,7678272467,ansq2,ansq3,ansq4
https://www.surveymonkey.com/r/3PKFVVC,Colton-Rueckert@outlook.com,RANDOM mchefs,Oakdale Ave,10,Nashua,NH,03062,7104233283,ansq2,ansq3,ansq4
https://www.surveymonkey.com/r/3PKFVVC,linzie-georgine81@outlook.com,therealmchefs Cruz,Gold Pan Rd,11234,Charlotte,NC,28215,7093760774,ansq2,ansq3,ansq4
https://www.surveymonkey.com/r/3PKFVVC,quincy.locust@outlook.com,therealmchefs Cruz,Gold Pan Rd,11234,Charlotte,NC,28215,7807443350,ansq2,ansq3,ansq4
https://www.surveymonkey.com/r/3PKFVVC,LemeryDerek02@outlook.com,RANDOM mchefs,Brookfield Cir,11,Framingham,MA,01701,7012354006,ansq2,ansq3,ansq4
https://www.surveymonkey.com/r/3PKFVVC,vanroekel_kiesha@outlook.com,RANDOM mchefs,Brookfield Cir,11,Framingham,MA,01701,7718253650,ansq2,ansq3,ansq4
https://www.surveymonkey.com/r/3PKFVVC,refugio-chinnery@outlook.com,RANDOM mchefs,Oakdale Ave,10,Nashua,NH,03062,7264604529,ansq2,ansq3,ansq4
https://www.surveymonkey.com/r/3PKFVVC,Myron-Courtenay96@outlook.com,RANDOM mchefs,clinton dr,17A yav,Hollis,NH,03049,7639927488,ansq2,ansq3,ansq4
https://www.surveymonkey.com/r/3PKFVVC,omar-forsberg@outlook.com,RANDOM mchefs,clinton dr,17A yav,Hollis,NH,03049,7555767092,ansq2,ansq3,ansq4
https://www.surveymonkey.com/r/3PKFVVC,Nicholle.Meeter81@outlook.com,RANDOM mchefs,Oakdale Ave,10,Nashua,NH,03062,7609539576,ansq2,ansq3,ansq4
https://www.surveymonkey.com/r/3PKFVVC,Mcgeady_Lucrecia01@outlook.com,RANDOM mchefs,clinton dr,17A yav,Hollis,NH,03049,7931462821,ansq2,ansq3,ansq4
https://www.surveymonkey.com/r/3PKFVVC,Mahung_Tresa84@outlook.com,therealmchefs Cruz,Gold Pan Rd,11234,Charlotte,NC,28215,7076674892,ansq2,ansq3,ansq4
https://www.surveymonkey.com/r/3PKFVVC,Golom_Vernon00@outlook.com,RANDOM mchefs,Oakdale Ave,10,Nashua,NH,03062,7138233870,ansq2,ansq3,ansq4
https://www.surveymonkey.com/r/3PKFVVC,Kendal.Modesitt@outlook.com,RANDOM mchefs,clinton dr,17A yav,Hollis,NH,03049,7199681612,ansq2,ansq3,ansq4
https://www.surveymonkey.com/r/3PKFVVC,reynaldo-lipham@outlook.com,RANDOM mchefs,Oakdale Ave,10,Nashua,NH,03062,7252954494,ansq2,ansq3,ansq4
https://www.surveymonkey.com/r/3PKFVVC,Wallack.Mario@outlook.com,therealmchefs Cruz,Gold Pan Rd,11234,Charlotte,NC,28215,7877111027,ansq2,ansq3,ansq4
https://www.surveymonkey.com/r/3PKFVVC,wonderwayne@outlook.com,RANDOM mchefs,Brookfield Cir,11,Framingham,MA,01701,7574759703,ansq2,ansq3,ansq4
https://www.surveymonkey.com/r/3PKFVVC,mandes_arthur@outlook.com,therealmchefs Cruz,Gold Pan Rd,11234,Charlotte,NC,28215,7709206676,ansq2,ansq3,ansq4
https://www.surveymonkey.com/r/3PKFVVC,Warner_Spieker00@outlook.com,RANDOM mchefs,clinton dr,17A yav,Hollis,NH,03049,7002744383,ansq2,ansq3,ansq4
https://www.surveymonkey.com/r/3PKFVVC,nacktrinidad95@outlook.com,RANDOM mchefs,Oakdale Ave,10,Nashua,NH,03062,7582855966,ansq2,ansq3,ansq4
https://www.surveymonkey.com/r/3PKFVVC,gleaton_glenn92@outlook.com,RANDOM mchefs,clinton dr,17A yav,Hollis,NH,03049,7342157149,ansq2,ansq3,ansq4
https://www.surveymonkey.com/r/3PKFVVC,abdul_payton@outlook.com,RANDOM mchefs,clinton dr,17A yav,Hollis,NH,03049,7371412511,ansq2,ansq3,ansq4
https://www.surveymonkey.com/r/3PKFVVC,deangelo-krejsa97@outlook.com,RANDOM mchefs,Oakdale Ave,10,Nashua,NH,03062,7006793877,ansq2,ansq3,ansq4
https://www.surveymonkey.com/r/3PKFVVC,Cindi-Castanada79@outlook.com,RANDOM mchefs,Brookfield Cir,11,Framingham,MA,01701,7636487920,ansq2,ansq3,ansq4
https://www.surveymonkey.com/r/3PKFVVC,gonzaloboll@outlook.com,RANDOM mchefs,Brookfield Cir,11,Framingham,MA,01701,7635524492,ansq2,ansq3,ansq4
https://www.surveymonkey.com/r/3PKFVVC,Charlotte-Murakawa90@outlook.com,RANDOM mchefs,Brookfield Cir,11,Framingham,MA,01701,7098047684,ansq2,ansq3,ansq4
https://www.surveymonkey.com/r/3PKFVVC,phelpsmarshall76@outlook.com,therealmchefs Cruz,Gold Pan Rd,11234,Charlotte,NC,28215,7213362589,ansq2,ansq3,ansq4
https://www.surveymonkey.com/r/3PKFVVC,AnibalEngelhardt@outlook.com,RANDOM mchefs,Brookfield Cir,11,Framingham,MA,01701,7181872502,ansq2,ansq3,ansq4
https://www.surveymonkey.com/r/3PKFVVC,foster-mongrain@outlook.com,therealmchefs Cruz,Gold Pan Rd,11234,Charlotte,NC,28215,7107808187,ansq2,ansq3,ansq4
https://www.surveymonkey.com/r/3PKFVVC,flitt-alex@outlook.com,RANDOM mchefs,Oakdale Ave,10,Nashua,NH,03062,7599271875,ansq2,ansq3,ansq4
https://www.surveymonkey.com/r/3PKFVVC,tawna.casterline03@outlook.com,RANDOM mchefs,Oakdale Ave,10,Nashua,NH,03062,7163800552,ansq2,ansq3,ansq4
https://www.surveymonkey.com/r/3PKFVVC,Cathrine-Resnikoff@outlook.com,RANDOM mchefs,Oakdale Ave,10,Nashua,NH,03062,7797177795,ansq2,ansq3,ansq4
https://www.surveymonkey.com/r/3PKFVVC,bidon_errol@outlook.com,RANDOM mchefs,Oakdale Ave,10,Nashua,NH,03062,7776004345,ansq2,ansq3,ansq4
https://www.surveymonkey.com/r/3PKFVVC,thurman-stoermer@outlook.com,RANDOM mchefs,clinton dr,17A yav,Hollis,NH,03049,7345147587,ansq2,ansq3,ansq4
https://www.surveymonkey.com/r/3PKFVVC,robin-savelli@outlook.com,therealmchefs Cruz,Gold Pan Rd,11234,Charlotte,NC,28215,7076697215,ansq2,ansq3,ansq4
https://www.surveymonkey.com/r/3PKFVVC,eady-lindsey@outlook.com,RANDOM mchefs,Oakdale Ave,10,Nashua,NH,03062,7743893112,ansq2,ansq3,ansq4
https://www.surveymonkey.com/r/3PKFVVC,Hunnicut-Garrett@outlook.com,therealmchefs Cruz,Gold Pan Rd,11234,Charlotte,NC,28215,7867725648,ansq2,ansq3,ansq4
https://www.surveymonkey.com/r/3PKFVVC,Valene_Faerber93@outlook.com,therealmchefs Cruz,Gold Pan Rd,11234,Charlotte,NC,28215,7928420862,ansq2,ansq3,ansq4
https://www.surveymonkey.com/r/3PKFVVC,Kasdon-Ciara@outlook.com,RANDOM mchefs,clinton dr,17A yav,Hollis,NH,03049,7307250549,ansq2,ansq3,ansq4
https://www.surveymonkey.com/r/3PKFVVC,Shayne-Sterr@outlook.com,RANDOM mchefs,clinton dr,17A yav,Hollis,NH,03049,7771251132,ansq2,ansq3,ansq4
https://www.surveymonkey.com/r/3PKFVVC,beckelheimerbrice@outlook.com,RANDOM mchefs,clinton dr,17A yav,Hollis,NH,03049,7737241272,ansq2,ansq3,ansq4
https://www.surveymonkey.com/r/3PKFVVC,alphonse_hoogheem77@outlook.com,RANDOM mchefs,clinton dr,17A yav,Hollis,NH,03049,7603946934,ansq2,ansq3,ansq4
https://www.surveymonkey.com/r/3PKFVVC,asmus_norah@outlook.com,therealmchefs Cruz,Gold Pan Rd,11234,Charlotte,NC,28215,7798902368,ansq2,ansq3,ansq4
https://www.surveymonkey.com/r/3PKFVVC,knackstedt_davina93@outlook.com,RANDOM mchefs,Brookfield Cir,11,Framingham,MA,01701,7048123366,ansq2,ansq3,ansq4
https://www.surveymonkey.com/r/3PKFVVC,delbert_fillip@outlook.com,RANDOM mchefs,Oakdale Ave,10,Nashua,NH,03062,7244607090,ansq2,ansq3,ansq4
https://www.surveymonkey.com/r/3PKFVVC,KowalcykMichal@outlook.com,RANDOM mchefs,clinton dr,17A yav,Hollis,NH,03049,7153467748,ansq2,ansq3,ansq4
https://www.surveymonkey.com/r/3PKFVVC,Magan_Sein95@outlook.com,therealmchefs Cruz,Gold Pan Rd,11234,Charlotte,NC,28215,7937531471,ansq2,ansq3,ansq4
https://www.surveymonkey.com/r/3PKFVVC,Tennille_Slavik@outlook.com,RANDOM mchefs,clinton dr,17A yav,Hollis,NH,03049,7024646298,ansq2,ansq3,ansq4
https://www.surveymonkey.com/r/3PKFVVC,monroe-siaperas@outlook.com,RANDOM mchefs,Brookfield Cir,11,Framingham,MA,01701,7037257168,ansq2,ansq3,ansq4
https://www.surveymonkey.com/r/3PKFVVC,ValeriaBoatman@outlook.com,RANDOM mchefs,clinton dr,17A yav,Hollis,NH,03049,7228984633,ansq2,ansq3,ansq4
https://www.surveymonkey.com/r/3PKFVVC,Bozman.Danny@outlook.com,RANDOM mchefs,clinton dr,17A yav,Hollis,NH,03049,7991604745,ansq2,ansq3,ansq4
https://www.surveymonkey.com/r/3PKFVVC,chantel.burghardt99@outlook.com,RANDOM mchefs,Oakdale Ave,10,Nashua,NH,03062,7378366784,ansq2,ansq3,ansq4
https://www.surveymonkey.com/r/3PKFVVC,Sammis.Jae94@outlook.com,RANDOM mchefs,Oakdale Ave,10,Nashua,NH,03062,7066295703,ansq2,ansq3,ansq4
https://www.surveymonkey.com/r/3PKFVVC,steuart-ernestina@outlook.com,RANDOM mchefs,Oakdale Ave,10,Nashua,NH,03062,7502122398,ansq2,ansq3,ansq4
https://www.surveymonkey.com/r/3PKFVVC,kizzie.opfer@outlook.com,RANDOM mchefs,Brookfield Cir,11,Framingham,MA,01701,7157337850,ansq2,ansq3,ansq4
https://www.surveymonkey.com/r/3PKFVVC,elliott_doxon98@outlook.com,RANDOM mchefs,Oakdale Ave,10,Nashua,NH,03062,7195215110,ansq2,ansq3,ansq4
https://www.surveymonkey.com/r/3PKFVVC,zenia_delfelder97@outlook.com,therealmchefs Cruz,Gold Pan Rd,11234,Charlotte,NC,28215,7139671920,ansq2,ansq3,ansq4
https://www.surveymonkey.com/r/3PKFVVC,eloy-oelschlaeger91@outlook.com,RANDOM mchefs,Brookfield Cir,11,Framingham,MA,01701,7179245334,ansq2,ansq3,ansq4
https://www.surveymonkey.com/r/3PKFVVC,porfiriofunck@outlook.com,RANDOM mchefs,clinton dr,17A yav,Hollis,NH,03049,7620480758,ansq2,ansq3,ansq4
https://www.surveymonkey.com/r/3PKFVVC,Kiefert-Hugh@outlook.com,RANDOM mchefs,clinton dr,17A yav,Hollis,NH,03049,7996756338,ansq2,ansq3,ansq4
https://www.surveymonkey.com/r/3PKFVVC,von-laubacher@outlook.com,RANDOM mchefs,Brookfield Cir,11,Framingham,MA,01701,7149889551,ansq2,ansq3,ansq4
https://www.surveymonkey.com/r/3PKFVVC,Apilado-Brady94@outlook.com,therealmchefs Cruz,Gold Pan Rd,11234,Charlotte,NC,28215,7332367512,ansq2,ansq3,ansq4
https://www.surveymonkey.com/r/3PKFVVC,Lweis.Abraham@outlook.com,RANDOM mchefs,Oakdale Ave,10,Nashua,NH,03062,7805523583,ansq2,ansq3,ansq4
https://www.surveymonkey.com/r/3PKFVVC,Chong_Walterson@outlook.com,RANDOM mchefs,Brookfield Cir,11,Framingham,MA,01701,7811769366,ansq2,ansq3,ansq4
https://www.surveymonkey.com/r/3PKFVVC,felipe.simser@outlook.com,therealmchefs Cruz,Gold Pan Rd,11234,Charlotte,NC,28215,7499615754,ansq2,ansq3,ansq4
https://www.surveymonkey.com/r/3PKFVVC,Lina_Fears@outlook.com,therealmchefs Cruz,Gold Pan Rd,11234,Charlotte,NC,28215,7807059391,ansq2,ansq3,ansq4
https://www.surveymonkey.com/r/3PKFVVC,claudiomaller@outlook.com,RANDOM mchefs,Oakdale Ave,10,Nashua,NH,03062,7545687416,ansq2,ansq3,ansq4
https://www.surveymonkey.com/r/3PKFVVC,Pagnozzi.Euna98@outlook.com,RANDOM mchefs,clinton dr,17A yav,Hollis,NH,03049,7458273996,ansq2,ansq3,ansq4
https://www.surveymonkey.com/r/3PKFVVC,CritchfieldManuel84@outlook.com,therealmchefs Cruz,Gold Pan Rd,11234,Charlotte,NC,28215,7061698449,ansq2,ansq3,ansq4
https://www.surveymonkey.com/r/3PKFVVC,sulyma_scottie@outlook.com,RANDOM mchefs,Oakdale Ave,10,Nashua,NH,03062,7702304689,ansq2,ansq3,ansq4
https://www.surveymonkey.com/r/3PKFVVC,thuy.mcginness@outlook.com,therealmchefs Cruz,Gold Pan Rd,11234,Charlotte,NC,28215,7330555424,ansq2,ansq3,ansq4
https://www.surveymonkey.com/r/3PKFVVC,Pearl_Taegel@outlook.com,therealmchefs Cruz,Gold Pan Rd,11234,Charlotte,NC,28215,7671670768,ansq2,ansq3,ansq4
https://www.surveymonkey.com/r/3PKFVVC,PolekChanell@outlook.com,RANDOM mchefs,Oakdale Ave,10,Nashua,NH,03062,7001254652,ansq2,ansq3,ansq4
https://www.surveymonkey.com/r/3PKFVVC,lauricehellweg@outlook.com,RANDOM mchefs,Brookfield Cir,11,Framingham,MA,01701,7122880064,ansq2,ansq3,ansq4
https://www.surveymonkey.com/r/3PKFVVC,LasandraVanloo00@outlook.com,RANDOM mchefs,Brookfield Cir,11,Framingham,MA,01701,7640631594,ansq2,ansq3,ansq4
https://www.surveymonkey.com/r/3PKFVVC,rhett-salvitti@outlook.com,RANDOM mchefs,Oakdale Ave,10,Nashua,NH,03062,7198754983,ansq2,ansq3,ansq4
https://www.surveymonkey.com/r/3PKFVVC,Esquilin_Julio@outlook.com,RANDOM mchefs,clinton dr,17A yav,Hollis,NH,03049,7566148357,ansq2,ansq3,ansq4
https://www.surveymonkey.com/r/3PKFVVC,karnas.corliss95@outlook.com,RANDOM mchefs,Brookfield Cir,11,Framingham,MA,01701,7843694205,ansq2,ansq3,ansq4
https://www.surveymonkey.com/r/3PKFVVC,Barbetta.Donnie@outlook.com,RANDOM mchefs,Oakdale Ave,10,Nashua,NH,03062,7844982539,ansq2,ansq3,ansq4
https://www.surveymonkey.com/r/3PKFVVC,Radde-Buford@outlook.com,therealmchefs Cruz,Gold Pan Rd,11234,Charlotte,NC,28215,7991015199,ansq2,ansq3,ansq4
https://www.surveymonkey.com/r/3PKFVVC,Ronald.Lozey@outlook.com,RANDOM mchefs,Oakdale Ave,10,Nashua,NH,03062,7497447252,ansq2,ansq3,ansq4
https://www.surveymonkey.com/r/3PKFVVC,Tarascio-Toby@outlook.com,RANDOM mchefs,Brookfield Cir,11,Framingham,MA,01701,7156086960,ansq2,ansq3,ansq4
https://www.surveymonkey.com/r/3PKFVVC,Organek_Dylan@outlook.com,RANDOM mchefs,clinton dr,17A yav,Hollis,NH,03049,7396917386,ansq2,ansq3,ansq4
https://www.surveymonkey.com/r/3PKFVVC,aupperle.trisha83@outlook.com,RANDOM mchefs,clinton dr,17A yav,Hollis,NH,03049,7063102422,ansq2,ansq3,ansq4
https://www.surveymonkey.com/r/3PKFVVC,Cohenour-Janay93@outlook.com,therealmchefs Cruz,Gold Pan Rd,11234,Charlotte,NC,28215,7297208261,ansq2,ansq3,ansq4
https://www.surveymonkey.com/r/3PKFVVC,zachery_simple96@outlook.com,RANDOM mchefs,Brookfield Cir,11,Framingham,MA,01701,7956666115,ansq2,ansq3,ansq4
https://www.surveymonkey.com/r/3PKFVVC,marybelle.whitten@outlook.com,RANDOM mchefs,clinton dr,17A yav,Hollis,NH,03049,7317343209,ansq2,ansq3,ansq4
https://www.surveymonkey.com/r/3PKFVVC,hiddenshiela@outlook.com,RANDOM mchefs,Oakdale Ave,10,Nashua,NH,03062,7098503955,ansq2,ansq3,ansq4
https://www.surveymonkey.com/r/3PKFVVC,Tsosie.Christel89@outlook.com,therealmchefs Cruz,Gold Pan Rd,11234,Charlotte,NC,28215,7581953934,ansq2,ansq3,ansq4
https://www.surveymonkey.com/r/3PKFVVC,Palma.Tinger@outlook.com,therealmchefs Cruz,Gold Pan Rd,11234,Charlotte,NC,28215,7065684129,ansq2,ansq3,ansq4
https://www.surveymonkey.com/r/3PKFVVC,Mammo-Arden@outlook.com,RANDOM mchefs,Brookfield Cir,11,Framingham,MA,01701,7759277157,ansq2,ansq3,ansq4
https://www.surveymonkey.com/r/3PKFVVC,Precella_June99@outlook.com,RANDOM mchefs,clinton dr,17A yav,Hollis,NH,03049,7185901234,ansq2,ansq3,ansq4
https://www.surveymonkey.com/r/3PKFVVC,SyvertsenRandell@outlook.com,RANDOM mchefs,clinton dr,17A yav,Hollis,NH,03049,7361341698,ansq2,ansq3,ansq4
https://www.surveymonkey.com/r/3PKFVVC,neal.abshire90@outlook.com,RANDOM mchefs,Oakdale Ave,10,Nashua,NH,03062,7370382358,ansq2,ansq3,ansq4
https://www.surveymonkey.com/r/3PKFVVC,Schlaefer.Val@outlook.com,RANDOM mchefs,Oakdale Ave,10,Nashua,NH,03062,7252983099,ansq2,ansq3,ansq4
https://www.surveymonkey.com/r/3PKFVVC,minster-napoleon77@outlook.com,therealmchefs Cruz,Gold Pan Rd,11234,Charlotte,NC,28215,7497713812,ansq2,ansq3,ansq4
https://www.surveymonkey.com/r/3PKFVVC,Rumney.Lance@outlook.com,RANDOM mchefs,Brookfield Cir,11,Framingham,MA,01701,7027036487,ansq2,ansq3,ansq4
https://www.surveymonkey.com/r/3PKFVVC,Raval_Milda@outlook.com,therealmchefs Cruz,Gold Pan Rd,11234,Charlotte,NC,28215,7416491795,ansq2,ansq3,ansq4
https://www.surveymonkey.com/r/3PKFVVC,Tegan_Eggen@outlook.com,RANDOM mchefs,clinton dr,17A yav,Hollis,NH,03049,7794175220,ansq2,ansq3,ansq4
https://www.surveymonkey.com/r/3PKFVVC,JeromyBuchler93@outlook.com,RANDOM mchefs,Brookfield Cir,11,Framingham,MA,01701,7123403636,ansq2,ansq3,ansq4
https://www.surveymonkey.com/r/3PKFVVC,Migdalia_Blasing@outlook.com,RANDOM mchefs,Oakdale Ave,10,Nashua,NH,03062,7059231266,ansq2,ansq3,ansq4
https://www.surveymonkey.com/r/3PKFVVC,Tiu-Sang@outlook.com,RANDOM mchefs,clinton dr,17A yav,Hollis,NH,03049,7969106471,ansq2,ansq3,ansq4
https://www.surveymonkey.com/r/3PKFVVC,cristy-ennals97@outlook.com,therealmchefs Cruz,Gold Pan Rd,11234,Charlotte,NC,28215,7834426219,ansq2,ansq3,ansq4
https://www.surveymonkey.com/r/3PKFVVC,delrafiq91@outlook.com,RANDOM mchefs,Oakdale Ave,10,Nashua,NH,03062,7686628587,ansq2,ansq3,ansq4
https://www.surveymonkey.com/r/3PKFVVC,kristine.wissinger76@outlook.com,RANDOM mchefs,Oakdale Ave,10,Nashua,NH,03062,7332652071,ansq2,ansq3,ansq4
https://www.surveymonkey.com/r/3PKFVVC,jimmy_murchison90@outlook.com,RANDOM mchefs,Brookfield Cir,11,Framingham,MA,01701,7093603127,ansq2,ansq3,ansq4
https://www.surveymonkey.com/r/3PKFVVC,Teodoro.Elkayam@outlook.com,RANDOM mchefs,clinton dr,17A yav,Hollis,NH,03049,7013888370,ansq2,ansq3,ansq4
https://www.surveymonkey.com/r/3PKFVVC,Domenic-Carvin@outlook.com,RANDOM mchefs,clinton dr,17A yav,Hollis,NH,03049,7420903797,ansq2,ansq3,ansq4
https://www.surveymonkey.com/r/3PKFVVC,bishop.joel@outlook.com,RANDOM mchefs,clinton dr,17A yav,Hollis,NH,03049,7027904575,ansq2,ansq3,ansq4
https://www.surveymonkey.com/r/3PKFVVC,shigleybryon@outlook.com,therealmchefs Cruz,Gold Pan Rd,11234,Charlotte,NC,28215,7324255325,ansq2,ansq3,ansq4
https://www.surveymonkey.com/r/3PKFVVC,Ambrose_Nicolau91@outlook.com,RANDOM mchefs,Oakdale Ave,10,Nashua,NH,03062,7975521604,ansq2,ansq3,ansq4
https://www.surveymonkey.com/r/3PKFVVC,Barry-Cross@outlook.com,RANDOM mchefs,Brookfield Cir,11,Framingham,MA,01701,7382746873,ansq2,ansq3,ansq4
https://www.surveymonkey.com/r/3PKFVVC,Booker-Pelow@outlook.com,RANDOM mchefs,clinton dr,17A yav,Hollis,NH,03049,7903135767,ansq2,ansq3,ansq4
https://www.surveymonkey.com/r/3PKFVVC,zeagler-michelina@outlook.com,RANDOM mchefs,Oakdale Ave,10,Nashua,NH,03062,7819827099,ansq2,ansq3,ansq4
https://www.surveymonkey.com/r/3PKFVVC,kennettshanae@outlook.com,RANDOM mchefs,Oakdale Ave,10,Nashua,NH,03062,7393583314,ansq2,ansq3,ansq4
https://www.surveymonkey.com/r/3PKFVVC,Marlyn_Barbur@outlook.com,RANDOM mchefs,Brookfield Cir,11,Framingham,MA,01701,7867268917,ansq2,ansq3,ansq4
https://www.surveymonkey.com/r/3PKFVVC,Ballena.Sammy@outlook.com,therealmchefs Cruz,Gold Pan Rd,11234,Charlotte,NC,28215,7330378053,ansq2,ansq3,ansq4
https://www.surveymonkey.com/r/3PKFVVC,corria.mariella@outlook.com,RANDOM mchefs,clinton dr,17A yav,Hollis,NH,03049,7905404261,ansq2,ansq3,ansq4
https://www.surveymonkey.com/r/3PKFVVC,SenaidaMaltese@outlook.com,RANDOM mchefs,Brookfield Cir,11,Framingham,MA,01701,7956943024,ansq2,ansq3,ansq4
https://www.surveymonkey.com/r/3PKFVVC,Kinloch-Evelyne@outlook.com,RANDOM mchefs,Oakdale Ave,10,Nashua,NH,03062,7478093038,ansq2,ansq3,ansq4
https://www.surveymonkey.com/r/3PKFVVC,Jasper_Kolding@outlook.com,RANDOM mchefs,Brookfield Cir,11,Framingham,MA,01701,7045020706,ansq2,ansq3,ansq4
https://www.surveymonkey.com/r/3PKFVVC,Frank.Settlemire@outlook.com,therealmchefs Cruz,Gold Pan Rd,11234,Charlotte,NC,28215,7759811889,ansq2,ansq3,ansq4
https://www.surveymonkey.com/r/3PKFVVC,Corkum-Jan00@outlook.com,therealmchefs Cruz,Gold Pan Rd,11234,Charlotte,NC,28215,7645856005,ansq2,ansq3,ansq4
https://www.surveymonkey.com/r/3PKFVVC,basden.pierre96@outlook.com,therealmchefs Cruz,Gold Pan Rd,11234,Charlotte,NC,28215,7757049585,ansq2,ansq3,ansq4
https://www.surveymonkey.com/r/3PKFVVC,chrispleigha@outlook.com,RANDOM mchefs,Oakdale Ave,10,Nashua,NH,03062,7486332030,ansq2,ansq3,ansq4
https://www.surveymonkey.com/r/3PKFVVC,blumenberg.cole@outlook.com,RANDOM mchefs,clinton dr,17A yav,Hollis,NH,03049,7372414646,ansq2,ansq3,ansq4
https://www.surveymonkey.com/r/3PKFVVC,uzelacrandy@outlook.com,RANDOM mchefs,clinton dr,17A yav,Hollis,NH,03049,7371247254,ansq2,ansq3,ansq4
https://www.surveymonkey.com/r/3PKFVVC,Drew_Vaugh@outlook.com,therealmchefs Cruz,Gold Pan Rd,11234,Charlotte,NC,28215,7460733805,ansq2,ansq3,ansq4
https://www.surveymonkey.com/r/3PKFVVC,Sal-Pinero@outlook.com,RANDOM mchefs,clinton dr,17A yav,Hollis,NH,03049,7807055004,ansq2,ansq3,ansq4
https://www.surveymonkey.com/r/3PKFVVC,QuinnCzepiel@outlook.com,RANDOM mchefs,Brookfield Cir,11,Framingham,MA,01701,7304528166,ansq2,ansq3,ansq4
https://www.surveymonkey.com/r/3PKFVVC,heinle.darby@outlook.com,RANDOM mchefs,Brookfield Cir,11,Framingham,MA,01701,7718473570,ansq2,ansq3,ansq4
https://www.surveymonkey.com/r/3PKFVVC,hilario_prochazka@outlook.com,RANDOM mchefs,Oakdale Ave,10,Nashua,NH,03062,7727146952,ansq2,ansq3,ansq4
https://www.surveymonkey.com/r/3PKFVVC,antoniettatrinkle@outlook.com,RANDOM mchefs,clinton dr,17A yav,Hollis,NH,03049,7144160500,ansq2,ansq3,ansq4
https://www.surveymonkey.com/r/3PKFVVC,Towey_Earnest97@outlook.com,therealmchefs Cruz,Gold Pan Rd,11234,Charlotte,NC,28215,7110532400,ansq2,ansq3,ansq4
https://www.surveymonkey.com/r/3PKFVVC,ellicottnelida97@outlook.com,therealmchefs Cruz,Gold Pan Rd,11234,Charlotte,NC,28215,7267767906,ansq2,ansq3,ansq4
https://www.surveymonkey.com/r/3PKFVVC,NarasimhanZana@outlook.com,RANDOM mchefs,Oakdale Ave,10,Nashua,NH,03062,7325525672,ansq2,ansq3,ansq4
https://www.surveymonkey.com/r/3PKFVVC,Sigrid_Mchendry@outlook.com,RANDOM mchefs,Oakdale Ave,10,Nashua,NH,03062,7655044785,ansq2,ansq3,ansq4
https://www.surveymonkey.com/r/3PKFVVC,Newsted.Wilburn@outlook.com,RANDOM mchefs,Oakdale Ave,10,Nashua,NH,03062,7392806471,ansq2,ansq3,ansq4
https://www.surveymonkey.com/r/3PKFVVC,Mohammad_Mossberg@outlook.com,RANDOM mchefs,Oakdale Ave,10,Nashua,NH,03062,7919522280,ansq2,ansq3,ansq4
https://www.surveymonkey.com/r/3PKFVVC,Roma.Kawell96@outlook.com,RANDOM mchefs,Oakdale Ave,10,Nashua,NH,03062,7797389405,ansq2,ansq3,ansq4
https://www.surveymonkey.com/r/3PKFVVC,gwen_cerone@outlook.com,RANDOM mchefs,Oakdale Ave,10,Nashua,NH,03062,7480317724,ansq2,ansq3,ansq4
https://www.surveymonkey.com/r/3PKFVVC,Sae_Simon@outlook.com,therealmchefs Cruz,Gold Pan Rd,11234,Charlotte,NC,28215,7856317776,ansq2,ansq3,ansq4
https://www.surveymonkey.com/r/3PKFVVC,Wilmer_Robeza@outlook.com,RANDOM mchefs,Oakdale Ave,10,Nashua,NH,03062,7349715483,ansq2,ansq3,ansq4
https://www.surveymonkey.com/r/3PKFVVC,normand_molgard@outlook.com,RANDOM mchefs,Oakdale Ave,10,Nashua,NH,03062,7353814010,ansq2,ansq3,ansq4
https://www.surveymonkey.com/r/3PKFVVC,rufenerleland@outlook.com,therealmchefs Cruz,Gold Pan Rd,11234,Charlotte,NC,28215,7087143912,ansq2,ansq3,ansq4
https://www.surveymonkey.com/r/3PKFVVC,Kamala.Dargis@outlook.com,RANDOM mchefs,clinton dr,17A yav,Hollis,NH,03049,7098540360,ansq2,ansq3,ansq4
https://www.surveymonkey.com/r/3PKFVVC,romano_sterling@outlook.com,RANDOM mchefs,Brookfield Cir,11,Framingham,MA,01701,7812856576,ansq2,ansq3,ansq4
https://www.surveymonkey.com/r/3PKFVVC,Hornbuckle.Jayson@outlook.com,therealmchefs Cruz,Gold Pan Rd,11234,Charlotte,NC,28215,7878423922,ansq2,ansq3,ansq4
https://www.surveymonkey.com/r/3PKFVVC,maismay92@outlook.com,RANDOM mchefs,Oakdale Ave,10,Nashua,NH,03062,7747904827,ansq2,ansq3,ansq4
https://www.surveymonkey.com/r/3PKFVVC,rosstabuena@outlook.com,RANDOM mchefs,Oakdale Ave,10,Nashua,NH,03062,7848676013,ansq2,ansq3,ansq4
https://www.surveymonkey.com/r/3PKFVVC,Belia-Bonaccorso93@outlook.com,RANDOM mchefs,Oakdale Ave,10,Nashua,NH,03062,7351402641,ansq2,ansq3,ansq4
https://www.surveymonkey.com/r/3PKFVVC,carforacameron@outlook.com,therealmchefs Cruz,Gold Pan Rd,11234,Charlotte,NC,28215,7150386975,ansq2,ansq3,ansq4
https://www.surveymonkey.com/r/3PKFVVC,ok-merryman@outlook.com,RANDOM mchefs,clinton dr,17A yav,Hollis,NH,03049,7572106904,ansq2,ansq3,ansq4
https://www.surveymonkey.com/r/3PKFVVC,mennella_jessie@outlook.com,RANDOM mchefs,clinton dr,17A yav,Hollis,NH,03049,7697027502,ansq2,ansq3,ansq4
https://www.surveymonkey.com/r/3PKFVVC,gaylecornella@outlook.com,RANDOM mchefs,clinton dr,17A yav,Hollis,NH,03049,7458302799,ansq2,ansq3,ansq4
https://www.surveymonkey.com/r/3PKFVVC,Sa.Eun@outlook.com,RANDOM mchefs,clinton dr,17A yav,Hollis,NH,03049,7202658545,ansq2,ansq3,ansq4
https://www.surveymonkey.com/r/3PKFVVC,AdalineHamolik@outlook.com,therealmchefs Cruz,Gold Pan Rd,11234,Charlotte,NC,28215,7362130029,ansq2,ansq3,ansq4
https://www.surveymonkey.com/r/3PKFVVC,Dorthey-Losco90@outlook.com,therealmchefs Cruz,Gold Pan Rd,11234,Charlotte,NC,28215,7492681180,ansq2,ansq3,ansq4
https://www.surveymonkey.com/r/3PKFVVC,laci_romiro@outlook.com,RANDOM mchefs,Brookfield Cir,11,Framingham,MA,01701,7167634935,ansq2,ansq3,ansq4
https://www.surveymonkey.com/r/3PKFVVC,ElaWhorton@outlook.com,RANDOM mchefs,Brookfield Cir,11,Framingham,MA,01701,7367238554,ansq2,ansq3,ansq4
https://www.surveymonkey.com/r/3PKFVVC,Avans_Raleigh@outlook.com,RANDOM mchefs,Brookfield Cir,11,Framingham,MA,01701,7924818091,ansq2,ansq3,ansq4
https://www.surveymonkey.com/r/3PKFVVC,dukagail98@outlook.com,RANDOM mchefs,clinton dr,17A yav,Hollis,NH,03049,7510245106,ansq2,ansq3,ansq4
https://www.surveymonkey.com/r/3PKFVVC,mathilde-joyner@outlook.com,RANDOM mchefs,clinton dr,17A yav,Hollis,NH,03049,7804936109,ansq2,ansq3,ansq4
https://www.surveymonkey.com/r/3PKFVVC,Rammer_Susan@outlook.com,RANDOM mchefs,Oakdale Ave,10,Nashua,NH,03062,7187383930,ansq2,ansq3,ansq4
https://www.surveymonkey.com/r/3PKFVVC,wannamakercharley@outlook.com,RANDOM mchefs,Oakdale Ave,10,Nashua,NH,03062,7659647386,ansq2,ansq3,ansq4
https://www.surveymonkey.com/r/3PKFVVC,alfonso_mihalios94@outlook.com,RANDOM mchefs,Oakdale Ave,10,Nashua,NH,03062,7558620099,ansq2,ansq3,ansq4
https://www.surveymonkey.com/r/3PKFVVC,fredrick-nuner@outlook.com,therealmchefs Cruz,Gold Pan Rd,11234,Charlotte,NC,28215,7541623811,ansq2,ansq3,ansq4
https://www.surveymonkey.com/r/3PKFVVC,clifford.klitsch@outlook.com,RANDOM mchefs,Brookfield Cir,11,Framingham,MA,01701,7123748553,ansq2,ansq3,ansq4
https://www.surveymonkey.com/r/3PKFVVC,Laurendeau-Aaron@outlook.com,RANDOM mchefs,clinton dr,17A yav,Hollis,NH,03049,7424216839,ansq2,ansq3,ansq4
https://www.surveymonkey.com/r/3PKFVVC,lohan_janiece@outlook.com,RANDOM mchefs,Brookfield Cir,11,Framingham,MA,01701,7380061592,ansq2,ansq3,ansq4
https://www.surveymonkey.com/r/3PKFVVC,Veer_Emerson94@outlook.com,RANDOM mchefs,Brookfield Cir,11,Framingham,MA,01701,7829905410,ansq2,ansq3,ansq4
https://www.surveymonkey.com/r/3PKFVVC,Darron.Algire@outlook.com,RANDOM mchefs,Brookfield Cir,11,Framingham,MA,01701,7100611413,ansq2,ansq3,ansq4
https://www.surveymonkey.com/r/3PKFVVC,Almeda.Shorette@outlook.com,therealmchefs Cruz,Gold Pan Rd,11234,Charlotte,NC,28215,7341407218,ansq2,ansq3,ansq4
https://www.surveymonkey.com/r/3PKFVVC,CourtneyChaconas99@outlook.com,RANDOM mchefs,clinton dr,17A yav,Hollis,NH,03049,7264631553,ansq2,ansq3,ansq4
https://www.surveymonkey.com/r/3PKFVVC,corrion-clemente@outlook.com,RANDOM mchefs,Oakdale Ave,10,Nashua,NH,03062,7116739380,ansq2,ansq3,ansq4
https://www.surveymonkey.com/r/3PKFVVC,bryce.yark@outlook.com,therealmchefs Cruz,Gold Pan Rd,11234,Charlotte,NC,28215,7868794078,ansq2,ansq3,ansq4
https://www.surveymonkey.com/r/3PKFVVC,genevie_prochnow00@outlook.com,therealmchefs Cruz,Gold Pan Rd,11234,Charlotte,NC,28215,7572285854,ansq2,ansq3,ansq4
https://www.surveymonkey.com/r/3PKFVVC,pamollison97@outlook.com,RANDOM mchefs,Brookfield Cir,11,Framingham,MA,01701,7937452128,ansq2,ansq3,ansq4
https://www.surveymonkey.com/r/3PKFVVC,Owen_Butkowski@outlook.com,therealmchefs Cruz,Gold Pan Rd,11234,Charlotte,NC,28215,7715229392,ansq2,ansq3,ansq4
https://www.surveymonkey.com/r/3PKFVVC,Aide_Nemetz@outlook.com,RANDOM mchefs,clinton dr,17A yav,Hollis,NH,03049,7356018675,ansq2,ansq3,ansq4
https://www.surveymonkey.com/r/3PKFVVC,kathryneedster90@outlook.com,therealmchefs Cruz,Gold Pan Rd,11234,Charlotte,NC,28215,7466959517,ansq2,ansq3,ansq4
https://www.surveymonkey.com/r/3PKFVVC,pablo-barias96@outlook.com,RANDOM mchefs,clinton dr,17A yav,Hollis,NH,03049,7984031380,ansq2,ansq3,ansq4
https://www.surveymonkey.com/r/3PKFVVC,Velva_Alexzander@outlook.com,RANDOM mchefs,Brookfield Cir,11,Framingham,MA,01701,7189249345,ansq2,ansq3,ansq4
https://www.surveymonkey.com/r/3PKFVVC,weitze_sydney@outlook.com,RANDOM mchefs,clinton dr,17A yav,Hollis,NH,03049,7155820720,ansq2,ansq3,ansq4
https://www.surveymonkey.com/r/3PKFVVC,Francesconi_Alfreda91@outlook.com,therealmchefs Cruz,Gold Pan Rd,11234,Charlotte,NC,28215,7594577423,ansq2,ansq3,ansq4
https://www.surveymonkey.com/r/3PKFVVC,Krawiec_Madelyn@outlook.com,RANDOM mchefs,clinton dr,17A yav,Hollis,NH,03049,7198723379,ansq2,ansq3,ansq4
https://www.surveymonkey.com/r/3PKFVVC,porscheneufer@outlook.com,RANDOM mchefs,Oakdale Ave,10,Nashua,NH,03062,7421997855,ansq2,ansq3,ansq4
https://www.surveymonkey.com/r/3PKFVVC,hubertdarring@outlook.com,RANDOM mchefs,Brookfield Cir,11,Framingham,MA,01701,7064271294,ansq2,ansq3,ansq4
https://www.surveymonkey.com/r/3PKFVVC,miyamura.charlie82@outlook.com,RANDOM mchefs,Brookfield Cir,11,Framingham,MA,01701,7247804171,ansq2,ansq3,ansq4
https://www.surveymonkey.com/r/3PKFVVC,benedict.desamito94@outlook.com,RANDOM mchefs,clinton dr,17A yav,Hollis,NH,03049,7990023443,ansq2,ansq3,ansq4
https://www.surveymonkey.com/r/3PKFVVC,leonardocranford@outlook.com,RANDOM mchefs,clinton dr,17A yav,Hollis,NH,03049,7697934415,ansq2,ansq3,ansq4
https://www.surveymonkey.com/r/3PKFVVC,Badamo.Julee94@outlook.com,RANDOM mchefs,clinton dr,17A yav,Hollis,NH,03049,7972190331,ansq2,ansq3,ansq4
https://www.surveymonkey.com/r/3PKFVVC,karan-roenigk99@outlook.com,RANDOM mchefs,Brookfield Cir,11,Framingham,MA,01701,7457802314,ansq2,ansq3,ansq4
https://www.surveymonkey.com/r/3PKFVVC,Heiple-Kent@outlook.com,RANDOM mchefs,Brookfield Cir,11,Framingham,MA,01701,7730576756,ansq2,ansq3,ansq4
https://www.surveymonkey.com/r/3PKFVVC,Darius-Blaskovich@outlook.com,RANDOM mchefs,Brookfield Cir,11,Framingham,MA,01701,7375923971,ansq2,ansq3,ansq4
https://www.surveymonkey.com/r/3PKFVVC,ana-sotos@outlook.com,RANDOM mchefs,clinton dr,17A yav,Hollis,NH,03049,7695395654,ansq2,ansq3,ansq4
https://www.surveymonkey.com/r/3PKFVVC,Desalvatore.Lucia@outlook.com,RANDOM mchefs,clinton dr,17A yav,Hollis,NH,03049,7971705865,ansq2,ansq3,ansq4
https://www.surveymonkey.com/r/3PKFVVC,MittanSung@outlook.com,RANDOM mchefs,clinton dr,17A yav,Hollis,NH,03049,7617174565,ansq2,ansq3,ansq4
https://www.surveymonkey.com/r/3PKFVVC,gwen_smolinski@outlook.com,therealmchefs Cruz,Gold Pan Rd,11234,Charlotte,NC,28215,7871703793,ansq2,ansq3,ansq4
https://www.surveymonkey.com/r/3PKFVVC,johnnie_awkward97@outlook.com,RANDOM mchefs,Oakdale Ave,10,Nashua,NH,03062,7535799258,ansq2,ansq3,ansq4
https://www.surveymonkey.com/r/3PKFVVC,Schock_Francoise90@outlook.com,RANDOM mchefs,Oakdale Ave,10,Nashua,NH,03062,7226243001,ansq2,ansq3,ansq4
https://www.surveymonkey.com/r/3PKFVVC,Everett-Tillema@outlook.com,RANDOM mchefs,clinton dr,17A yav,Hollis,NH,03049,7835279790,ansq2,ansq3,ansq4
https://www.surveymonkey.com/r/3PKFVVC,Lester.Deniro@outlook.com,RANDOM mchefs,clinton dr,17A yav,Hollis,NH,03049,7940968107,ansq2,ansq3,ansq4
https://www.surveymonkey.com/r/3PKFVVC,reynaldo_vetterick@outlook.com,therealmchefs Cruz,Gold Pan Rd,11234,Charlotte,NC,28215,7038326737,ansq2,ansq3,ansq4
https://www.surveymonkey.com/r/3PKFVVC,Wala.Lizzette@outlook.com,RANDOM mchefs,clinton dr,17A yav,Hollis,NH,03049,7596412751,ansq2,ansq3,ansq4
https://www.surveymonkey.com/r/3PKFVVC,edgeston-waldo92@outlook.com,RANDOM mchefs,Oakdale Ave,10,Nashua,NH,03062,7612005719,ansq2,ansq3,ansq4
https://www.surveymonkey.com/r/3PKFVVC,graigmcmahan82@outlook.com,RANDOM mchefs,Oakdale Ave,10,Nashua,NH,03062,7072868984,ansq2,ansq3,ansq4
https://www.surveymonkey.com/r/3PKFVVC,PerlowNenita@outlook.com,RANDOM mchefs,Oakdale Ave,10,Nashua,NH,03062,7430931330,ansq2,ansq3,ansq4
https://www.surveymonkey.com/r/3PKFVVC,TschidaVella99@outlook.com,RANDOM mchefs,Brookfield Cir,11,Framingham,MA,01701,7124955619,ansq2,ansq3,ansq4
https://www.surveymonkey.com/r/3PKFVVC,PaxtonTony@outlook.com,RANDOM mchefs,Brookfield Cir,11,Framingham,MA,01701,7294633649,ansq2,ansq3,ansq4
https://www.surveymonkey.com/r/3PKFVVC,chuck_amory@outlook.com,RANDOM mchefs,Brookfield Cir,11,Framingham,MA,01701,7525353303,ansq2,ansq3,ansq4
https://www.surveymonkey.com/r/3PKFVVC,maddox.carmina@outlook.com,RANDOM mchefs,Oakdale Ave,10,Nashua,NH,03062,7967875561,ansq2,ansq3,ansq4
https://www.surveymonkey.com/r/3PKFVVC,Pantano-Dannie94@outlook.com,RANDOM mchefs,Oakdale Ave,10,Nashua,NH,03062,7949124336,ansq2,ansq3,ansq4
https://www.surveymonkey.com/r/3PKFVVC,bierkortte.raymundo01@outlook.com,RANDOM mchefs,clinton dr,17A yav,Hollis,NH,03049,7806076628,ansq2,ansq3,ansq4
https://www.surveymonkey.com/r/3PKFVVC,Margarett_Percival@outlook.com,therealmchefs Cruz,Gold Pan Rd,11234,Charlotte,NC,28215,7351443159,ansq2,ansq3,ansq4
https://www.surveymonkey.com/r/3PKFVVC,EroJustina@outlook.com,RANDOM mchefs,clinton dr,17A yav,Hollis,NH,03049,7265016547,ansq2,ansq3,ansq4
https://www.surveymonkey.com/r/3PKFVVC,alvarokendrick@outlook.com,RANDOM mchefs,Oakdale Ave,10,Nashua,NH,03062,7963075306,ansq2,ansq3,ansq4
https://www.surveymonkey.com/r/3PKFVVC,thao.charley@outlook.com,RANDOM mchefs,Brookfield Cir,11,Framingham,MA,01701,7345140620,ansq2,ansq3,ansq4
https://www.surveymonkey.com/r/3PKFVVC,kemberly.fagan@outlook.com,therealmchefs Cruz,Gold Pan Rd,11234,Charlotte,NC,28215,7086823075,ansq2,ansq3,ansq4
https://www.surveymonkey.com/r/3PKFVVC,cristie.mannix98@outlook.com,RANDOM mchefs,Brookfield Cir,11,Framingham,MA,01701,7633165121,ansq2,ansq3,ansq4
https://www.surveymonkey.com/r/3PKFVVC,Brittney.Bisconer@outlook.com,therealmchefs Cruz,Gold Pan Rd,11234,Charlotte,NC,28215,7498966553,ansq2,ansq3,ansq4
https://www.surveymonkey.com/r/3PKFVVC,Buckley_Lucien91@outlook.com,therealmchefs Cruz,Gold Pan Rd,11234,Charlotte,NC,28215,7687348160,ansq2,ansq3,ansq4
https://www.surveymonkey.com/r/3PKFVVC,KrowsLin@outlook.com,RANDOM mchefs,Brookfield Cir,11,Framingham,MA,01701,7541541702,ansq2,ansq3,ansq4
https://www.surveymonkey.com/r/3PKFVVC,delmarbonier97@outlook.com,RANDOM mchefs,Brookfield Cir,11,Framingham,MA,01701,7325800294,ansq2,ansq3,ansq4
https://www.surveymonkey.com/r/3PKFVVC,scharfenberg-darwin@outlook.com,RANDOM mchefs,clinton dr,17A yav,Hollis,NH,03049,7139296974,ansq2,ansq3,ansq4
https://www.surveymonkey.com/r/3PKFVVC,Zollman.Sherrill@outlook.com,RANDOM mchefs,Brookfield Cir,11,Framingham,MA,01701,7842829293,ansq2,ansq3,ansq4
https://www.surveymonkey.com/r/3PKFVVC,Yoshiko.Bayle96@outlook.com,RANDOM mchefs,clinton dr,17A yav,Hollis,NH,03049,7953935976,ansq2,ansq3,ansq4
https://www.surveymonkey.com/r/3PKFVVC,BoydUglum@outlook.com,RANDOM mchefs,Brookfield Cir,11,Framingham,MA,01701,7481381256,ansq2,ansq3,ansq4
https://www.surveymonkey.com/r/3PKFVVC,Coralie.Bealle93@outlook.com,RANDOM mchefs,clinton dr,17A yav,Hollis,NH,03049,7745026524,ansq2,ansq3,ansq4
https://www.surveymonkey.com/r/3PKFVVC,Schuman.Lianne@outlook.com,therealmchefs Cruz,Gold Pan Rd,11234,Charlotte,NC,28215,7067488815,ansq2,ansq3,ansq4
https://www.surveymonkey.com/r/3PKFVVC,LaroccaDwayne91@outlook.com,RANDOM mchefs,Brookfield Cir,11,Framingham,MA,01701,7862572458,ansq2,ansq3,ansq4
https://www.surveymonkey.com/r/3PKFVVC,Bouldin.Kris92@outlook.com,RANDOM mchefs,Brookfield Cir,11,Framingham,MA,01701,7845917025,ansq2,ansq3,ansq4
https://www.surveymonkey.com/r/3PKFVVC,alleshousetyrone@outlook.com,RANDOM mchefs,Oakdale Ave,10,Nashua,NH,03062,7768734261,ansq2,ansq3,ansq4
https://www.surveymonkey.com/r/3PKFVVC,Catharine_Rochow@outlook.com,RANDOM mchefs,clinton dr,17A yav,Hollis,NH,03049,7065511250,ansq2,ansq3,ansq4
https://www.surveymonkey.com/r/3PKFVVC,Penuel_Clay@outlook.com,RANDOM mchefs,Brookfield Cir,11,Framingham,MA,01701,7249381639,ansq2,ansq3,ansq4
https://www.surveymonkey.com/r/3PKFVVC,DrewryAndres93@outlook.com,RANDOM mchefs,Brookfield Cir,11,Framingham,MA,01701,7839920295,ansq2,ansq3,ansq4
https://www.surveymonkey.com/r/3PKFVVC,pansy.strebeck@outlook.com,RANDOM mchefs,Brookfield Cir,11,Framingham,MA,01701,7127131869,ansq2,ansq3,ansq4
https://www.surveymonkey.com/r/3PKFVVC,mackeymichell@outlook.com,RANDOM mchefs,Brookfield Cir,11,Framingham,MA,01701,7066872891,ansq2,ansq3,ansq4
https://www.surveymonkey.com/r/3PKFVVC,CarmaAshbrook00@outlook.com,RANDOM mchefs,clinton dr,17A yav,Hollis,NH,03049,7914779167,ansq2,ansq3,ansq4
https://www.surveymonkey.com/r/3PKFVVC,RonaldKlipfel78@outlook.com,RANDOM mchefs,Oakdale Ave,10,Nashua,NH,03062,7210770310,ansq2,ansq3,ansq4
https://www.surveymonkey.com/r/3PKFVVC,portugal.emmaline00@outlook.com,RANDOM mchefs,Brookfield Cir,11,Framingham,MA,01701,7021376589,ansq2,ansq3,ansq4
https://www.surveymonkey.com/r/3PKFVVC,Letha-Sultana@outlook.com,RANDOM mchefs,Brookfield Cir,11,Framingham,MA,01701,7507157227,ansq2,ansq3,ansq4
https://www.surveymonkey.com/r/3PKFVVC,Reemer.Jackelyn@outlook.com,RANDOM mchefs,Oakdale Ave,10,Nashua,NH,03062,7573288585,ansq2,ansq3,ansq4
https://www.surveymonkey.com/r/3PKFVVC,loban.timothy@outlook.com,therealmchefs Cruz,Gold Pan Rd,11234,Charlotte,NC,28215,7301492321,ansq2,ansq3,ansq4
https://www.surveymonkey.com/r/3PKFVVC,IvetteOehm@outlook.com,RANDOM mchefs,clinton dr,17A yav,Hollis,NH,03049,7860574673,ansq2,ansq3,ansq4
https://www.surveymonkey.com/r/3PKFVVC,chasgrabenstein@outlook.com,RANDOM mchefs,Brookfield Cir,11,Framingham,MA,01701,7510610920,ansq2,ansq3,ansq4
https://www.surveymonkey.com/r/3PKFVVC,Horsch-Roman@outlook.com,therealmchefs Cruz,Gold Pan Rd,11234,Charlotte,NC,28215,7779083425,ansq2,ansq3,ansq4
https://www.surveymonkey.com/r/3PKFVVC,Claudio-Damberger@outlook.com,RANDOM mchefs,Oakdale Ave,10,Nashua,NH,03062,7720542958,ansq2,ansq3,ansq4
https://www.surveymonkey.com/r/3PKFVVC,adam.grassi75@outlook.com,RANDOM mchefs,clinton dr,17A yav,Hollis,NH,03049,7461591511,ansq2,ansq3,ansq4
https://www.surveymonkey.com/r/3PKFVVC,Shiloh.Hylle01@outlook.com,RANDOM mchefs,Brookfield Cir,11,Framingham,MA,01701,7047351993,ansq2,ansq3,ansq4
https://www.surveymonkey.com/r/3PKFVVC,capaccinocarolann99@outlook.com,RANDOM mchefs,Brookfield Cir,11,Framingham,MA,01701,7709241237,ansq2,ansq3,ansq4
https://www.surveymonkey.com/r/3PKFVVC,mica_wolff98@outlook.com,RANDOM mchefs,Oakdale Ave,10,Nashua,NH,03062,7910981707,ansq2,ansq3,ansq4
https://www.surveymonkey.com/r/3PKFVVC,IgnacioSuess@outlook.com,therealmchefs Cruz,Gold Pan Rd,11234,Charlotte,NC,28215,7503944512,ansq2,ansq3,ansq4
https://www.surveymonkey.com/r/3PKFVVC,sandness-samuel@outlook.com,RANDOM mchefs,clinton dr,17A yav,Hollis,NH,03049,7519037357,ansq2,ansq3,ansq4
https://www.surveymonkey.com/r/3PKFVVC,arica_mcgaha@outlook.com,RANDOM mchefs,Brookfield Cir,11,Framingham,MA,01701,7380493233,ansq2,ansq3,ansq4
https://www.surveymonkey.com/r/3PKFVVC,enriquekwasny95@outlook.com,RANDOM mchefs,Brookfield Cir,11,Framingham,MA,01701,7200643396,ansq2,ansq3,ansq4
https://www.surveymonkey.com/r/3PKFVVC,esteban-oksen98@outlook.com,RANDOM mchefs,Oakdale Ave,10,Nashua,NH,03062,7616181055,ansq2,ansq3,ansq4
https://www.surveymonkey.com/r/3PKFVVC,Junita-Stepney@outlook.com,RANDOM mchefs,Brookfield Cir,11,Framingham,MA,01701,7752987587,ansq2,ansq3,ansq4
https://www.surveymonkey.com/r/3PKFVVC,SharellTant94@outlook.com,RANDOM mchefs,Brookfield Cir,11,Framingham,MA,01701,7167018554,ansq2,ansq3,ansq4
https://www.surveymonkey.com/r/3PKFVVC,ErickBroersma@outlook.com,RANDOM mchefs,clinton dr,17A yav,Hollis,NH,03049,7470986075,ansq2,ansq3,ansq4
https://www.surveymonkey.com/r/3PKFVVC,Riopel.Alma99@outlook.com,RANDOM mchefs,Oakdale Ave,10,Nashua,NH,03062,7375127154,ansq2,ansq3,ansq4
https://www.surveymonkey.com/r/3PKFVVC,johnie_bisagna85@outlook.com,RANDOM mchefs,clinton dr,17A yav,Hollis,NH,03049,7664818260,ansq2,ansq3,ansq4
https://www.surveymonkey.com/r/3PKFVVC,demarcussylva@outlook.com,RANDOM mchefs,Brookfield Cir,11,Framingham,MA,01701,7402643639,ansq2,ansq3,ansq4
https://www.surveymonkey.com/r/3PKFVVC,RexSecker96@outlook.com,RANDOM mchefs,Brookfield Cir,11,Framingham,MA,01701,7020509625,ansq2,ansq3,ansq4
https://www.surveymonkey.com/r/3PKFVVC,Selman-Arron90@outlook.com,therealmchefs Cruz,Gold Pan Rd,11234,Charlotte,NC,28215,7480731969,ansq2,ansq3,ansq4
https://www.surveymonkey.com/r/3PKFVVC,yostenthea@outlook.com,RANDOM mchefs,Oakdale Ave,10,Nashua,NH,03062,7522694346,ansq2,ansq3,ansq4
https://www.surveymonkey.com/r/3PKFVVC,earnest.pilotte@outlook.com,RANDOM mchefs,Oakdale Ave,10,Nashua,NH,03062,7334339166,ansq2,ansq3,ansq4
https://www.surveymonkey.com/r/3PKFVVC,Cuoco_Geoffrey@outlook.com,RANDOM mchefs,clinton dr,17A yav,Hollis,NH,03049,7061717546,ansq2,ansq3,ansq4
https://www.surveymonkey.com/r/3PKFVVC,gerry-sipkema90@outlook.com,RANDOM mchefs,clinton dr,17A yav,Hollis,NH,03049,7411915372,ansq2,ansq3,ansq4
https://www.surveymonkey.com/r/3PKFVVC,MedusScarlett@outlook.com,therealmchefs Cruz,Gold Pan Rd,11234,Charlotte,NC,28215,7624150188,ansq2,ansq3,ansq4
https://www.surveymonkey.com/r/3PKFVVC,prince_mordan93@outlook.com,RANDOM mchefs,Oakdale Ave,10,Nashua,NH,03062,7793857000,ansq2,ansq3,ansq4
https://www.surveymonkey.com/r/3PKFVVC,DurtschiLizzie@outlook.com,RANDOM mchefs,clinton dr,17A yav,Hollis,NH,03049,7623745210,ansq2,ansq3,ansq4
https://www.surveymonkey.com/r/3PKFVVC,Sandy_Allan@outlook.com,therealmchefs Cruz,Gold Pan Rd,11234,Charlotte,NC,28215,7291742993,ansq2,ansq3,ansq4
https://www.surveymonkey.com/r/3PKFVVC,Phillip.Bugna@outlook.com,RANDOM mchefs,Oakdale Ave,10,Nashua,NH,03062,7838477093,ansq2,ansq3,ansq4
https://www.surveymonkey.com/r/3PKFVVC,leedybrain99@outlook.com,RANDOM mchefs,Brookfield Cir,11,Framingham,MA,01701,7625240267,ansq2,ansq3,ansq4
https://www.surveymonkey.com/r/3PKFVVC,Ropp-Vito@outlook.com,therealmchefs Cruz,Gold Pan Rd,11234,Charlotte,NC,28215,7361285275,ansq2,ansq3,ansq4
https://www.surveymonkey.com/r/3PKFVVC,peter_schellhorn02@outlook.com,RANDOM mchefs,Oakdale Ave,10,Nashua,NH,03062,7427606698,ansq2,ansq3,ansq4
https://www.surveymonkey.com/r/3PKFVVC,lamont_youkers99@outlook.com,RANDOM mchefs,clinton dr,17A yav,Hollis,NH,03049,7844801241,ansq2,ansq3,ansq4
https://www.surveymonkey.com/r/3PKFVVC,KendrickBiscocho@outlook.com,RANDOM mchefs,Brookfield Cir,11,Framingham,MA,01701,7684727254,ansq2,ansq3,ansq4
https://www.surveymonkey.com/r/3PKFVVC,jordan.dun03@outlook.com,RANDOM mchefs,Oakdale Ave,10,Nashua,NH,03062,7990021601,ansq2,ansq3,ansq4
https://www.surveymonkey.com/r/3PKFVVC,Therese.Enomoto93@outlook.com,RANDOM mchefs,Brookfield Cir,11,Framingham,MA,01701,7895865201,ansq2,ansq3,ansq4
https://www.surveymonkey.com/r/3PKFVVC,IgnacioStorlie@outlook.com,therealmchefs Cruz,Gold Pan Rd,11234,Charlotte,NC,28215,7580044559,ansq2,ansq3,ansq4
https://www.surveymonkey.com/r/3PKFVVC,Wallace_Giuliano@outlook.com,RANDOM mchefs,Oakdale Ave,10,Nashua,NH,03062,7329911671,ansq2,ansq3,ansq4
https://www.surveymonkey.com/r/3PKFVVC,keenan_section02@outlook.com,RANDOM mchefs,Brookfield Cir,11,Framingham,MA,01701,7382435218,ansq2,ansq3,ansq4
https://www.surveymonkey.com/r/3PKFVVC,shirley_worlie87@outlook.com,RANDOM mchefs,Brookfield Cir,11,Framingham,MA,01701,7362877936,ansq2,ansq3,ansq4
https://www.surveymonkey.com/r/3PKFVVC,ohaver_jenell@outlook.com,RANDOM mchefs,clinton dr,17A yav,Hollis,NH,03049,7995292806,ansq2,ansq3,ansq4
https://www.surveymonkey.com/r/3PKFVVC,micha_reagin94@outlook.com,RANDOM mchefs,Oakdale Ave,10,Nashua,NH,03062,7090225311,ansq2,ansq3,ansq4
https://www.surveymonkey.com/r/3PKFVVC,WeaklandDiann94@outlook.com,RANDOM mchefs,clinton dr,17A yav,Hollis,NH,03049,7516972349,ansq2,ansq3,ansq4
https://www.surveymonkey.com/r/3PKFVVC,chebretmike@outlook.com,RANDOM mchefs,Oakdale Ave,10,Nashua,NH,03062,7025999382,ansq2,ansq3,ansq4
https://www.surveymonkey.com/r/3PKFVVC,celestinaweier91@outlook.com,RANDOM mchefs,Brookfield Cir,11,Framingham,MA,01701,7578019894,ansq2,ansq3,ansq4
https://www.surveymonkey.com/r/3PKFVVC,seth_carrao@outlook.com,RANDOM mchefs,Brookfield Cir,11,Framingham,MA,01701,7555714241,ansq2,ansq3,ansq4
https://www.surveymonkey.com/r/3PKFVVC,KeenanPacetti@outlook.com,RANDOM mchefs,Brookfield Cir,11,Framingham,MA,01701,7251116238,ansq2,ansq3,ansq4
https://www.surveymonkey.com/r/3PKFVVC,mcneer_indira@outlook.com,RANDOM mchefs,clinton dr,17A yav,Hollis,NH,03049,7950928006,ansq2,ansq3,ansq4
https://www.surveymonkey.com/r/3PKFVVC,Silas_Maruscak@outlook.com,RANDOM mchefs,Brookfield Cir,11,Framingham,MA,01701,7882270529,ansq2,ansq3,ansq4
https://www.surveymonkey.com/r/3PKFVVC,Torma.Erik00@outlook.com,RANDOM mchefs,clinton dr,17A yav,Hollis,NH,03049,7985241307,ansq2,ansq3,ansq4
https://www.surveymonkey.com/r/3PKFVVC,Zandra_Hornes94@outlook.com,RANDOM mchefs,Brookfield Cir,11,Framingham,MA,01701,7683997015,ansq2,ansq3,ansq4
https://www.surveymonkey.com/r/3PKFVVC,Poch.Ivory@outlook.com,RANDOM mchefs,Brookfield Cir,11,Framingham,MA,01701,7198457904,ansq2,ansq3,ansq4
https://www.surveymonkey.com/r/3PKFVVC,Aills.Aaron@outlook.com,RANDOM mchefs,Brookfield Cir,11,Framingham,MA,01701,7378613387,ansq2,ansq3,ansq4
https://www.surveymonkey.com/r/3PKFVVC,brian-teranishi@outlook.com,therealmchefs Cruz,Gold Pan Rd,11234,Charlotte,NC,28215,7454107219,ansq2,ansq3,ansq4
https://www.surveymonkey.com/r/3PKFVVC,FindleyDominick91@outlook.com,RANDOM mchefs,clinton dr,17A yav,Hollis,NH,03049,7464595097,ansq2,ansq3,ansq4
https://www.surveymonkey.com/r/3PKFVVC,hernandes_dee@outlook.com,RANDOM mchefs,Brookfield Cir,11,Framingham,MA,01701,7892760214,ansq2,ansq3,ansq4
https://www.surveymonkey.com/r/3PKFVVC,Jonah-Mingus@outlook.com,therealmchefs Cruz,Gold Pan Rd,11234,Charlotte,NC,28215,7351184284,ansq2,ansq3,ansq4
https://www.surveymonkey.com/r/3PKFVVC,MarianJacocks@outlook.com,RANDOM mchefs,Brookfield Cir,11,Framingham,MA,01701,7668845675,ansq2,ansq3,ansq4
https://www.surveymonkey.com/r/3PKFVVC,Tyrone_Bean00@outlook.com,therealmchefs Cruz,Gold Pan Rd,11234,Charlotte,NC,28215,7488218641,ansq2,ansq3,ansq4
https://www.surveymonkey.com/r/3PKFVVC,Palmira_Tellman@outlook.com,RANDOM mchefs,Brookfield Cir,11,Framingham,MA,01701,7661902780,ansq2,ansq3,ansq4
https://www.surveymonkey.com/r/3PKFVVC,Mcdewitt.Brinda@outlook.com,therealmchefs Cruz,Gold Pan Rd,11234,Charlotte,NC,28215,7890635413,ansq2,ansq3,ansq4
https://www.surveymonkey.com/r/3PKFVVC,wilbercrapp99@outlook.com,RANDOM mchefs,Oakdale Ave,10,Nashua,NH,03062,7117744887,ansq2,ansq3,ansq4
https://www.surveymonkey.com/r/3PKFVVC,Kuen.Morton90@outlook.com,RANDOM mchefs,clinton dr,17A yav,Hollis,NH,03049,7081193800,ansq2,ansq3,ansq4
https://www.surveymonkey.com/r/3PKFVVC,crall.bambi@outlook.com,RANDOM mchefs,Oakdale Ave,10,Nashua,NH,03062,7582539288,ansq2,ansq3,ansq4
https://www.surveymonkey.com/r/3PKFVVC,Levers_Eugenia96@outlook.com,RANDOM mchefs,clinton dr,17A yav,Hollis,NH,03049,7849648516,ansq2,ansq3,ansq4
https://www.surveymonkey.com/r/3PKFVVC,hovden-lashonda91@outlook.com,therealmchefs Cruz,Gold Pan Rd,11234,Charlotte,NC,28215,7710707426,ansq2,ansq3,ansq4
https://www.surveymonkey.com/r/3PKFVVC,Lindsay.Friedler84@outlook.com,RANDOM mchefs,Brookfield Cir,11,Framingham,MA,01701,7361344127,ansq2,ansq3,ansq4
https://www.surveymonkey.com/r/3PKFVVC,Derrick.Sunde@outlook.com,therealmchefs Cruz,Gold Pan Rd,11234,Charlotte,NC,28215,7184208780,ansq2,ansq3,ansq4
https://www.surveymonkey.com/r/3PKFVVC,MarkRounsville@outlook.com,therealmchefs Cruz,Gold Pan Rd,11234,Charlotte,NC,28215,7803636453,ansq2,ansq3,ansq4
https://www.surveymonkey.com/r/3PKFVVC,Lanze_Piedad@outlook.com,RANDOM mchefs,Oakdale Ave,10,Nashua,NH,03062,7752030241,ansq2,ansq3,ansq4
https://www.surveymonkey.com/r/3PKFVVC,AundreaTsau94@outlook.com,RANDOM mchefs,Brookfield Cir,11,Framingham,MA,01701,7521117580,ansq2,ansq3,ansq4
https://www.surveymonkey.com/r/3PKFVVC,jon_trowel@outlook.com,RANDOM mchefs,Oakdale Ave,10,Nashua,NH,03062,7922737521,ansq2,ansq3,ansq4
https://www.surveymonkey.com/r/3PKFVVC,damianantle@outlook.com,RANDOM mchefs,Oakdale Ave,10,Nashua,NH,03062,7261623415,ansq2,ansq3,ansq4
https://www.surveymonkey.com/r/3PKFVVC,elise-patock@outlook.com,therealmchefs Cruz,Gold Pan Rd,11234,Charlotte,NC,28215,7368123447,ansq2,ansq3,ansq4
https://www.surveymonkey.com/r/3PKFVVC,balonek-sherlyn90@outlook.com,RANDOM mchefs,clinton dr,17A yav,Hollis,NH,03049,7995823655,ansq2,ansq3,ansq4
https://www.surveymonkey.com/r/3PKFVVC,dahlquist_lindsy83@outlook.com,therealmchefs Cruz,Gold Pan Rd,11234,Charlotte,NC,28215,7182887631,ansq2,ansq3,ansq4
https://www.surveymonkey.com/r/3PKFVVC,fumiko_blade90@outlook.com,RANDOM mchefs,clinton dr,17A yav,Hollis,NH,03049,7604949409,ansq2,ansq3,ansq4
https://www.surveymonkey.com/r/3PKFVVC,RinaMarchbanks@outlook.com,RANDOM mchefs,Oakdale Ave,10,Nashua,NH,03062,7290285969,ansq2,ansq3,ansq4
https://www.surveymonkey.com/r/3PKFVVC,ruzich-noah87@outlook.com,therealmchefs Cruz,Gold Pan Rd,11234,Charlotte,NC,28215,7780833513,ansq2,ansq3,ansq4
https://www.surveymonkey.com/r/3PKFVVC,ruh_anamaria@outlook.com,RANDOM mchefs,Brookfield Cir,11,Framingham,MA,01701,7852817478,ansq2,ansq3,ansq4
https://www.surveymonkey.com/r/3PKFVVC,cavanahmellie@outlook.com,RANDOM mchefs,Oakdale Ave,10,Nashua,NH,03062,7673455456,ansq2,ansq3,ansq4
https://www.surveymonkey.com/r/3PKFVVC,vavraangelique02@outlook.com,RANDOM mchefs,Oakdale Ave,10,Nashua,NH,03062,7389037276,ansq2,ansq3,ansq4
https://www.surveymonkey.com/r/3PKFVVC,jenae-loepp91@outlook.com,RANDOM mchefs,Brookfield Cir,11,Framingham,MA,01701,7327128547,ansq2,ansq3,ansq4
https://www.surveymonkey.com/r/3PKFVVC,Rocky_Gilvin@outlook.com,RANDOM mchefs,clinton dr,17A yav,Hollis,NH,03049,7388257703,ansq2,ansq3,ansq4
https://www.surveymonkey.com/r/3PKFVVC,wire-nu76@outlook.com,RANDOM mchefs,clinton dr,17A yav,Hollis,NH,03049,7304561981,ansq2,ansq3,ansq4
https://www.surveymonkey.com/r/3PKFVVC,Boben-Brandon90@outlook.com,RANDOM mchefs,clinton dr,17A yav,Hollis,NH,03049,7145363589,ansq2,ansq3,ansq4
https://www.surveymonkey.com/r/3PKFVVC,dion_mullice@outlook.com,RANDOM mchefs,Oakdale Ave,10,Nashua,NH,03062,7071688322,ansq2,ansq3,ansq4
https://www.surveymonkey.com/r/3PKFVVC,Denoia.Claribel@outlook.com,RANDOM mchefs,Oakdale Ave,10,Nashua,NH,03062,7007525759,ansq2,ansq3,ansq4
https://www.surveymonkey.com/r/3PKFVVC,schleisman_vance01@outlook.com,RANDOM mchefs,clinton dr,17A yav,Hollis,NH,03049,7984697647,ansq2,ansq3,ansq4
https://www.surveymonkey.com/r/3PKFVVC,willian_silvis@outlook.com,RANDOM mchefs,Oakdale Ave,10,Nashua,NH,03062,7074470675,ansq2,ansq3,ansq4
https://www.surveymonkey.com/r/3PKFVVC,Eric-Donayre83@outlook.com,therealmchefs Cruz,Gold Pan Rd,11234,Charlotte,NC,28215,7195866360,ansq2,ansq3,ansq4
https://www.surveymonkey.com/r/3PKFVVC,Harthorne-Jammie@outlook.com,therealmchefs Cruz,Gold Pan Rd,11234,Charlotte,NC,28215,7428310842,ansq2,ansq3,ansq4
https://www.surveymonkey.com/r/3PKFVVC,divina-buikema@outlook.com,therealmchefs Cruz,Gold Pan Rd,11234,Charlotte,NC,28215,7499121229,ansq2,ansq3,ansq4
https://www.surveymonkey.com/r/3PKFVVC,Eden-Reas92@hotmail.com,RANDOM mchefs,clinton dr,17A yav,Hollis,NH,03049,7787846149,ansq2,ansq3,ansq4
https://www.surveymonkey.com/r/3PKFVVC,galdon_teressa@outlook.com,RANDOM mchefs,Oakdale Ave,10,Nashua,NH,03062,7389137894,ansq2,ansq3,ansq4
https://www.surveymonkey.com/r/3PKFVVC,mitchell_parara@outlook.com,therealmchefs Cruz,Gold Pan Rd,11234,Charlotte,NC,28215,7313982332,ansq2,ansq3,ansq4
https://www.surveymonkey.com/r/3PKFVVC,Mihalkovic.Daniella76@hotmail.com,therealmchefs Cruz,Gold Pan Rd,11234,Charlotte,NC,28215,7837841653,ansq2,ansq3,ansq4
https://www.surveymonkey.com/r/3PKFVVC,Piantanida-Zachary@outlook.com,therealmchefs Cruz,Gold Pan Rd,11234,Charlotte,NC,28215,7614488302,ansq2,ansq3,ansq4
https://www.surveymonkey.com/r/3PKFVVC,Charney-Malcom@outlook.com:aBKDsPByu9!:Malcom,therealmchefs Cruz,Gold Pan Rd,11234,Charlotte,NC,28215,7572397064,ansq2,ansq3,ansq4
https://www.surveymonkey.com/r/3PKFVVC,bemberry_hiram@hotmail.com,RANDOM mchefs,clinton dr,17A yav,Hollis,NH,03049,7965993734,ansq2,ansq3,ansq4
https://www.surveymonkey.com/r/3PKFVVC,HuttenDarrin@outlook.com,RANDOM mchefs,Oakdale Ave,10,Nashua,NH,03062,7604189085,ansq2,ansq3,ansq4
https://www.surveymonkey.com/r/3PKFVVC,silvey.sunny@outlook.com,RANDOM mchefs,Oakdale Ave,10,Nashua,NH,03062,7211163521,ansq2,ansq3,ansq4
https://www.surveymonkey.com/r/3PKFVVC,darwin_jolla88@hotmail.com,therealmchefs Cruz,Gold Pan Rd,11234,Charlotte,NC,28215,7177382016,ansq2,ansq3,ansq4
https://www.surveymonkey.com/r/3PKFVVC,friebel.fermin@outlook.com,RANDOM mchefs,clinton dr,17A yav,Hollis,NH,03049,7280843733,ansq2,ansq3,ansq4
https://www.surveymonkey.com/r/3PKFVVC,schmitz_judie94@outlook.com,therealmchefs Cruz,Gold Pan Rd,11234,Charlotte,NC,28215,7554216269,ansq2,ansq3,ansq4
https://www.surveymonkey.com/r/3PKFVVC,Rosalinda.Feickert83@hotmail.com,RANDOM mchefs,Brookfield Cir,11,Framingham,MA,01701,7550194243,ansq2,ansq3,ansq4
https://www.surveymonkey.com/r/3PKFVVC,aliza-speraw@outlook.com,RANDOM mchefs,Brookfield Cir,11,Framingham,MA,01701,7501637055,ansq2,ansq3,ansq4
https://www.surveymonkey.com/r/3PKFVVC,kikkert-roberto@outlook.com,RANDOM mchefs,Oakdale Ave,10,Nashua,NH,03062,7280907875,ansq2,ansq3,ansq4
https://www.surveymonkey.com/r/3PKFVVC,Luke_Widdowson@hotmail.com,RANDOM mchefs,Oakdale Ave,10,Nashua,NH,03062,7079750518,ansq2,ansq3,ansq4
https://www.surveymonkey.com/r/3PKFVVC,Laine_Galaz99@outlook.com,RANDOM mchefs,Oakdale Ave,10,Nashua,NH,03062,7984429882,ansq2,ansq3,ansq4
https://www.surveymonkey.com/r/3PKFVVC,Alvin-Kulakowski@outlook.com,RANDOM mchefs,clinton dr,17A yav,Hollis,NH,03049,7465232326,ansq2,ansq3,ansq4
https://www.surveymonkey.com/r/3PKFVVC,Maciak.Raymundo93@hotmail.com,therealmchefs Cruz,Gold Pan Rd,11234,Charlotte,NC,28215,7054806952,ansq2,ansq3,ansq4
https://www.surveymonkey.com/r/3PKFVVC,Kymberly-Nealer@outlook.com,RANDOM mchefs,clinton dr,17A yav,Hollis,NH,03049,7320524647,ansq2,ansq3,ansq4
https://www.surveymonkey.com/r/3PKFVVC,Wojtas-Deangelo@outlook.com,RANDOM mchefs,clinton dr,17A yav,Hollis,NH,03049,7499438390,ansq2,ansq3,ansq4
https://www.surveymonkey.com/r/3PKFVVC,Shawnta_Trigueiro@hotmail.com,RANDOM mchefs,Brookfield Cir,11,Framingham,MA,01701,7978930905,ansq2,ansq3,ansq4
https://www.surveymonkey.com/r/3PKFVVC,Balentine-Alline@outlook.com,RANDOM mchefs,Oakdale Ave,10,Nashua,NH,03062,7811300664,ansq2,ansq3,ansq4
https://www.surveymonkey.com/r/3PKFVVC,Limber.Lauran@outlook.com,RANDOM mchefs,Brookfield Cir,11,Framingham,MA,01701,7290578014,ansq2,ansq3,ansq4
https://www.surveymonkey.com/r/3PKFVVC,bromagen.hoa81@hotmail.com,RANDOM mchefs,Oakdale Ave,10,Nashua,NH,03062,7219924516,ansq2,ansq3,ansq4
https://www.surveymonkey.com/r/3PKFVVC,ashly_stickel91@outlook.com,RANDOM mchefs,Brookfield Cir,11,Framingham,MA,01701,7305247017,ansq2,ansq3,ansq4
https://www.surveymonkey.com/r/3PKFVVC,Jose-Mcbeath90@outlook.com,RANDOM mchefs,clinton dr,17A yav,Hollis,NH,03049,7487912876,ansq2,ansq3,ansq4
https://www.surveymonkey.com/r/3PKFVVC,nia_mearing@hotmail.com,RANDOM mchefs,Oakdale Ave,10,Nashua,NH,03062,7833520467,ansq2,ansq3,ansq4
https://www.surveymonkey.com/r/3PKFVVC,timmerhollis@outlook.com,RANDOM mchefs,Oakdale Ave,10,Nashua,NH,03062,7683254470,ansq2,ansq3,ansq4
https://www.surveymonkey.com/r/3PKFVVC,archie-bong96@outlook.com,RANDOM mchefs,clinton dr,17A yav,Hollis,NH,03049,7996319828,ansq2,ansq3,ansq4
https://www.surveymonkey.com/r/3PKFVVC,Hollis-Flieller@hotmail.com,RANDOM mchefs,Brookfield Cir,11,Framingham,MA,01701,7547208380,ansq2,ansq3,ansq4
https://www.surveymonkey.com/r/3PKFVVC,bronwyn_stachurski@outlook.com,RANDOM mchefs,Brookfield Cir,11,Framingham,MA,01701,7359107924,ansq2,ansq3,ansq4
https://www.surveymonkey.com/r/3PKFVVC,prester.irwin@outlook.com,RANDOM mchefs,Brookfield Cir,11,Framingham,MA,01701,7534722497,ansq2,ansq3,ansq4
https://www.surveymonkey.com/r/3PKFVVC,dorisdelellis98@hotmail.com,therealmchefs Cruz,Gold Pan Rd,11234,Charlotte,NC,28215,7681334956,ansq2,ansq3,ansq4
https://www.surveymonkey.com/r/3PKFVVC,tom-shields@outlook.com,RANDOM mchefs,clinton dr,17A yav,Hollis,NH,03049,7802808744,ansq2,ansq3,ansq4
https://www.surveymonkey.com/r/3PKFVVC,Young.Walsworth94@outlook.com,therealmchefs Cruz,Gold Pan Rd,11234,Charlotte,NC,28215,7068556998,ansq2,ansq3,ansq4
https://www.surveymonkey.com/r/3PKFVVC,HaegerJulius@hotmail.com,therealmchefs Cruz,Gold Pan Rd,11234,Charlotte,NC,28215,7712608165,ansq2,ansq3,ansq4
https://www.surveymonkey.com/r/3PKFVVC,Mauricio.Underdue@outlook.com,RANDOM mchefs,clinton dr,17A yav,Hollis,NH,03049,7409722479,ansq2,ansq3,ansq4
https://www.surveymonkey.com/r/3PKFVVC,scharp.veola@outlook.com,therealmchefs Cruz,Gold Pan Rd,11234,Charlotte,NC,28215,7917000676,ansq2,ansq3,ansq4
https://www.surveymonkey.com/r/3PKFVVC,lipsitz_son01@hotmail.com,therealmchefs Cruz,Gold Pan Rd,11234,Charlotte,NC,28215,7359173594,ansq2,ansq3,ansq4
https://www.surveymonkey.com/r/3PKFVVC,Hannam-Dione95@outlook.com,therealmchefs Cruz,Gold Pan Rd,11234,Charlotte,NC,28215,7920491669,ansq2,ansq3,ansq4
https://www.surveymonkey.com/r/3PKFVVC,trey_duclo93@outlook.com,therealmchefs Cruz,Gold Pan Rd,11234,Charlotte,NC,28215,7378064394,ansq2,ansq3,ansq4
https://www.surveymonkey.com/r/3PKFVVC,luisa_emdee@hotmail.com,therealmchefs Cruz,Gold Pan Rd,11234,Charlotte,NC,28215,7591360416,ansq2,ansq3,ansq4
https://www.surveymonkey.com/r/3PKFVVC,JohannaMuzio02@outlook.com,RANDOM mchefs,Oakdale Ave,10,Nashua,NH,03062,7624402435,ansq2,ansq3,ansq4
https://www.surveymonkey.com/r/3PKFVVC,Lingafelt-Granville@outlook.com,RANDOM mchefs,Brookfield Cir,11,Framingham,MA,01701,7899210603,ansq2,ansq3,ansq4
https://www.surveymonkey.com/r/3PKFVVC,arntzleroy@hotmail.com,RANDOM mchefs,Oakdale Ave,10,Nashua,NH,03062,7139785005,ansq2,ansq3,ansq4
https://www.surveymonkey.com/r/3PKFVVC,Ralph_Norviel@outlook.com,RANDOM mchefs,Oakdale Ave,10,Nashua,NH,03062,7297814900,ansq2,ansq3,ansq4
https://www.surveymonkey.com/r/3PKFVVC,berry-dobrowski91@outlook.com,therealmchefs Cruz,Gold Pan Rd,11234,Charlotte,NC,28215,7897505768,ansq2,ansq3,ansq4
https://www.surveymonkey.com/r/3PKFVVC,pecci-milo@hotmail.com,RANDOM mchefs,Brookfield Cir,11,Framingham,MA,01701,7136271470,ansq2,ansq3,ansq4
https://www.surveymonkey.com/r/3PKFVVC,millican-demetrius00@outlook.com,RANDOM mchefs,Brookfield Cir,11,Framingham,MA,01701,7875727113,ansq2,ansq3,ansq4
https://www.surveymonkey.com/r/3PKFVVC,devon-henn@outlook.com,RANDOM mchefs,Brookfield Cir,11,Framingham,MA,01701,7108363518,ansq2,ansq3,ansq4
https://www.surveymonkey.com/r/3PKFVVC,Hartzer-Cathrine@hotmail.com,RANDOM mchefs,Brookfield Cir,11,Framingham,MA,01701,7358380486,ansq2,ansq3,ansq4
https://www.surveymonkey.com/r/3PKFVVC,Stephanie_Tilley@outlook.com,therealmchefs Cruz,Gold Pan Rd,11234,Charlotte,NC,28215,7009093559,ansq2,ansq3,ansq4
https://www.surveymonkey.com/r/3PKFVVC,steve.fredregill@outlook.com,therealmchefs Cruz,Gold Pan Rd,11234,Charlotte,NC,28215,7357465603,ansq2,ansq3,ansq4
https://www.surveymonkey.com/r/3PKFVVC,marking_janice@hotmail.com,RANDOM mchefs,Oakdale Ave,10,Nashua,NH,03062,7025751365,ansq2,ansq3,ansq4
https://www.surveymonkey.com/r/3PKFVVC,Edgerton-Geri96@outlook.com,RANDOM mchefs,clinton dr,17A yav,Hollis,NH,03049,7138667409,ansq2,ansq3,ansq4
https://www.surveymonkey.com/r/3PKFVVC,graham.hundley94@outlook.com,RANDOM mchefs,Oakdale Ave,10,Nashua,NH,03062,7971623592,ansq2,ansq3,ansq4
https://www.surveymonkey.com/r/3PKFVVC,merideth.quicho@hotmail.com,RANDOM mchefs,clinton dr,17A yav,Hollis,NH,03049,7552951731,ansq2,ansq3,ansq4
https://www.surveymonkey.com/r/3PKFVVC,WoutersMelita@outlook.com,RANDOM mchefs,Oakdale Ave,10,Nashua,NH,03062,7698977949,ansq2,ansq3,ansq4
https://www.surveymonkey.com/r/3PKFVVC,kory-yamagata@outlook.com,RANDOM mchefs,Oakdale Ave,10,Nashua,NH,03062,7446396341,ansq2,ansq3,ansq4
https://www.surveymonkey.com/r/3PKFVVC,AureaZannino@hotmail.com,therealmchefs Cruz,Gold Pan Rd,11234,Charlotte,NC,28215,7912956212,ansq2,ansq3,ansq4
https://www.surveymonkey.com/r/3PKFVVC,seabrook-scottie@outlook.com,therealmchefs Cruz,Gold Pan Rd,11234,Charlotte,NC,28215,7147741874,ansq2,ansq3,ansq4
https://www.surveymonkey.com/r/3PKFVVC,FerneKalfas@outlook.com,RANDOM mchefs,Oakdale Ave,10,Nashua,NH,03062,7770295466,ansq2,ansq3,ansq4
https://www.surveymonkey.com/r/3PKFVVC,NobleWease88@hotmail.com,RANDOM mchefs,Oakdale Ave,10,Nashua,NH,03062,7251423429,ansq2,ansq3,ansq4
https://www.surveymonkey.com/r/3PKFVVC,Marlon.Vas01@outlook.com,therealmchefs Cruz,Gold Pan Rd,11234,Charlotte,NC,28215,7802779820,ansq2,ansq3,ansq4
https://www.surveymonkey.com/r/3PKFVVC,chrisco_margherita@outlook.com,RANDOM mchefs,clinton dr,17A yav,Hollis,NH,03049,7957471206,ansq2,ansq3,ansq4
https://www.surveymonkey.com/r/3PKFVVC,ranee_risse@hotmail.com,RANDOM mchefs,Oakdale Ave,10,Nashua,NH,03062,7279216283,ansq2,ansq3,ansq4
https://www.surveymonkey.com/r/3PKFVVC,ErkerJarred@outlook.com,therealmchefs Cruz,Gold Pan Rd,11234,Charlotte,NC,28215,7984619119,ansq2,ansq3,ansq4
https://www.surveymonkey.com/r/3PKFVVC,Jimmie_Deveny@outlook.com,therealmchefs Cruz,Gold Pan Rd,11234,Charlotte,NC,28215,7432104760,ansq2,ansq3,ansq4
https://www.surveymonkey.com/r/3PKFVVC,toleston.carlita02@hotmail.com,RANDOM mchefs,Brookfield Cir,11,Framingham,MA,01701,7190370551,ansq2,ansq3,ansq4
https://www.surveymonkey.com/r/3PKFVVC,haymore.santiago@outlook.com,RANDOM mchefs,clinton dr,17A yav,Hollis,NH,03049,7863457391,ansq2,ansq3,ansq4
https://www.surveymonkey.com/r/3PKFVVC,JulianneGlasscock@outlook.com,RANDOM mchefs,clinton dr,17A yav,Hollis,NH,03049,7218941412,ansq2,ansq3,ansq4
https://www.surveymonkey.com/r/3PKFVVC,archie-chacon@hotmail.com,RANDOM mchefs,clinton dr,17A yav,Hollis,NH,03049,7983041849,ansq2,ansq3,ansq4
https://www.surveymonkey.com/r/3PKFVVC,Kawell_Elden@outlook.com,therealmchefs Cruz,Gold Pan Rd,11234,Charlotte,NC,28215,7517595194,ansq2,ansq3,ansq4
https://www.surveymonkey.com/r/3PKFVVC,SydneyHornsby@outlook.com,RANDOM mchefs,Brookfield Cir,11,Framingham,MA,01701,7295421583,ansq2,ansq3,ansq4
https://www.surveymonkey.com/r/3PKFVVC,avril-toby86@hotmail.com,RANDOM mchefs,Oakdale Ave,10,Nashua,NH,03062,7714582495,ansq2,ansq3,ansq4
https://www.surveymonkey.com/r/3PKFVVC,pinal-cletus@outlook.com,therealmchefs Cruz,Gold Pan Rd,11234,Charlotte,NC,28215,7220215235,ansq2,ansq3,ansq4
https://www.surveymonkey.com/r/3PKFVVC,Tynisha.Santio@outlook.com,RANDOM mchefs,Oakdale Ave,10,Nashua,NH,03062,7470082262,ansq2,ansq3,ansq4
https://www.surveymonkey.com/r/3PKFVVC,Roman-Bessix84@hotmail.com,RANDOM mchefs,clinton dr,17A yav,Hollis,NH,03049,7598336109,ansq2,ansq3,ansq4
https://www.surveymonkey.com/r/3PKFVVC,LukasiewiczKimberley93@outlook.com,therealmchefs Cruz,Gold Pan Rd,11234,Charlotte,NC,28215,7338181818,ansq2,ansq3,ansq4
https://www.surveymonkey.com/r/3PKFVVC,Fenix-Joshua@outlook.com,RANDOM mchefs,clinton dr,17A yav,Hollis,NH,03049,7207672878,ansq2,ansq3,ansq4
https://www.surveymonkey.com/r/3PKFVVC,leo-labreche96@hotmail.com,RANDOM mchefs,Brookfield Cir,11,Framingham,MA,01701,7198947980,ansq2,ansq3,ansq4
https://www.surveymonkey.com/r/3PKFVVC,pfeuffercoleman@outlook.com,RANDOM mchefs,Oakdale Ave,10,Nashua,NH,03062,7809654528,ansq2,ansq3,ansq4
https://www.surveymonkey.com/r/3PKFVVC,Imada_Marianna@outlook.com,RANDOM mchefs,Brookfield Cir,11,Framingham,MA,01701,7040347414,ansq2,ansq3,ansq4
https://www.surveymonkey.com/r/3PKFVVC,onan-delmar@hotmail.com,RANDOM mchefs,clinton dr,17A yav,Hollis,NH,03049,7008470161,ansq2,ansq3,ansq4
https://www.surveymonkey.com/r/3PKFVVC,FeldhausFelton99@outlook.com,RANDOM mchefs,clinton dr,17A yav,Hollis,NH,03049,7884429836,ansq2,ansq3,ansq4
https://www.surveymonkey.com/r/3PKFVVC,Prodoehl-Tona90@outlook.com,therealmchefs Cruz,Gold Pan Rd,11234,Charlotte,NC,28215,7807523188,ansq2,ansq3,ansq4
https://www.surveymonkey.com/r/3PKFVVC,shirar_shani98@hotmail.com,RANDOM mchefs,clinton dr,17A yav,Hollis,NH,03049,7461889258,ansq2,ansq3,ansq4
https://www.surveymonkey.com/r/3PKFVVC,Julian.Lieurance02@outlook.com,RANDOM mchefs,clinton dr,17A yav,Hollis,NH,03049,7098993072,ansq2,ansq3,ansq4
https://www.surveymonkey.com/r/3PKFVVC,skinklemorton90@outlook.com,RANDOM mchefs,clinton dr,17A yav,Hollis,NH,03049,7244123236,ansq2,ansq3,ansq4
https://www.surveymonkey.com/r/3PKFVVC,bussa.taunya@hotmail.com,RANDOM mchefs,Oakdale Ave,10,Nashua,NH,03062,7954745936,ansq2,ansq3,ansq4
https://www.surveymonkey.com/r/3PKFVVC,alwan-alease00@outlook.com,RANDOM mchefs,Oakdale Ave,10,Nashua,NH,03062,7112118530,ansq2,ansq3,ansq4
https://www.surveymonkey.com/r/3PKFVVC,friedle-leroy@outlook.com,therealmchefs Cruz,Gold Pan Rd,11234,Charlotte,NC,28215,7208070031,ansq2,ansq3,ansq4
https://www.surveymonkey.com/r/3PKFVVC,odell.stones@hotmail.com,therealmchefs Cruz,Gold Pan Rd,11234,Charlotte,NC,28215,7889896129,ansq2,ansq3,ansq4
https://www.surveymonkey.com/r/3PKFVVC,promise_russel@outlook.com,RANDOM mchefs,Oakdale Ave,10,Nashua,NH,03062,7548864054,ansq2,ansq3,ansq4
https://www.surveymonkey.com/r/3PKFVVC,bolinderalessandra97@outlook.com,RANDOM mchefs,Oakdale Ave,10,Nashua,NH,03062,7756792888,ansq2,ansq3,ansq4
https://www.surveymonkey.com/r/3PKFVVC,PanellaMinna@hotmail.com,RANDOM mchefs,Brookfield Cir,11,Framingham,MA,01701,7778155331,ansq2,ansq3,ansq4
https://www.surveymonkey.com/r/3PKFVVC,Lanuza_Jackson@outlook.com,therealmchefs Cruz,Gold Pan Rd,11234,Charlotte,NC,28215,7231428988,ansq2,ansq3,ansq4
https://www.surveymonkey.com/r/3PKFVVC,Froats-Rolf@outlook.com,RANDOM mchefs,Oakdale Ave,10,Nashua,NH,03062,7476779256,ansq2,ansq3,ansq4
https://www.surveymonkey.com/r/3PKFVVC,Dallas-Woodburg93@hotmail.com,RANDOM mchefs,clinton dr,17A yav,Hollis,NH,03049,7486442534,ansq2,ansq3,ansq4
https://www.surveymonkey.com/r/3PKFVVC,ellangansert@outlook.com,therealmchefs Cruz,Gold Pan Rd,11234,Charlotte,NC,28215,7371017133,ansq2,ansq3,ansq4
https://www.surveymonkey.com/r/3PKFVVC,grimme.jackeline@outlook.com,therealmchefs Cruz,Gold Pan Rd,11234,Charlotte,NC,28215,7120347564,ansq2,ansq3,ansq4
https://www.surveymonkey.com/r/3PKFVVC,TschirhartDuane@hotmail.com,therealmchefs Cruz,Gold Pan Rd,11234,Charlotte,NC,28215,7844824378,ansq2,ansq3,ansq4
