ink,email,name,add1,add2,city,state,postcode,phone,q1,q2,q3
https://www.surveymonkey.com/r/3PKFVVC,ymmxl1@gmail.com,Megan mchefs,LL58 clinton dr Strt,Hse17A,Hollis,NH,03049,7320512987,ans1,6,hello this
https://www.surveymonkey.com/r/3PKFVVC,limmyyingran@gmail.com,Katherine mchefs,WJUW clinton dr St,Apartmente17A,Hollis,NH,03049,7868313871,ans1,6,hello this
https://www.surveymonkey.com/r/3PKFVVC,limmyyingran2@gmail.com,Robert mchefs,D48E Brookfield Cir Street.,Reception11,Framingham,MA,01701,7806034011,ans1,6,hello this
https://www.surveymonkey.com/r/3PKFVVC,limmyyingran3@gmail.com,Jonathan mchefs,I51C clin.ton dr R0AD,House.17A,Hollis,NH,03049,7285401213,ans1,6,hello this
https://www.surveymonkey.com/r/3PKFVVC,ymmxl2@gmail.com,therealmchefs Cruz,ZVU2 Gold Pan St,Appartment.11234,Charlotte,NC,28215,7710408723,ans1,6,hello this
https://www.surveymonkey.com/r/3PKFVVC,ymmxl33@gmail.com,William mchefs,WR5S clinton dr Stret,Front Desk17A,Hollis,NH,03049,7116845999,ans1,6,hello this
https://www.surveymonkey.com/r/3PKFVVC,ymmxl44@gmail.com,Jeffkc ymmxl,W9T0 sw 74th ave ste220,Appartmentt14865,Tigard,OR,97224,7299520626,ans1,6,hello this
https://www.surveymonkey.com/r/3PKFVVC,1001334546u@gmail.com,Richard mchefs,XK59 clinton dr Street.,Reception-Desk17A,Hollis,NH,03049,7278292820,ans1,6,hello this
https://www.surveymonkey.com/r/3PKFVVC,ihatetyping3485443@gmail.com,Jeffkc ymmxl,W3BX sw 74th ave ste220,Reception.14865,Tigard,OR,97224,7666836909,ans1,6,hello this
https://www.surveymonkey.com/r/3PKFVVC,purplekick536138@gmail.com,Jeffkc ymmxl,GBNZ sw 74th ave ste220,Apartmente14865,Tigard,OR,97224,7223747532,ans1,6,hello this
https://www.surveymonkey.com/r/3PKFVVC,baylorandres453@gmail.com,KCPRO Bowers,EBRR 217 MIA DR Ln.,APT77011,Newark,DE,19711,7667681446,ans1,6,hello this
https://www.surveymonkey.com/r/3PKFVVC,jorgewilder048@gmail.com,Jeffkc ymmxl,JZI9 sw 74th ave ste220,Concierge Desk.14865,Tigard,OR,97224,7556826798,ans1,6,hello this
https://www.surveymonkey.com/r/3PKFVVC,raymondleland945@gmail.com,Jeffkc ymmxl,HJKJ sw 74th ave ste220,Concierge Desk.14865,Tigard,OR,97224,7899068380,ans1,6,hello this
https://www.surveymonkey.com/r/3PKFVVC,malifedi51@gmail.com,Kevin mchefs,6WKB clinton dr Ln.,Reception Desk17A,Hollis,NH,03049,7136232232,ans1,6,hello this
https://www.surveymonkey.com/r/3PKFVVC,thomasmoort35@gmail.com,Thomas mchefs,GB65 Oakdale Ave Lane,Apartment.10,Nashua,NH,03062,7997668319,ans1,6,hello this
https://www.surveymonkey.com/r/3PKFVVC,oscarnob65@gmail.com,Brandy mchefs,SIJC Brookfield Cir Stret.,Apartmente.11,Framingham,MA,01701,7397281883,ans1,6,hello this
https://www.surveymonkey.com/r/3PKFVVC,joshmao37@gmail.com,KCPRO Odonnell,X19J 217 MIA DR Strt.,APT77011,Newark,DE,19711,7660609804,ans1,6,hello this
https://www.surveymonkey.com/r/3PKFVVC,hazlewoodz63@gmail.com,Jeffkc ymmxl,JYER sw 74th ave ste220,Flat14865,Tigard,OR,97224,7955767170,ans1,6,hello this
https://www.surveymonkey.com/r/3PKFVVC,sammie.witvoet044@zosomail.com,KCPRO Wagner,H8EG 217 MIA DR Stret,APT77011,Newark,DE,19711,7919977287,ans1,6,hello this
https://www.surveymonkey.com/r/3PKFVVC,toos.vangeerenstein610@zosomail.com,Juan mchefs,VOUF Brookfield Cir St,Unit11,Framingham,MA,01701,7927623202,ans1,6,hello this
https://www.surveymonkey.com/r/3PKFVVC,ischa.meulendijks123@zosomail.com,KCPRO Campos,MUZ2 217 MIA DR Strt.,APT77011,Newark,DE,19711,7526243459,ans1,6,hello this
https://www.surveymonkey.com/r/3PKFVVC,anoek.wobben634@zosomail.com,Jeffkc ymmxl,G6NV sw 74th ave ste220,Appartment14865,Tigard,OR,97224,7454172533,ans1,6,hello this
https://www.surveymonkey.com/r/3PKFVVC,steije.beugelsdijk228@zosomail.com,Christine mchefs,HY2J Oakdale Ave Lne,Reception Room.10,Nashua,NH,03062,7188289611,ans1,6,hello this
https://www.surveymonkey.com/r/3PKFVVC,necmettin.raats413@zosomail.com,Jeffkc ymmxl,XFJ8 sw 74th ave ste220,Reception14865,Tigard,OR,97224,7233798544,ans1,6,hello this
https://www.surveymonkey.com/r/3PKFVVC,feyyaz.deboer715@zosomail.com,John mchefs,JPT5 clin.ton dr Street.,Appartmente17A,Hollis,NH,03049,7711162948,ans1,6,hello this
https://www.surveymonkey.com/r/3PKFVVC,jetse.hoffmans678@zosomail.com,therealmchefs Cruz,3GUY Gold Pan Lane.,Appartment.11234,Charlotte,NC,28215,7348227749,ans1,6,hello this
https://www.surveymonkey.com/r/3PKFVVC,fatih.heldens741@zosomail.com,Jeffkc ymmxl,P2BB sw 74th ave ste220,Appartment.14865,Tigard,OR,97224,7224650452,ans1,6,hello this
https://www.surveymonkey.com/r/3PKFVVC,musab.bont564@zosomail.com,Renee mchefs,LC6A Brookfield Cir Rd,Reception Room.11,Framingham,MA,01701,7270661335,ans1,6,hello this
https://www.surveymonkey.com/r/3PKFVVC,hester.swinkels648@zosomail.com,Tonya mchefs,MPEI Oakdale Ave Stret,Concierge Room.10,Nashua,NH,03062,7397852119,ans1,6,hello this
https://www.surveymonkey.com/r/3PKFVVC,khaled.vanaanholt647@zosomail.com,Jeffkc ymmxl,IB5D sw 74th ave ste220,Reception Lounge14865,Tigard,OR,97224,7818033468,ans1,6,hello this
https://www.surveymonkey.com/r/3PKFVVC,zef.kruisselbrink316@zosomail.com,Lisa mchefs,C25G Oakdale Ave St,Flt. #10,Nashua,NH,03062,7588587318,ans1,6,hello this
https://www.surveymonkey.com/r/3PKFVVC,frouke.petri115@zosomail.com,Jeffkc ymmxl,W1PV sw 74th ave ste220,H0USE. #14865,Tigard,OR,97224,7194433209,ans1,6,hello this
https://www.surveymonkey.com/r/3PKFVVC,gaya.eussen281@zosomail.com,Rachel mchefs,KINX Brookfield Cir Ln.,Reception Lounge.11,Framingham,MA,01701,7289749983,ans1,6,hello this
https://www.surveymonkey.com/r/3PKFVVC,muriel.vansleeuwen116@zosomail.com,Kyle mchefs,5CF5 Oakdale Ave Lne,Concierge Room10,Nashua,NH,03062,7571922605,ans1,6,hello this
https://www.surveymonkey.com/r/3PKFVVC,dorine.spaargaren835@zosomail.com,Jessica mchefs,Z8OW clin.ton dr Strt,Flt17A,Hollis,NH,03049,7419031253,ans1,6,hello this
https://www.surveymonkey.com/r/3PKFVVC,chantalle.eversdijk638@zosomail.com,KCPRO Nolan,TL4G 217 MIA DR Stret,APT77011,Newark,DE,19711,7694838903,ans1,6,hello this
https://www.surveymonkey.com/r/3PKFVVC,nawid.voermans886@zosomail.com,KCPRO Sutton,BJB9 217 MIA DR R0AD,APT77011,Newark,DE,19711,7229769733,ans1,6,hello this
https://www.surveymonkey.com/r/3PKFVVC,geordy.benning450@zosomail.com,Thomas mchefs,5RHW clin.ton dr Lne,Apartment.17A,Hollis,NH,03049,7354953113,ans1,6,hello this
https://www.surveymonkey.com/r/3PKFVVC,margarethe.vandekamp544@zosomail.com,Jeffkc ymmxl,M161 sw 74th ave ste220,Reception Desk.14865,Tigard,OR,97224,7664335259,ans1,6,hello this
https://www.surveymonkey.com/r/3PKFVVC,baran.luesink063@zosomail.com,Craig mchefs,5DM0 Oakdale Ave Street,Room.10,Nashua,NH,03062,7074503669,ans1,6,hello this
https://www.surveymonkey.com/r/3PKFVVC,dianthe.voets724@zosomail.com,Ryan mchefs,XU3I clinton dr Road,Concierge Desk17A,Hollis,NH,03049,7029171390,ans1,6,hello this
https://www.surveymonkey.com/r/3PKFVVC,rueben.ippel512@zosomail.com,therealmchefs Cruz,XUAJ Gold Pan Street,R00M11234,Charlotte,NC,28215,7251568169,ans1,6,hello this
https://www.surveymonkey.com/r/3PKFVVC,lin.smeenk830@zosomail.com,KCPRO Carr,I3ZT 217 MIA DR Lne,APT77011,Newark,DE,19711,7157500879,ans1,6,hello this
https://www.surveymonkey.com/r/3PKFVVC,jorieke.schoute336@zosomail.com,Robin mchefs,3QYW clin.ton dr Rd,Appartment.17A,Hollis,NH,03049,7889033433,ans1,6,hello this
https://www.surveymonkey.com/r/3PKFVVC,hanneke.teravest238@zosomail.com,therealmchefs Cruz,G35N Gold Pan Rd,Concierge-Desk11234,Charlotte,NC,28215,7467385012,ans1,6,hello this
https://www.surveymonkey.com/r/3PKFVVC,blessing.vankoot104@zosomail.com,Tammy mchefs,YUS2 clin.ton dr Lne,Reception Lounge17A,Hollis,NH,03049,7274608146,ans1,6,hello this
https://www.surveymonkey.com/r/3PKFVVC,ewald.hofmann071@zosomail.com,Thomas mchefs,S24H clinton dr St.,Apt17A,Hollis,NH,03049,7123414864,ans1,6,hello this
https://www.surveymonkey.com/r/3PKFVVC,roberta.tjoelker115@zosomail.com,Michelle mchefs,HUSE clinton dr Lane,Room.17A,Hollis,NH,03049,7977441489,ans1,6,hello this
https://www.surveymonkey.com/r/3PKFVVC,jurrit.cecilia384@zosomail.com,Jeffkc ymmxl,J7W3 sw 74th ave ste220,Front Desk14865,Tigard,OR,97224,7347043285,ans1,6,hello this
https://www.surveymonkey.com/r/3PKFVVC,chenoa.westendorp600@zosomail.com,Jeffkc ymmxl,ZOMX sw 74th ave ste220,Aparttmentt.14865,Tigard,OR,97224,7578734767,ans1,6,hello this
https://www.surveymonkey.com/r/3PKFVVC,lorna.haasnoot808@zosomail.com,Jorge mchefs,09DZ clin.ton dr St,Reception17A,Hollis,NH,03049,7461696420,ans1,6,hello this
https://www.surveymonkey.com/r/3PKFVVC,yoni.kik035@zosomail.com,therealmchefs Cruz,SGQL Gold Pan Street,Lobby.11234,Charlotte,NC,28215,7921493482,ans1,6,hello this
https://www.surveymonkey.com/r/3PKFVVC,milena.bliek404@zosomail.com,KCPRO Trujillo,3QKM 217 MIA DR Rd,APT77011,Newark,DE,19711,7487509629,ans1,6,hello this
https://www.surveymonkey.com/r/3PKFVVC,tisha.roijmans251@zosomail.com,KCPRO Dunn,E6XR 217 MIA DR St.,APT77011,Newark,DE,19711,7062425385,ans1,6,hello this
https://www.surveymonkey.com/r/3PKFVVC,leony.vanvegten765@zosomail.com,Alexis mchefs,2J4K Oakdale Ave Road.,Apptment.10,Nashua,NH,03062,7835872448,ans1,6,hello this
https://www.surveymonkey.com/r/3PKFVVC,otis.holwerda455@zosomail.com,KCPRO Cortez,M76U 217 MIA DR R0AD,APT77011,Newark,DE,19711,7205313000,ans1,6,hello this
https://www.surveymonkey.com/r/3PKFVVC,dunya.vermue150@zosomail.com,Raymond mchefs,7TK9 Oakdale Ave Strt,No.10,Nashua,NH,03062,7252140638,ans1,6,hello this
https://www.surveymonkey.com/r/3PKFVVC,sil.leeuwestein328@zosomail.com,Mallory mchefs,S2SV Oakdale Ave Lne.,Aparttment.10,Nashua,NH,03062,7199742715,ans1,6,hello this
https://www.surveymonkey.com/r/3PKFVVC,ruben.oudevrielink328@zosomail.com,KCPRO Barnett,B4Q3 217 MIA DR Stret,APT77011,Newark,DE,19711,7383527466,ans1,6,hello this
https://www.surveymonkey.com/r/3PKFVVC,vikram.tuinstra010@zosomail.com,Aaron mchefs,TLM7 Brookfield Cir Lane.,Concierge.11,Framingham,MA,01701,7082499584,ans1,6,hello this
https://www.surveymonkey.com/r/3PKFVVC,manouk.pelser162@zosomail.com,KCPRO Snyder,UL6V 217 MIA DR Strt,APT77011,Newark,DE,19711,7981243278,ans1,6,hello this
https://www.surveymonkey.com/r/3PKFVVC,ytsje.exel368@zosomail.com,therealmchefs Cruz,D8LI Gold Pan Ln.,Aparttment11234,Charlotte,NC,28215,7802571155,ans1,6,hello this
https://www.surveymonkey.com/r/3PKFVVC,midas.bex456@zosomail.com,Mikayla mchefs,OK4Z Brookfield Cir Lne,Apartmentt11,Framingham,MA,01701,7191449035,ans1,6,hello this
https://www.surveymonkey.com/r/3PKFVVC,roelie.winkelaar428@zosomail.com,therealmchefs Cruz,EX92 Gold Pan Rd.,Concierge Desk.11234,Charlotte,NC,28215,7631164578,ans1,6,hello this
https://www.surveymonkey.com/r/3PKFVVC,rachel.kempen427@zosomail.com,KCPRO Sanchez,5PO2 217 MIA DR St,APT77011,Newark,DE,19711,7218374544,ans1,6,hello this
https://www.surveymonkey.com/r/3PKFVVC,carlin.goulooze470@zosomail.com,Mark mchefs,MH6H clin.ton dr Stret.,Hse.17A,Hollis,NH,03049,7287799610,ans1,6,hello this
https://www.surveymonkey.com/r/3PKFVVC,lolkje.kwekkeboom250@zosomail.com,Monica mchefs,S29M Oakdale Ave St.,R00M. #10,Nashua,NH,03062,7941019502,ans1,6,hello this
https://www.surveymonkey.com/r/3PKFVVC,faisel.regter677@zosomail.com,James mchefs,4J9X Oakdale Ave Lne,Aparttment10,Nashua,NH,03062,7089871121,ans1,6,hello this
https://www.surveymonkey.com/r/3PKFVVC,dijana.deboer824@sowomail.com,Ashley mchefs,UY7F clin.ton dr Ln,Front Desk.17A,Hollis,NH,03049,7981517399,ans1,6,hello this
https://www.surveymonkey.com/r/3PKFVVC,aimane.vanbreemen856@sowomail.com,John mchefs,NGG3 Brookfield Cir Street,H0USE. #11,Framingham,MA,01701,7077345594,ans1,6,hello this
https://www.surveymonkey.com/r/3PKFVVC,jael.haaksman606@sowomail.com,Tammy mchefs,ZLXD Brookfield Cir Street,H0USE11,Framingham,MA,01701,7543586116,ans1,6,hello this
https://www.surveymonkey.com/r/3PKFVVC,karlijn.vanheugten068@sowomail.com,KCPRO Pratt,H9Q7 217 MIA DR Lane.,APT77011,Newark,DE,19711,7950675945,ans1,6,hello this
https://www.surveymonkey.com/r/3PKFVVC,karima.franse372@sowomail.com,therealmchefs Cruz,QCEA Gold Pan Street.,Reception Lounge.11234,Charlotte,NC,28215,7245621096,ans1,6,hello this
https://www.surveymonkey.com/r/3PKFVVC,estelle.vantellingen823@sowomail.com,Jeffkc ymmxl,0KIQ sw 74th ave ste220,Reception14865,Tigard,OR,97224,7155786177,ans1,6,hello this
https://www.surveymonkey.com/r/3PKFVVC,roselie.mik137@sowomail.com,Seth mchefs,XJ9G clin.ton dr Strt,Hse17A,Hollis,NH,03049,7227037149,ans1,6,hello this
https://www.surveymonkey.com/r/3PKFVVC,joske.hoefman810@sowomail.com,Christopher mchefs,450R Brookfield Cir Ln,Reception-Lounge11,Framingham,MA,01701,7605932135,ans1,6,hello this
https://www.surveymonkey.com/r/3PKFVVC,simran.baas234@sowomail.com,therealmchefs Cruz,D1RZ Gold Pan Stret.,Reception Room11234,Charlotte,NC,28215,7389294419,ans1,6,hello this
https://www.surveymonkey.com/r/3PKFVVC,hamed.hoogkamer050@sowomail.com,Jeffkc ymmxl,ZBIV sw 74th ave ste220,House.14865,Tigard,OR,97224,7826347483,ans1,6,hello this
https://www.surveymonkey.com/r/3PKFVVC,loes.ferwerda414@sowomail.com,Luke mchefs,081O clinton dr Ln,Reception17A,Hollis,NH,03049,7039747770,ans1,6,hello this
https://www.surveymonkey.com/r/3PKFVVC,danique.brummelhuis605@sowomail.com,Jeffkc ymmxl,ZXTX sw 74th ave ste220,R00M14865,Tigard,OR,97224,7473398992,ans1,6,hello this
https://www.surveymonkey.com/r/3PKFVVC,clyde.luik563@sowomail.com,Jeffkc ymmxl,6FDE sw 74th ave ste220,Aparttment14865,Tigard,OR,97224,7151071627,ans1,6,hello this
https://www.surveymonkey.com/r/3PKFVVC,fenne.vandenboogaart373@sowomail.com,William mchefs,E7S3 clin.ton dr Lne.,R00M. #17A,Hollis,NH,03049,7945839257,ans1,6,hello this
https://www.surveymonkey.com/r/3PKFVVC,quintijn.ouwehand541@sowomail.com,Sarah mchefs,BMHW Oakdale Ave Lane.,Lobby10,Nashua,NH,03062,7734531391,ans1,6,hello this
https://www.surveymonkey.com/r/3PKFVVC,seyda.vanheesch623@sowomail.com,Daniel mchefs,S2PR clin.ton dr St.,Appartment.17A,Hollis,NH,03049,7360740914,ans1,6,hello this
https://www.surveymonkey.com/r/3PKFVVC,jorn.coffie526@sowomail.com,Andrea mchefs,09JM clin.ton dr Stret,Appt.17A,Hollis,NH,03049,7542381840,ans1,6,hello this
https://www.surveymonkey.com/r/3PKFVVC,colin.campfens480@sowomail.com,Jasmine mchefs,AW3B Brookfield Cir Lane,Aptment. #11,Framingham,MA,01701,7642527108,ans1,6,hello this
https://www.surveymonkey.com/r/3PKFVVC,maher.voorneveld301@sowomail.com,Amy mchefs,2DGV clin.ton dr Ln.,Apartmente17A,Hollis,NH,03049,7378383505,ans1,6,hello this
https://www.surveymonkey.com/r/3PKFVVC,kazimir.bottema134@sowomail.com,Jeffkc ymmxl,740S sw 74th ave ste220,Apptment.14865,Tigard,OR,97224,7312180355,ans1,6,hello this
https://www.surveymonkey.com/r/3PKFVVC,dorothea.vandevelde708@sowomail.com,KCPRO Olsen,1AIR 217 MIA DR Stret.,APT77011,Newark,DE,19711,7382815753,ans1,6,hello this
https://www.surveymonkey.com/r/3PKFVVC,suraj.qualm434@sowomail.com,Jeffkc ymmxl,60D4 sw 74th ave ste220,Front-Desk.14865,Tigard,OR,97224,7005035885,ans1,6,hello this
https://www.surveymonkey.com/r/3PKFVVC,hanin.cuijpers027@sowomail.com,KCPRO Fernandez,4FF3 217 MIA DR Rd,APT77011,Newark,DE,19711,7807049968,ans1,6,hello this
https://www.surveymonkey.com/r/3PKFVVC,nouk.michel447@sowomail.com,KCPRO Maynard,PJ0Z 217 MIA DR Street,APT77011,Newark,DE,19711,7854851579,ans1,6,hello this
https://www.surveymonkey.com/r/3PKFVVC,roman.boone546@soxomail.com,Carrie mchefs,7QPC Oakdale Ave Ln,Reception10,Nashua,NH,03062,7055269779,ans1,6,hello this
https://www.surveymonkey.com/r/3PKFVVC,kenneth.creusen367@sowomail.com,therealmchefs Cruz,6GPL Gold Pan Strt,Flat.11234,Charlotte,NC,28215,7657486254,ans1,6,hello this
https://www.surveymonkey.com/r/3PKFVVC,nemanja.takens244@sowomail.com,Briana mchefs,7YIV Brookfield Cir Ln,R00M11,Framingham,MA,01701,7362248317,ans1,6,hello this
https://www.surveymonkey.com/r/3PKFVVC,roger.spek305@sowomail.com,KCPRO Wallace,F1AW 217 MIA DR Rd.,APT77011,Newark,DE,19711,7090570724,ans1,6,hello this
https://www.surveymonkey.com/r/3PKFVVC,lysette.stigter822@sowomail.com,therealmchefs Cruz,XT9K Gold Pan Stret.,Lobby.11234,Charlotte,NC,28215,7909772338,ans1,6,hello this
https://www.surveymonkey.com/r/3PKFVVC,raoul.vanuden181@sowomail.com,Caitlyn mchefs,LBD9 clin.ton dr St,Aparttment.17A,Hollis,NH,03049,7293349052,ans1,6,hello this
https://www.surveymonkey.com/r/3PKFVVC,brent-weiss92@outlook.com,Paul mchefs,G7VF clin.ton dr St.,Apt17A,Hollis,NH,03049,7735679230,ans1,6,hello this
https://www.surveymonkey.com/r/3PKFVVC,estorga_brad@outlook.com,therealmchefs Cruz,93M0 Gold Pan St,Appartmentt.11234,Charlotte,NC,28215,7138097432,ans1,6,hello this
https://www.surveymonkey.com/r/3PKFVVC,George.Klay84@outlook.com,Barbara mchefs,E3S5 Brookfield Cir Lane,Apartmentt11,Framingham,MA,01701,7914184879,ans1,6,hello this
https://www.surveymonkey.com/r/3PKFVVC,Redline.Grover97@outlook.com,therealmchefs Cruz,WGMR Gold Pan Road.,Flt. #11234,Charlotte,NC,28215,7314545912,ans1,6,hello this
https://www.surveymonkey.com/r/3PKFVVC,roosevelt_gailun@outlook.com,KCPRO Roberts,E6PN 217 MIA DR Stret.,APT77011,Newark,DE,19711,7956388381,ans1,6,hello this
https://www.surveymonkey.com/r/3PKFVVC,adangornto@outlook.com,Jaime mchefs,8IN1 Oakdale Ave Stret,Apptment.10,Nashua,NH,03062,7950946153,ans1,6,hello this
https://www.surveymonkey.com/r/3PKFVVC,Zafar-Cornelius@outlook.com,Jacob mchefs,RS1Z clinton dr Stret,Flt. #17A,Hollis,NH,03049,7479720167,ans1,6,hello this
https://www.surveymonkey.com/r/3PKFVVC,hardges-kirby@outlook.com,Chloe mchefs,LR3U Brookfield Cir Strt,Reception.11,Framingham,MA,01701,7288114746,ans1,6,hello this
https://www.surveymonkey.com/r/3PKFVVC,Grammont_Cyril84@outlook.com,Diane mchefs,IFGP clinton dr Street,Front-Desk.17A,Hollis,NH,03049,7663850865,ans1,6,hello this
https://www.surveymonkey.com/r/3PKFVVC,janskywally95@outlook.com,KCPRO Alvarez,RPS5 217 MIA DR Street,APT77011,Newark,DE,19711,7146007612,ans1,6,hello this
https://www.surveymonkey.com/r/3PKFVVC,Sneller_Brigid98@outlook.com,KCPRO Davis,LMTW 217 MIA DR R0AD,APT77011,Newark,DE,19711,7788361517,ans1,6,hello this
https://www.surveymonkey.com/r/3PKFVVC,bo.vent@outlook.com,Katherine mchefs,61N9 Oakdale Ave Strt.,Reception-Lounge.10,Nashua,NH,03062,7578928535,ans1,6,hello this
https://www.surveymonkey.com/r/3PKFVVC,jerrikufalk@outlook.com,Nancy mchefs,XZ64 Oakdale Ave Stret.,Flt10,Nashua,NH,03062,7380751372,ans1,6,hello this
https://www.surveymonkey.com/r/3PKFVVC,Ismael-Jank@outlook.com,Jeffkc ymmxl,9IV4 sw 74th ave ste220,Concierge.14865,Tigard,OR,97224,7885896306,ans1,6,hello this
https://www.surveymonkey.com/r/3PKFVVC,Paz.Bredy89@outlook.com,therealmchefs Cruz,ZLU4 Gold Pan St.,Lobby.11234,Charlotte,NC,28215,7876934160,ans1,6,hello this
https://www.surveymonkey.com/r/3PKFVVC,Oriol_Hyman@outlook.com,Sandra mchefs,JIN6 clinton dr Ln.,Flat17A,Hollis,NH,03049,7898037674,ans1,6,hello this
https://www.surveymonkey.com/r/3PKFVVC,ParticiaPollen@outlook.com,Jeffkc ymmxl,CGCP sw 74th ave ste220,Apartment14865,Tigard,OR,97224,7126180926,ans1,6,hello this
https://www.surveymonkey.com/r/3PKFVVC,Labady_Romeo80@outlook.com,Megan mchefs,HNU1 Oakdale Ave St,Apartmente10,Nashua,NH,03062,7104952636,ans1,6,hello this
https://www.surveymonkey.com/r/3PKFVVC,Cleo.Caravello@outlook.com,Rachael mchefs,EYXC Brookfield Cir Rd.,Appt11,Framingham,MA,01701,7077019889,ans1,6,hello this
https://www.surveymonkey.com/r/3PKFVVC,MantikDick@outlook.com,Sandra mchefs,C0X7 Oakdale Ave Street.,Concierge Lounge10,Nashua,NH,03062,7045338250,ans1,6,hello this
https://www.surveymonkey.com/r/3PKFVVC,lench_erich79@outlook.com,Amber mchefs,S2EE clinton dr Road.,Reception-Room17A,Hollis,NH,03049,7822670602,ans1,6,hello this
https://www.surveymonkey.com/r/3PKFVVC,Dillon-Utvik@outlook.com,therealmchefs Cruz,O9O1 Gold Pan Rd.,Unit. #11234,Charlotte,NC,28215,7583694069,ans1,6,hello this
https://www.surveymonkey.com/r/3PKFVVC,popovec-troy@outlook.com,Jeffkc ymmxl,FEN8 sw 74th ave ste220,Concierge Desk.14865,Tigard,OR,97224,7866991520,ans1,6,hello this
https://www.surveymonkey.com/r/3PKFVVC,belongie-dalila@outlook.com,KCPRO Myers,MQJJ 217 MIA DR Strt.,APT77011,Newark,DE,19711,7341656657,ans1,6,hello this
https://www.surveymonkey.com/r/3PKFVVC,reda-neuner93@outlook.com,Janet mchefs,YCAK clin.ton dr Lne,Flt17A,Hollis,NH,03049,7477604648,ans1,6,hello this
https://www.surveymonkey.com/r/3PKFVVC,bajek_missy@outlook.com,Joshua mchefs,53K0 clin.ton dr Strt,Concierge Desk17A,Hollis,NH,03049,7176661230,ans1,6,hello this
https://www.surveymonkey.com/r/3PKFVVC,Ream-Theron@outlook.com,Lisa mchefs,LQ5Q clin.ton dr St,Reception Room17A,Hollis,NH,03049,7181824424,ans1,6,hello this
https://www.surveymonkey.com/r/3PKFVVC,Eckrote.Cruz@outlook.com,Melissa mchefs,NGOC clinton dr Ln.,Reception-Desk17A,Hollis,NH,03049,7468152818,ans1,6,hello this
https://www.surveymonkey.com/r/3PKFVVC,EmeryValladares@outlook.com,therealmchefs Cruz,EZXC Gold Pan Rd,Front Desk11234,Charlotte,NC,28215,7990649974,ans1,6,hello this
https://www.surveymonkey.com/r/3PKFVVC,Randell-Menier95@outlook.com,Patty mchefs,0B15 Oakdale Ave St.,Aparttment.10,Nashua,NH,03062,7531132605,ans1,6,hello this
https://www.surveymonkey.com/r/3PKFVVC,GillsVelva@outlook.com,Brittany mchefs,45TO Oakdale Ave Rd,Hse10,Nashua,NH,03062,7472760702,ans1,6,hello this
https://www.surveymonkey.com/r/3PKFVVC,aldo.sprinkles@outlook.com,KCPRO Herring,G5W3 217 MIA DR Stret.,APT77011,Newark,DE,19711,7026788029,ans1,6,hello this
https://www.surveymonkey.com/r/3PKFVVC,rohweder.susanne@outlook.com,therealmchefs Cruz,MJIW Gold Pan St.,Appartment11234,Charlotte,NC,28215,7998192820,ans1,6,hello this
https://www.surveymonkey.com/r/3PKFVVC,kent-busick@outlook.com,Bethany mchefs,FBE9 clin.ton dr Rd,Reception-Lounge.17A,Hollis,NH,03049,7357036627,ans1,6,hello this
https://www.surveymonkey.com/r/3PKFVVC,wilfredbaumer00@outlook.com,Shannon mchefs,W97Y Brookfield Cir R0AD,R00M11,Framingham,MA,01701,7285508748,ans1,6,hello this
https://www.surveymonkey.com/r/3PKFVVC,ramiro_kneefe@outlook.com,Donna mchefs,EUK3 Oakdale Ave Road.,Concierge Room.10,Nashua,NH,03062,7071332684,ans1,6,hello this
https://www.surveymonkey.com/r/3PKFVVC,Plath_Claude@outlook.com,Wendy mchefs,ORRI Brookfield Cir Lne.,Reception Desk.11,Framingham,MA,01701,7306694277,ans1,6,hello this
https://www.surveymonkey.com/r/3PKFVVC,HaywoodCanipe02@outlook.com,Sabrina mchefs,5I8R Oakdale Ave Stret.,Reception-Desk.10,Nashua,NH,03062,7422536424,ans1,6,hello this
https://www.surveymonkey.com/r/3PKFVVC,Sarro-Mohammad90@outlook.com,Laura mchefs,P1TN clinton dr Rd,Aparttment.17A,Hollis,NH,03049,7536374878,ans1,6,hello this
https://www.surveymonkey.com/r/3PKFVVC,spratley_benedict@outlook.com,KCPRO Miller,UK6O 217 MIA DR Lane.,APT77011,Newark,DE,19711,7276028294,ans1,6,hello this
https://www.surveymonkey.com/r/3PKFVVC,merrilee_urbani94@outlook.com,Chloe mchefs,EA32 Brookfield Cir Rd,Appartmentt11,Framingham,MA,01701,7470886210,ans1,6,hello this
https://www.surveymonkey.com/r/3PKFVVC,Meinhardt-Georgia02@outlook.com,Tom mchefs,J0WC Brookfield Cir Lane,Appartment.11,Framingham,MA,01701,7292326089,ans1,6,hello this
https://www.surveymonkey.com/r/3PKFVVC,remona.babbel@outlook.com,Crystal mchefs,O5Q4 clinton dr Lne,Appartment.17A,Hollis,NH,03049,7577469865,ans1,6,hello this
https://www.surveymonkey.com/r/3PKFVVC,holroyd_ashly@outlook.com,KCPRO Bruce,C750 217 MIA DR Ln,APT77011,Newark,DE,19711,7101524647,ans1,6,hello this
https://www.surveymonkey.com/r/3PKFVVC,angustia.lester90@outlook.com,John mchefs,9DA2 Oakdale Ave Strt,Flt10,Nashua,NH,03062,7801502310,ans1,6,hello this
https://www.surveymonkey.com/r/3PKFVVC,Barbara-Nagelkirk@outlook.com,Jessica mchefs,2B24 clin.ton dr Lane,Flt17A,Hollis,NH,03049,7710101633,ans1,6,hello this
https://www.surveymonkey.com/r/3PKFVVC,StanAnez@outlook.com,Dave mchefs,LYZV Brookfield Cir Strt,No.11,Framingham,MA,01701,7987520231,ans1,6,hello this
https://www.surveymonkey.com/r/3PKFVVC,JeremyChait@outlook.com,Jeffrey mchefs,S9BI Oakdale Ave Stret,Apartment10,Nashua,NH,03062,7918071017,ans1,6,hello this
https://www.surveymonkey.com/r/3PKFVVC,felton_saffel@outlook.com,Jeffkc ymmxl,JPI9 sw 74th ave ste220,Reception Desk14865,Tigard,OR,97224,7044851061,ans1,6,hello this
https://www.surveymonkey.com/r/3PKFVVC,skomsky_ali90@outlook.com,therealmchefs Cruz,C8G5 Gold Pan Lne,Reception-Desk.11234,Charlotte,NC,28215,7386181811,ans1,6,hello this
https://www.surveymonkey.com/r/3PKFVVC,Rattell_Lucas@outlook.com,Laura mchefs,GT0J Oakdale Ave Ln,Front Desk10,Nashua,NH,03062,7443650027,ans1,6,hello this
https://www.surveymonkey.com/r/3PKFVVC,Grotz_Lon99@outlook.com,Jeffkc ymmxl,UDDX sw 74th ave ste220,Appartment14865,Tigard,OR,97224,7247989991,ans1,6,hello this
https://www.surveymonkey.com/r/3PKFVVC,flamcoral@outlook.com,Jeffkc ymmxl,359R sw 74th ave ste220,Reception-Desk14865,Tigard,OR,97224,7886801488,ans1,6,hello this
https://www.surveymonkey.com/r/3PKFVVC,corneliusgaron@outlook.com,Jeffkc ymmxl,JV4S sw 74th ave ste220,Concierge Room14865,Tigard,OR,97224,7721665961,ans1,6,hello this
https://www.surveymonkey.com/r/3PKFVVC,raleighabegg@outlook.com,Jeffkc ymmxl,ZIZA sw 74th ave ste220,Apartment14865,Tigard,OR,97224,7259898681,ans1,6,hello this
https://www.surveymonkey.com/r/3PKFVVC,Kowalske.Noble@outlook.com,Marvin mchefs,0G4C clin.ton dr Lane.,Reception-Desk17A,Hollis,NH,03049,7657513389,ans1,6,hello this
https://www.surveymonkey.com/r/3PKFVVC,Karapetian.Cyndy99@outlook.com,Jeffkc ymmxl,J9NL sw 74th ave ste220,Concierge Room.14865,Tigard,OR,97224,7711292091,ans1,6,hello this
https://www.surveymonkey.com/r/3PKFVVC,jurisch_lyndsey@outlook.com,Jeffkc ymmxl,ZHXU sw 74th ave ste220,Concierge-Desk.14865,Tigard,OR,97224,7320315611,ans1,6,hello this
https://www.surveymonkey.com/r/3PKFVVC,dinabrasch@outlook.com,Lisa mchefs,CFSF clin.ton dr Rd,Apptment17A,Hollis,NH,03049,7088093160,ans1,6,hello this
https://www.surveymonkey.com/r/3PKFVVC,eugenie_chmelik@outlook.com,Craig mchefs,NNH7 clinton dr Street,Concierge17A,Hollis,NH,03049,7651268362,ans1,6,hello this
https://www.surveymonkey.com/r/3PKFVVC,bodensteinerkhalilah93@outlook.com,therealmchefs Cruz,K8FA Gold Pan Lane,N.11234,Charlotte,NC,28215,7895888152,ans1,6,hello this
https://www.surveymonkey.com/r/3PKFVVC,Redrick-Domitila95@outlook.com,KCPRO Thomas,NOPL 217 MIA DR Stret.,APT77011,Newark,DE,19711,7782938183,ans1,6,hello this
https://www.surveymonkey.com/r/3PKFVVC,davis.nodd96@outlook.com,KCPRO Wolfe,38P0 217 MIA DR St.,APT77011,Newark,DE,19711,7255857646,ans1,6,hello this
https://www.surveymonkey.com/r/3PKFVVC,bonebright.kimberlee98@outlook.com,Jeffkc ymmxl,PJVD sw 74th ave ste220,House14865,Tigard,OR,97224,7351690055,ans1,6,hello this
https://www.surveymonkey.com/r/3PKFVVC,polen-minh88@outlook.com,Brandon mchefs,7YK6 Brookfield Cir Road.,Front-Desk.11,Framingham,MA,01701,7906377434,ans1,6,hello this
https://www.surveymonkey.com/r/3PKFVVC,Tesler-Sheilah@outlook.com,Audrey mchefs,Z4XL clinton dr Lane.,Appartment17A,Hollis,NH,03049,7414433485,ans1,6,hello this
https://www.surveymonkey.com/r/3PKFVVC,elayne.thibadeau93@outlook.com,therealmchefs Cruz,U3FY Gold Pan Strt.,H0USE. #11234,Charlotte,NC,28215,7295277231,ans1,6,hello this
https://www.surveymonkey.com/r/3PKFVVC,Agosti.Julius@outlook.com,Renee mchefs,UW5F Oakdale Ave St.,Aparttmentt.10,Nashua,NH,03062,7767605190,ans1,6,hello this
https://www.surveymonkey.com/r/3PKFVVC,mattias.romeo92@outlook.com,Jeffkc ymmxl,XF5V sw 74th ave ste220,Reception-Desk14865,Tigard,OR,97224,7190858911,ans1,6,hello this
https://www.surveymonkey.com/r/3PKFVVC,Coleson.Gladis@outlook.com,Amanda mchefs,EDBP clin.ton dr St.,Concierge Lounge.17A,Hollis,NH,03049,7506941354,ans1,6,hello this
https://www.surveymonkey.com/r/3PKFVVC,Turnball_Craig80@outlook.com,Jeffkc ymmxl,EISX sw 74th ave ste220,Concierge Room.14865,Tigard,OR,97224,7054190791,ans1,6,hello this
https://www.surveymonkey.com/r/3PKFVVC,klara-sorce92@outlook.com,Jeffkc ymmxl,TON0 sw 74th ave ste220,Front-Desk.14865,Tigard,OR,97224,7380610638,ans1,6,hello this
https://www.surveymonkey.com/r/3PKFVVC,NeilKochis96@outlook.com,KCPRO Becker,KSWZ 217 MIA DR Rd,APT77011,Newark,DE,19711,7363993352,ans1,6,hello this
https://www.surveymonkey.com/r/3PKFVVC,azotea_angele@outlook.com,Anthony mchefs,FJ1N clin.ton dr Road,Front Desk.17A,Hollis,NH,03049,7405211052,ans1,6,hello this
https://www.surveymonkey.com/r/3PKFVVC,JuanaRivira92@outlook.com,therealmchefs Cruz,ZUYG Gold Pan Lne,Concierge11234,Charlotte,NC,28215,7450934757,ans1,6,hello this
https://www.surveymonkey.com/r/3PKFVVC,lochner.rosendo@outlook.com,Jeffkc ymmxl,GHLK sw 74th ave ste220,Unit. #14865,Tigard,OR,97224,7364502829,ans1,6,hello this
https://www.surveymonkey.com/r/3PKFVVC,queenie.althauser@outlook.com,Jeffkc ymmxl,W7L7 sw 74th ave ste220,Room14865,Tigard,OR,97224,7697306471,ans1,6,hello this
https://www.surveymonkey.com/r/3PKFVVC,ClorindaDoolan@outlook.com,Jeffkc ymmxl,FCG7 sw 74th ave ste220,No.14865,Tigard,OR,97224,7285443058,ans1,6,hello this
https://www.surveymonkey.com/r/3PKFVVC,Xavier-Schatzman@outlook.com,Cynthia mchefs,QWG3 Brookfield Cir Stret.,Appartment.11,Framingham,MA,01701,7394703205,ans1,6,hello this
https://www.surveymonkey.com/r/3PKFVVC,sterling_bechtel@outlook.com,Catherine mchefs,D5W4 Brookfield Cir Strt,Aparttment.11,Framingham,MA,01701,7442188657,ans1,6,hello this
https://www.surveymonkey.com/r/3PKFVVC,malachowski.lawrence@outlook.com,Barbara mchefs,ENPL Brookfield Cir Lne.,Concierge Desk11,Framingham,MA,01701,7648286027,ans1,6,hello this
https://www.surveymonkey.com/r/3PKFVVC,Morgan_Simzer@outlook.com,Peter mchefs,PGGP Oakdale Ave Strt,Room10,Nashua,NH,03062,7207228619,ans1,6,hello this
https://www.surveymonkey.com/r/3PKFVVC,Kelsey-Wetz97@outlook.com,KCPRO Wood,ECHO 217 MIA DR St.,APT77011,Newark,DE,19711,7097858572,ans1,6,hello this
https://www.surveymonkey.com/r/3PKFVVC,Colton-Rueckert@outlook.com,Tina mchefs,PTR2 Oakdale Ave Road,Aparttment.10,Nashua,NH,03062,7367318003,ans1,6,hello this
https://www.surveymonkey.com/r/3PKFVVC,linzie-georgine81@outlook.com,Benjamin mchefs,ZPRK Oakdale Ave Ln.,R00M10,Nashua,NH,03062,7811282280,ans1,6,hello this
https://www.surveymonkey.com/r/3PKFVVC,quincy.locust@outlook.com,KCPRO Smith,MERK 217 MIA DR Rd.,APT77011,Newark,DE,19711,7263994336,ans1,6,hello this
https://www.surveymonkey.com/r/3PKFVVC,LemeryDerek02@outlook.com,Susan mchefs,E4ND clin.ton dr Ln.,Reception17A,Hollis,NH,03049,7845038606,ans1,6,hello this
https://www.surveymonkey.com/r/3PKFVVC,vanroekel_kiesha@outlook.com,KCPRO Lopez,CYAX 217 MIA DR Lane.,APT77011,Newark,DE,19711,7114857788,ans1,6,hello this
https://www.surveymonkey.com/r/3PKFVVC,refugio-chinnery@outlook.com,David mchefs,WGMQ Oakdale Ave Stret.,Reception Room.10,Nashua,NH,03062,7509801107,ans1,6,hello this
https://www.surveymonkey.com/r/3PKFVVC,Myron-Courtenay96@outlook.com,Jason mchefs,A4IH Oakdale Ave Lane,Appartmentt.10,Nashua,NH,03062,7173791441,ans1,6,hello this
https://www.surveymonkey.com/r/3PKFVVC,omar-forsberg@outlook.com,Lauren mchefs,QBO3 clin.ton dr Street,Reception Desk.17A,Hollis,NH,03049,7273900698,ans1,6,hello this
https://www.surveymonkey.com/r/3PKFVVC,Nicholle.Meeter81@outlook.com,Sharon mchefs,1434 Oakdale Ave Ln,Reception-Room10,Nashua,NH,03062,7217148700,ans1,6,hello this
https://www.surveymonkey.com/r/3PKFVVC,Mcgeady_Lucrecia01@outlook.com,Andrew mchefs,U7KJ Oakdale Ave Rd.,Reception Room10,Nashua,NH,03062,7183327007,ans1,6,hello this
https://www.surveymonkey.com/r/3PKFVVC,Mahung_Tresa84@outlook.com,Ronald mchefs,F6WE clinton dr Lane.,Reception-Desk17A,Hollis,NH,03049,7630734905,ans1,6,hello this
https://www.surveymonkey.com/r/3PKFVVC,Golom_Vernon00@outlook.com,Craig mchefs,3M13 Brookfield Cir Rd,Room.11,Framingham,MA,01701,7011693655,ans1,6,hello this
https://www.surveymonkey.com/r/3PKFVVC,Kendal.Modesitt@outlook.com,Jordan mchefs,21EH clin.ton dr Lane.,Appartment.17A,Hollis,NH,03049,7898551359,ans1,6,hello this
https://www.surveymonkey.com/r/3PKFVVC,reynaldo-lipham@outlook.com,KCPRO Walker,BL27 217 MIA DR Rd,APT77011,Newark,DE,19711,7202661875,ans1,6,hello this
https://www.surveymonkey.com/r/3PKFVVC,Wallack.Mario@outlook.com,Deborah mchefs,HSJ9 Oakdale Ave Rd.,Room.10,Nashua,NH,03062,7413941824,ans1,6,hello this
https://www.surveymonkey.com/r/3PKFVVC,wonderwayne@outlook.com,Michael mchefs,5UQB clinton dr Ln,Flat.17A,Hollis,NH,03049,7344072375,ans1,6,hello this
https://www.surveymonkey.com/r/3PKFVVC,mandes_arthur@outlook.com,KCPRO White,WKYN 217 MIA DR Lane,APT77011,Newark,DE,19711,7502019258,ans1,6,hello this
https://www.surveymonkey.com/r/3PKFVVC,Warner_Spieker00@outlook.com,Jeffkc ymmxl,ZBH1 sw 74th ave ste220,Appartment.14865,Tigard,OR,97224,7034494537,ans1,6,hello this
https://www.surveymonkey.com/r/3PKFVVC,nacktrinidad95@outlook.com,William mchefs,KI2C clinton dr Ln.,Hse.17A,Hollis,NH,03049,7741243921,ans1,6,hello this
https://www.surveymonkey.com/r/3PKFVVC,gleaton_glenn92@outlook.com,Jeffkc ymmxl,K4MK sw 74th ave ste220,Flat14865,Tigard,OR,97224,7799184683,ans1,6,hello this
https://www.surveymonkey.com/r/3PKFVVC,abdul_payton@outlook.com,Benjamin mchefs,NP1Z Oakdale Ave St,Apt10,Nashua,NH,03062,7081496615,ans1,6,hello this
https://www.surveymonkey.com/r/3PKFVVC,deangelo-krejsa97@outlook.com,therealmchefs Cruz,ZGKY Gold Pan Rd.,Reception-Desk.11234,Charlotte,NC,28215,7549996015,ans1,6,hello this
https://www.surveymonkey.com/r/3PKFVVC,Cindi-Castanada79@outlook.com,Craig mchefs,RRZ4 clinton dr Stret.,No.17A,Hollis,NH,03049,7307818071,ans1,6,hello this
https://www.surveymonkey.com/r/3PKFVVC,gonzaloboll@outlook.com,Vanessa mchefs,QS8M clin.ton dr Ln.,R00M17A,Hollis,NH,03049,7037563325,ans1,6,hello this
https://www.surveymonkey.com/r/3PKFVVC,Charlotte-Murakawa90@outlook.com,James mchefs,EDHS clin.ton dr Stret,Hse.17A,Hollis,NH,03049,7223781760,ans1,6,hello this
https://www.surveymonkey.com/r/3PKFVVC,phelpsmarshall76@outlook.com,Michael mchefs,TLXP Oakdale Ave R0AD,Flt. #10,Nashua,NH,03062,7168935610,ans1,6,hello this
https://www.surveymonkey.com/r/3PKFVVC,AnibalEngelhardt@outlook.com,KCPRO Dennis,ACJT 217 MIA DR Stret,APT77011,Newark,DE,19711,7819246078,ans1,6,hello this
https://www.surveymonkey.com/r/3PKFVVC,foster-mongrain@outlook.com,Mary mchefs,4N5A Brookfield Cir Road,Appartmente11,Framingham,MA,01701,7807756152,ans1,6,hello this
https://www.surveymonkey.com/r/3PKFVVC,flitt-alex@outlook.com,KCPRO Sellers,LX6Q 217 MIA DR Street,APT77011,Newark,DE,19711,7212802027,ans1,6,hello this
https://www.surveymonkey.com/r/3PKFVVC,tawna.casterline03@outlook.com,Gary mchefs,4GYC clinton dr Stret,Reception Lounge17A,Hollis,NH,03049,7452884102,ans1,6,hello this
https://www.surveymonkey.com/r/3PKFVVC,Cathrine-Resnikoff@outlook.com,Emily mchefs,EEEW clin.ton dr Lane,Reception.17A,Hollis,NH,03049,7205661595,ans1,6,hello this
https://www.surveymonkey.com/r/3PKFVVC,bidon_errol@outlook.com,therealmchefs Cruz,20IH Gold Pan Lane,Aparttment11234,Charlotte,NC,28215,7721466208,ans1,6,hello this
https://www.surveymonkey.com/r/3PKFVVC,thurman-stoermer@outlook.com,Tammy mchefs,MCGV Brookfield Cir Stret.,No.11,Framingham,MA,01701,7241468697,ans1,6,hello this
https://www.surveymonkey.com/r/3PKFVVC,robin-savelli@outlook.com,therealmchefs Cruz,TGLX Gold Pan Lne,Reception Lounge11234,Charlotte,NC,28215,7844358522,ans1,6,hello this
https://www.surveymonkey.com/r/3PKFVVC,eady-lindsey@outlook.com,Brian mchefs,Y80E Oakdale Ave Lane.,Concierge Room10,Nashua,NH,03062,7052281599,ans1,6,hello this
https://www.surveymonkey.com/r/3PKFVVC,Hunnicut-Garrett@outlook.com,Erica mchefs,9R9T clin.ton dr Stret.,H0USE17A,Hollis,NH,03049,7795607246,ans1,6,hello this
https://www.surveymonkey.com/r/3PKFVVC,Valene_Faerber93@outlook.com,KCPRO Bruce,8ZKR 217 MIA DR Strt.,APT77011,Newark,DE,19711,7177158233,ans1,6,hello this
https://www.surveymonkey.com/r/3PKFVVC,Kasdon-Ciara@outlook.com,therealmchefs Cruz,KFNJ Gold Pan Strt.,Apptment11234,Charlotte,NC,28215,7134124916,ans1,6,hello this
https://www.surveymonkey.com/r/3PKFVVC,Shayne-Sterr@outlook.com,Jeffkc ymmxl,AAEQ sw 74th ave ste220,Reception Lounge14865,Tigard,OR,97224,7484982440,ans1,6,hello this
https://www.surveymonkey.com/r/3PKFVVC,beckelheimerbrice@outlook.com,therealmchefs Cruz,AEN0 Gold Pan Lane.,House11234,Charlotte,NC,28215,7602162220,ans1,6,hello this
https://www.surveymonkey.com/r/3PKFVVC,alphonse_hoogheem77@outlook.com,KCPRO Peterson,JFJY 217 MIA DR St,APT77011,Newark,DE,19711,7503785327,ans1,6,hello this
https://www.surveymonkey.com/r/3PKFVVC,asmus_norah@outlook.com,therealmchefs Cruz,QXCB Gold Pan Stret.,Apptment11234,Charlotte,NC,28215,7161734178,ans1,6,hello this
https://www.surveymonkey.com/r/3PKFVVC,knackstedt_davina93@outlook.com,therealmchefs Cruz,8I67 Gold Pan Lne.,Reception-Room11234,Charlotte,NC,28215,7817615504,ans1,6,hello this
https://www.surveymonkey.com/r/3PKFVVC,delbert_fillip@outlook.com,John mchefs,JRBV Oakdale Ave Strt.,N.10,Nashua,NH,03062,7273334910,ans1,6,hello this
https://www.surveymonkey.com/r/3PKFVVC,KowalcykMichal@outlook.com,Candice mchefs,U68Y Oakdale Ave Street,Number.10,Nashua,NH,03062,7739934357,ans1,6,hello this
https://www.surveymonkey.com/r/3PKFVVC,Magan_Sein95@outlook.com,Scott mchefs,PESU clin.ton dr Lane,Lobby.17A,Hollis,NH,03049,7722936609,ans1,6,hello this
https://www.surveymonkey.com/r/3PKFVVC,Tennille_Slavik@outlook.com,Jeffkc ymmxl,OD3L sw 74th ave ste220,N.14865,Tigard,OR,97224,7720535899,ans1,6,hello this
https://www.surveymonkey.com/r/3PKFVVC,monroe-siaperas@outlook.com,Gregory mchefs,BI2N Oakdale Ave Stret,Reception10,Nashua,NH,03062,7898275709,ans1,6,hello this
https://www.surveymonkey.com/r/3PKFVVC,ValeriaBoatman@outlook.com,Thomas mchefs,0RB8 clin.ton dr Road.,Front Desk17A,Hollis,NH,03049,7161422194,ans1,6,hello this
https://www.surveymonkey.com/r/3PKFVVC,Bozman.Danny@outlook.com,Robert mchefs,ARMD Oakdale Ave Lane.,Apptment.10,Nashua,NH,03062,7290907746,ans1,6,hello this
https://www.surveymonkey.com/r/3PKFVVC,chantel.burghardt99@outlook.com,Ashley mchefs,MSKR clin.ton dr Strt,Unit17A,Hollis,NH,03049,7262029549,ans1,6,hello this
https://www.surveymonkey.com/r/3PKFVVC,Sammis.Jae94@outlook.com,William mchefs,B10T Oakdale Ave Strt.,Reception10,Nashua,NH,03062,7764551463,ans1,6,hello this
https://www.surveymonkey.com/r/3PKFVVC,steuart-ernestina@outlook.com,Larry mchefs,JT80 clin.ton dr Rd,Aparttment.17A,Hollis,NH,03049,7263250147,ans1,6,hello this
https://www.surveymonkey.com/r/3PKFVVC,kizzie.opfer@outlook.com,Michael mchefs,IQQH Brookfield Cir Rd,Lobby.11,Framingham,MA,01701,7593746682,ans1,6,hello this
https://www.surveymonkey.com/r/3PKFVVC,elliott_doxon98@outlook.com,Mary mchefs,EASB clin.ton dr Rd.,Aparttment.17A,Hollis,NH,03049,7975570596,ans1,6,hello this
https://www.surveymonkey.com/r/3PKFVVC,zenia_delfelder97@outlook.com,John mchefs,OGJZ clin.ton dr Lane,Appt.17A,Hollis,NH,03049,7136181287,ans1,6,hello this
https://www.surveymonkey.com/r/3PKFVVC,eloy-oelschlaeger91@outlook.com,Ann mchefs,8D0C Brookfield Cir Strt,Concierge Lounge.11,Framingham,MA,01701,7186242054,ans1,6,hello this
https://www.surveymonkey.com/r/3PKFVVC,porfiriofunck@outlook.com,Alexander mchefs,BT7V Brookfield Cir Ln,Apptment11,Framingham,MA,01701,7331629619,ans1,6,hello this
https://www.surveymonkey.com/r/3PKFVVC,Kiefert-Hugh@outlook.com,Judith mchefs,3SHG Oakdale Ave Rd,H0USE10,Nashua,NH,03062,7610033989,ans1,6,hello this
https://www.surveymonkey.com/r/3PKFVVC,von-laubacher@outlook.com,Matthew mchefs,Q827 Brookfield Cir Lne,H0USE. #11,Framingham,MA,01701,7550621161,ans1,6,hello this
https://www.surveymonkey.com/r/3PKFVVC,Apilado-Brady94@outlook.com,Brandon mchefs,8KU0 clinton dr Road.,No.17A,Hollis,NH,03049,7723358817,ans1,6,hello this
https://www.surveymonkey.com/r/3PKFVVC,Lweis.Abraham@outlook.com,Juan mchefs,WCIT Oakdale Ave Ln,Aparttment10,Nashua,NH,03062,7792859156,ans1,6,hello this
https://www.surveymonkey.com/r/3PKFVVC,Chong_Walterson@outlook.com,John mchefs,EPCX clinton dr Street.,Appartmentt17A,Hollis,NH,03049,7015134426,ans1,6,hello this
https://www.surveymonkey.com/r/3PKFVVC,felipe.simser@outlook.com,Stephanie mchefs,EK34 Brookfield Cir Lane,Reception Desk.11,Framingham,MA,01701,7022880865,ans1,6,hello this
https://www.surveymonkey.com/r/3PKFVVC,Lina_Fears@outlook.com,Michael mchefs,2XJI Brookfield Cir Stret.,Aptment11,Framingham,MA,01701,7791338750,ans1,6,hello this
https://www.surveymonkey.com/r/3PKFVVC,claudiomaller@outlook.com,Keith mchefs,SR82 Brookfield Cir Strt,Apartmente.11,Framingham,MA,01701,7255715420,ans1,6,hello this
https://www.surveymonkey.com/r/3PKFVVC,Pagnozzi.Euna98@outlook.com,KCPRO Howard,YM81 217 MIA DR St,APT77011,Newark,DE,19711,7161110683,ans1,6,hello this
https://www.surveymonkey.com/r/3PKFVVC,CritchfieldManuel84@outlook.com,Jeffkc ymmxl,4HPH sw 74th ave ste220,Concierge.14865,Tigard,OR,97224,7070497492,ans1,6,hello this
https://www.surveymonkey.com/r/3PKFVVC,sulyma_scottie@outlook.com,Stacey mchefs,UUX0 Oakdale Ave Rd,R00M. #10,Nashua,NH,03062,7277077238,ans1,6,hello this
https://www.surveymonkey.com/r/3PKFVVC,thuy.mcginness@outlook.com,Jeffkc ymmxl,ZFE8 sw 74th ave ste220,House14865,Tigard,OR,97224,7131116253,ans1,6,hello this
https://www.surveymonkey.com/r/3PKFVVC,Pearl_Taegel@outlook.com,Cynthia mchefs,P6JO clin.ton dr Road,Concierge Room.17A,Hollis,NH,03049,7301199895,ans1,6,hello this
https://www.surveymonkey.com/r/3PKFVVC,PolekChanell@outlook.com,Christine mchefs,847A Brookfield Cir Strt,Flt. #11,Framingham,MA,01701,7682829537,ans1,6,hello this
https://www.surveymonkey.com/r/3PKFVVC,lauricehellweg@outlook.com,Jennifer mchefs,10TK Brookfield Cir Strt,Front Desk11,Framingham,MA,01701,7838765752,ans1,6,hello this
https://www.surveymonkey.com/r/3PKFVVC,LasandraVanloo00@outlook.com,Paul mchefs,8MPC Brookfield Cir Street.,Aptment. #11,Framingham,MA,01701,7044180658,ans1,6,hello this
https://www.surveymonkey.com/r/3PKFVVC,rhett-salvitti@outlook.com,Robert mchefs,97B8 Brookfield Cir R0AD,Front-Desk11,Framingham,MA,01701,7106318289,ans1,6,hello this
https://www.surveymonkey.com/r/3PKFVVC,Esquilin_Julio@outlook.com,Jeffkc ymmxl,N6XS sw 74th ave ste220,Apt14865,Tigard,OR,97224,7962962657,ans1,6,hello this
https://www.surveymonkey.com/r/3PKFVVC,karnas.corliss95@outlook.com,Debra mchefs,1J6J clin.ton dr Strt,Concierge-Desk17A,Hollis,NH,03049,7079194025,ans1,6,hello this
https://www.surveymonkey.com/r/3PKFVVC,Barbetta.Donnie@outlook.com,Aaron mchefs,R0AH clinton dr Stret.,R00M. #17A,Hollis,NH,03049,7036281912,ans1,6,hello this
https://www.surveymonkey.com/r/3PKFVVC,Radde-Buford@outlook.com,therealmchefs Cruz,UUQR Gold Pan Street,Appt11234,Charlotte,NC,28215,7213209327,ans1,6,hello this
https://www.surveymonkey.com/r/3PKFVVC,Ronald.Lozey@outlook.com,James mchefs,OAHC Oakdale Ave R0AD,House10,Nashua,NH,03062,7515098789,ans1,6,hello this
https://www.surveymonkey.com/r/3PKFVVC,Tarascio-Toby@outlook.com,Jeffkc ymmxl,DSLD sw 74th ave ste220,Front-Desk.14865,Tigard,OR,97224,7028832395,ans1,6,hello this
https://www.surveymonkey.com/r/3PKFVVC,Organek_Dylan@outlook.com,Matthew mchefs,LRXG clinton dr Strt.,Apartmentt17A,Hollis,NH,03049,7129156962,ans1,6,hello this
https://www.surveymonkey.com/r/3PKFVVC,aupperle.trisha83@outlook.com,John mchefs,P0D8 Brookfield Cir Lane,Reception-Desk11,Framingham,MA,01701,7552835148,ans1,6,hello this
https://www.surveymonkey.com/r/3PKFVVC,Cohenour-Janay93@outlook.com,KCPRO Walsh,9I5E 217 MIA DR Strt.,APT77011,Newark,DE,19711,7954577039,ans1,6,hello this
https://www.surveymonkey.com/r/3PKFVVC,zachery_simple96@outlook.com,KCPRO Gray,QEX5 217 MIA DR Street.,APT77011,Newark,DE,19711,7405906789,ans1,6,hello this
https://www.surveymonkey.com/r/3PKFVVC,marybelle.whitten@outlook.com,Jeffkc ymmxl,HQZI sw 74th ave ste220,Apptment.14865,Tigard,OR,97224,7387127738,ans1,6,hello this
https://www.surveymonkey.com/r/3PKFVVC,hiddenshiela@outlook.com,Nancy mchefs,YU09 clinton dr Street.,Appartment.17A,Hollis,NH,03049,7710051766,ans1,6,hello this
https://www.surveymonkey.com/r/3PKFVVC,Tsosie.Christel89@outlook.com,Ashley mchefs,CJV5 Brookfield Cir St.,Concierge Desk11,Framingham,MA,01701,7628768661,ans1,6,hello this
https://www.surveymonkey.com/r/3PKFVVC,Palma.Tinger@outlook.com,Robert mchefs,W1SD Oakdale Ave Lane,Reception Lounge.10,Nashua,NH,03062,7927336431,ans1,6,hello this
https://www.surveymonkey.com/r/3PKFVVC,Mammo-Arden@outlook.com,therealmchefs Cruz,Z2LM Gold Pan Lane,Appartmente11234,Charlotte,NC,28215,7856240126,ans1,6,hello this
https://www.surveymonkey.com/r/3PKFVVC,Precella_June99@outlook.com,Richard mchefs,21KA Brookfield Cir Stret,#11,Framingham,MA,01701,7275752194,ans1,6,hello this
https://www.surveymonkey.com/r/3PKFVVC,SyvertsenRandell@outlook.com,Jacqueline mchefs,YVFQ clin.ton dr Strt,Appartment17A,Hollis,NH,03049,7043438700,ans1,6,hello this
https://www.surveymonkey.com/r/3PKFVVC,neal.abshire90@outlook.com,Robert mchefs,FEAG Brookfield Cir Rd,Reception-Desk.11,Framingham,MA,01701,7276105963,ans1,6,hello this
https://www.surveymonkey.com/r/3PKFVVC,Schlaefer.Val@outlook.com,Eileen mchefs,YH3W clinton dr St,Aparttmentt.17A,Hollis,NH,03049,7095042273,ans1,6,hello this
https://www.surveymonkey.com/r/3PKFVVC,minster-napoleon77@outlook.com,KCPRO Williams,MFVS 217 MIA DR Lane,APT77011,Newark,DE,19711,7921234587,ans1,6,hello this
https://www.surveymonkey.com/r/3PKFVVC,Rumney.Lance@outlook.com,Sean mchefs,MJCI Brookfield Cir Lne,Apartmentt.11,Framingham,MA,01701,7026024319,ans1,6,hello this
https://www.surveymonkey.com/r/3PKFVVC,Raval_Milda@outlook.com,Jonathon mchefs,NZH0 Oakdale Ave Lne.,Concierge Room10,Nashua,NH,03062,7032083831,ans1,6,hello this
https://www.surveymonkey.com/r/3PKFVVC,Tegan_Eggen@outlook.com,Eric mchefs,6KIA Oakdale Ave Strt,H0USE10,Nashua,NH,03062,7962288573,ans1,6,hello this
https://www.surveymonkey.com/r/3PKFVVC,JeromyBuchler93@outlook.com,Allison mchefs,H5N5 clin.ton dr Lane,Aparttment17A,Hollis,NH,03049,7406770423,ans1,6,hello this
https://www.surveymonkey.com/r/3PKFVVC,Migdalia_Blasing@outlook.com,Tony mchefs,JRH4 clinton dr Ln.,Reception Room17A,Hollis,NH,03049,7211136679,ans1,6,hello this
https://www.surveymonkey.com/r/3PKFVVC,Tiu-Sang@outlook.com,Anna mchefs,VTL5 clin.ton dr Strt.,Reception Room17A,Hollis,NH,03049,7260912763,ans1,6,hello this
https://www.surveymonkey.com/r/3PKFVVC,cristy-ennals97@outlook.com,Karla mchefs,N1D9 Brookfield Cir R0AD,Appartment.11,Framingham,MA,01701,7149350785,ans1,6,hello this
https://www.surveymonkey.com/r/3PKFVVC,delrafiq91@outlook.com,Nicole mchefs,C1DL clin.ton dr Street.,Appartment.17A,Hollis,NH,03049,7412233679,ans1,6,hello this
https://www.surveymonkey.com/r/3PKFVVC,kristine.wissinger76@outlook.com,therealmchefs Cruz,B7RH Gold Pan St.,Appartmente11234,Charlotte,NC,28215,7884329449,ans1,6,hello this
https://www.surveymonkey.com/r/3PKFVVC,jimmy_murchison90@outlook.com,Jeffkc ymmxl,G26I sw 74th ave ste220,Concierge Room14865,Tigard,OR,97224,7780900771,ans1,6,hello this
https://www.surveymonkey.com/r/3PKFVVC,Teodoro.Elkayam@outlook.com,KCPRO Simpson,M3MK 217 MIA DR Street.,APT77011,Newark,DE,19711,7594950891,ans1,6,hello this
https://www.surveymonkey.com/r/3PKFVVC,Domenic-Carvin@outlook.com,Larry mchefs,P3P0 clinton dr Street.,Apartmente17A,Hollis,NH,03049,7890016563,ans1,6,hello this
https://www.surveymonkey.com/r/3PKFVVC,bishop.joel@outlook.com,therealmchefs Cruz,F88J Gold Pan Stret,Unit11234,Charlotte,NC,28215,7599518941,ans1,6,hello this
https://www.surveymonkey.com/r/3PKFVVC,shigleybryon@outlook.com,therealmchefs Cruz,A648 Gold Pan Rd,Appartmentt.11234,Charlotte,NC,28215,7660799921,ans1,6,hello this
https://www.surveymonkey.com/r/3PKFVVC,Ambrose_Nicolau91@outlook.com,Steven mchefs,L8CW Oakdale Ave Rd.,Room10,Nashua,NH,03062,7805163301,ans1,6,hello this
https://www.surveymonkey.com/r/3PKFVVC,Barry-Cross@outlook.com,Jeffkc ymmxl,MO8I sw 74th ave ste220,Concierge14865,Tigard,OR,97224,7152721909,ans1,6,hello this
https://www.surveymonkey.com/r/3PKFVVC,Booker-Pelow@outlook.com,therealmchefs Cruz,ENIH Gold Pan Rd.,Appartmentt.11234,Charlotte,NC,28215,7557729166,ans1,6,hello this
https://www.surveymonkey.com/r/3PKFVVC,zeagler-michelina@outlook.com,Lisa mchefs,AHNC Brookfield Cir Stret.,Aptment. #11,Framingham,MA,01701,7750998602,ans1,6,hello this
https://www.surveymonkey.com/r/3PKFVVC,kennettshanae@outlook.com,Nancy mchefs,GONC clinton dr Strt.,Concierge Desk.17A,Hollis,NH,03049,7898883222,ans1,6,hello this
https://www.surveymonkey.com/r/3PKFVVC,Marlyn_Barbur@outlook.com,KCPRO Burnett,X5ZO 217 MIA DR Lne,APT77011,Newark,DE,19711,7066620479,ans1,6,hello this
https://www.surveymonkey.com/r/3PKFVVC,Ballena.Sammy@outlook.com,Jacob mchefs,GOIR Brookfield Cir Rd.,Concierge.11,Framingham,MA,01701,7091682675,ans1,6,hello this
https://www.surveymonkey.com/r/3PKFVVC,corria.mariella@outlook.com,Yvonne mchefs,H2LP clinton dr Road,Concierge-Desk17A,Hollis,NH,03049,7462320335,ans1,6,hello this
https://www.surveymonkey.com/r/3PKFVVC,SenaidaMaltese@outlook.com,Cynthia mchefs,0D7C Oakdale Ave R0AD,Reception Desk10,Nashua,NH,03062,7271101814,ans1,6,hello this
https://www.surveymonkey.com/r/3PKFVVC,Kinloch-Evelyne@outlook.com,Christopher mchefs,GPS9 clin.ton dr Street,Apartmentt17A,Hollis,NH,03049,7158015058,ans1,6,hello this
https://www.surveymonkey.com/r/3PKFVVC,Jasper_Kolding@outlook.com,Jessica mchefs,DHN8 Oakdale Ave Lne,Apartment.10,Nashua,NH,03062,7339997535,ans1,6,hello this
https://www.surveymonkey.com/r/3PKFVVC,Frank.Settlemire@outlook.com,Valerie mchefs,QGD1 Brookfield Cir Lne.,Appartment.11,Framingham,MA,01701,7924186092,ans1,6,hello this
https://www.surveymonkey.com/r/3PKFVVC,Corkum-Jan00@outlook.com,Richard mchefs,0QZB clin.ton dr Road,Appartment.17A,Hollis,NH,03049,7592213895,ans1,6,hello this
https://www.surveymonkey.com/r/3PKFVVC,basden.pierre96@outlook.com,Erika mchefs,85IK clinton dr Lne.,Aparttmentt17A,Hollis,NH,03049,7130551848,ans1,6,hello this
https://www.surveymonkey.com/r/3PKFVVC,chrispleigha@outlook.com,Leslie mchefs,YSVG Oakdale Ave R0AD,#10,Nashua,NH,03062,7734645527,ans1,6,hello this
https://www.surveymonkey.com/r/3PKFVVC,blumenberg.cole@outlook.com,Jeffkc ymmxl,IVXV sw 74th ave ste220,Concierge Desk14865,Tigard,OR,97224,7915028314,ans1,6,hello this
https://www.surveymonkey.com/r/3PKFVVC,uzelacrandy@outlook.com,Jason mchefs,R643 Oakdale Ave Street.,Lobby.10,Nashua,NH,03062,7831861269,ans1,6,hello this
https://www.surveymonkey.com/r/3PKFVVC,Drew_Vaugh@outlook.com,Jennifer mchefs,P0C0 Brookfield Cir Stret,Apt.11,Framingham,MA,01701,7020327926,ans1,6,hello this
https://www.surveymonkey.com/r/3PKFVVC,Sal-Pinero@outlook.com,Jeffkc ymmxl,KODN sw 74th ave ste220,Reception Lounge.14865,Tigard,OR,97224,7047467132,ans1,6,hello this
https://www.surveymonkey.com/r/3PKFVVC,QuinnCzepiel@outlook.com,KCPRO Smith,OCAU 217 MIA DR Lane,APT77011,Newark,DE,19711,7447669578,ans1,6,hello this
https://www.surveymonkey.com/r/3PKFVVC,heinle.darby@outlook.com,therealmchefs Cruz,OLE5 Gold Pan Street.,Appartment.11234,Charlotte,NC,28215,7980984821,ans1,6,hello this
https://www.surveymonkey.com/r/3PKFVVC,hilario_prochazka@outlook.com,KCPRO Carson,GTDN 217 MIA DR Strt.,APT77011,Newark,DE,19711,7075561142,ans1,6,hello this
https://www.surveymonkey.com/r/3PKFVVC,antoniettatrinkle@outlook.com,Allison mchefs,LVM9 clinton dr Ln.,Concierge Room17A,Hollis,NH,03049,7333793185,ans1,6,hello this
https://www.surveymonkey.com/r/3PKFVVC,Towey_Earnest97@outlook.com,KCPRO Davis,G52Y 217 MIA DR St.,APT77011,Newark,DE,19711,7550337243,ans1,6,hello this
https://www.surveymonkey.com/r/3PKFVVC,ellicottnelida97@outlook.com,David mchefs,TQR2 Oakdale Ave Street.,#10,Nashua,NH,03062,7625878522,ans1,6,hello this
https://www.surveymonkey.com/r/3PKFVVC,NarasimhanZana@outlook.com,Debra mchefs,VZZV Brookfield Cir Lne.,#11,Framingham,MA,01701,7938278281,ans1,6,hello this
https://www.surveymonkey.com/r/3PKFVVC,Sigrid_Mchendry@outlook.com,Morgan mchefs,QVIB Brookfield Cir Street.,Reception Room11,Framingham,MA,01701,7694335571,ans1,6,hello this
https://www.surveymonkey.com/r/3PKFVVC,Newsted.Wilburn@outlook.com,Joshua mchefs,GN3P clinton dr Stret,N.17A,Hollis,NH,03049,7109668357,ans1,6,hello this
https://www.surveymonkey.com/r/3PKFVVC,Mohammad_Mossberg@outlook.com,Tiffany mchefs,M76Q clin.ton dr Ln,Front-Desk.17A,Hollis,NH,03049,7284400482,ans1,6,hello this
https://www.surveymonkey.com/r/3PKFVVC,Roma.Kawell96@outlook.com,Craig mchefs,YZOI Oakdale Ave Rd,Aparttment10,Nashua,NH,03062,7294481744,ans1,6,hello this
https://www.surveymonkey.com/r/3PKFVVC,gwen_cerone@outlook.com,therealmchefs Cruz,0KIH Gold Pan Ln.,Apartmentt11234,Charlotte,NC,28215,7983854864,ans1,6,hello this
https://www.surveymonkey.com/r/3PKFVVC,Sae_Simon@outlook.com,Melissa mchefs,8U4Y clin.ton dr Lne.,Apartmente.17A,Hollis,NH,03049,7649207479,ans1,6,hello this
https://www.surveymonkey.com/r/3PKFVVC,Wilmer_Robeza@outlook.com,KCPRO Sanders,ZIMD 217 MIA DR Stret,APT77011,Newark,DE,19711,7420573584,ans1,6,hello this
https://www.surveymonkey.com/r/3PKFVVC,normand_molgard@outlook.com,Jeffkc ymmxl,QIMW sw 74th ave ste220,Unit14865,Tigard,OR,97224,7355627300,ans1,6,hello this
https://www.surveymonkey.com/r/3PKFVVC,rufenerleland@outlook.com,Christopher mchefs,AJPT Oakdale Ave Street,Aptment10,Nashua,NH,03062,7862569822,ans1,6,hello this
https://www.surveymonkey.com/r/3PKFVVC,Kamala.Dargis@outlook.com,Joshua mchefs,ZL1H clinton dr R0AD,Apartment17A,Hollis,NH,03049,7121939653,ans1,6,hello this
https://www.surveymonkey.com/r/3PKFVVC,romano_sterling@outlook.com,therealmchefs Cruz,NG8D Gold Pan Road.,Aptment. #11234,Charlotte,NC,28215,7383819163,ans1,6,hello this
https://www.surveymonkey.com/r/3PKFVVC,Hornbuckle.Jayson@outlook.com,therealmchefs Cruz,QIYY Gold Pan Ln,Room11234,Charlotte,NC,28215,7703349317,ans1,6,hello this
https://www.surveymonkey.com/r/3PKFVVC,maismay92@outlook.com,KCPRO Chavez,NCW0 217 MIA DR Ln,APT77011,Newark,DE,19711,7012595563,ans1,6,hello this
https://www.surveymonkey.com/r/3PKFVVC,rosstabuena@outlook.com,Laura mchefs,799F clin.ton dr Ln.,N.17A,Hollis,NH,03049,7985268125,ans1,6,hello this
https://www.surveymonkey.com/r/3PKFVVC,Belia-Bonaccorso93@outlook.com,Michelle mchefs,Q1IU clin.ton dr Street.,Appartmentt.17A,Hollis,NH,03049,7880606394,ans1,6,hello this
https://www.surveymonkey.com/r/3PKFVVC,carforacameron@outlook.com,Jeffkc ymmxl,HEW6 sw 74th ave ste220,Flat.14865,Tigard,OR,97224,7182821386,ans1,6,hello this
https://www.surveymonkey.com/r/3PKFVVC,ok-merryman@outlook.com,Dennis mchefs,0VUM Brookfield Cir Lane.,Reception-Room.11,Framingham,MA,01701,7489971360,ans1,6,hello this
https://www.surveymonkey.com/r/3PKFVVC,mennella_jessie@outlook.com,KCPRO Meyer,3YDM 217 MIA DR Lne.,APT77011,Newark,DE,19711,7378941328,ans1,6,hello this
https://www.surveymonkey.com/r/3PKFVVC,gaylecornella@outlook.com,Debra mchefs,13RY Oakdale Ave Ln,Apptment.10,Nashua,NH,03062,7225953810,ans1,6,hello this
https://www.surveymonkey.com/r/3PKFVVC,Sa.Eun@outlook.com,Michael mchefs,S0Q9 clin.ton dr Strt,Aparttment.17A,Hollis,NH,03049,7901424681,ans1,6,hello this
https://www.surveymonkey.com/r/3PKFVVC,AdalineHamolik@outlook.com,Monica mchefs,LMPX Brookfield Cir Stret,House11,Framingham,MA,01701,7193123851,ans1,6,hello this
https://www.surveymonkey.com/r/3PKFVVC,Dorthey-Losco90@outlook.com,Joshua mchefs,DS7L clinton dr Strt.,Reception-Room.17A,Hollis,NH,03049,7594696345,ans1,6,hello this
https://www.surveymonkey.com/r/3PKFVVC,laci_romiro@outlook.com,KCPRO Smith,X0YQ 217 MIA DR St,APT77011,Newark,DE,19711,7729568928,ans1,6,hello this
https://www.surveymonkey.com/r/3PKFVVC,ElaWhorton@outlook.com,Billy mchefs,TQGB clin.ton dr Street,Aparttmentt.17A,Hollis,NH,03049,7267564069,ans1,6,hello this
https://www.surveymonkey.com/r/3PKFVVC,Avans_Raleigh@outlook.com,therealmchefs Cruz,ZK7I Gold Pan R0AD,Apartmente.11234,Charlotte,NC,28215,7369068925,ans1,6,hello this
https://www.surveymonkey.com/r/3PKFVVC,dukagail98@outlook.com,Erin mchefs,MDTK Brookfield Cir Lne.,Apartment.11,Framingham,MA,01701,7653852034,ans1,6,hello this
https://www.surveymonkey.com/r/3PKFVVC,mathilde-joyner@outlook.com,Angela mchefs,RTAI clinton dr St.,Reception-Lounge17A,Hollis,NH,03049,7572862646,ans1,6,hello this
https://www.surveymonkey.com/r/3PKFVVC,Rammer_Susan@outlook.com,Stacey mchefs,9QD1 clinton dr Rd,Flt. #17A,Hollis,NH,03049,7383671395,ans1,6,hello this
https://www.surveymonkey.com/r/3PKFVVC,wannamakercharley@outlook.com,KCPRO Mays,3CFK 217 MIA DR Street.,APT77011,Newark,DE,19711,7084829113,ans1,6,hello this
https://www.surveymonkey.com/r/3PKFVVC,alfonso_mihalios94@outlook.com,Renee mchefs,WPHC clinton dr Ln,Lobby.17A,Hollis,NH,03049,7062312026,ans1,6,hello this
https://www.surveymonkey.com/r/3PKFVVC,fredrick-nuner@outlook.com,Bobby mchefs,KWFD clinton dr Strt,Concierge-Desk17A,Hollis,NH,03049,7232238712,ans1,6,hello this
https://www.surveymonkey.com/r/3PKFVVC,clifford.klitsch@outlook.com,Kara mchefs,4AO2 Brookfield Cir Ln,Appartmentt11,Framingham,MA,01701,7559249013,ans1,6,hello this
https://www.surveymonkey.com/r/3PKFVVC,Laurendeau-Aaron@outlook.com,Jacqueline mchefs,3WBK clinton dr Lne,Concierge17A,Hollis,NH,03049,7164126102,ans1,6,hello this
https://www.surveymonkey.com/r/3PKFVVC,lohan_janiece@outlook.com,Jeffkc ymmxl,398K sw 74th ave ste220,Reception Desk14865,Tigard,OR,97224,7723457203,ans1,6,hello this
https://www.surveymonkey.com/r/3PKFVVC,Veer_Emerson94@outlook.com,Diana mchefs,23QX clin.ton dr Lne,Hse.17A,Hollis,NH,03049,7049061583,ans1,6,hello this
https://www.surveymonkey.com/r/3PKFVVC,Darron.Algire@outlook.com,KCPRO Joseph,6TGT 217 MIA DR Lane,APT77011,Newark,DE,19711,7715486366,ans1,6,hello this
https://www.surveymonkey.com/r/3PKFVVC,Almeda.Shorette@outlook.com,therealmchefs Cruz,TYT2 Gold Pan Strt.,Reception Lounge.11234,Charlotte,NC,28215,7789673706,ans1,6,hello this
https://www.surveymonkey.com/r/3PKFVVC,CourtneyChaconas99@outlook.com,Raven mchefs,OC98 Brookfield Cir Ln.,Concierge Room11,Framingham,MA,01701,7913131482,ans1,6,hello this
https://www.surveymonkey.com/r/3PKFVVC,corrion-clemente@outlook.com,Jeffkc ymmxl,NC7L sw 74th ave ste220,Front-Desk14865,Tigard,OR,97224,7356154857,ans1,6,hello this
https://www.surveymonkey.com/r/3PKFVVC,bryce.yark@outlook.com,Danielle mchefs,ZS5U clin.ton dr Lne.,Reception Desk.17A,Hollis,NH,03049,7749568828,ans1,6,hello this
https://www.surveymonkey.com/r/3PKFVVC,genevie_prochnow00@outlook.com,Nathan mchefs,BNTJ clinton dr Road.,Concierge Lounge.17A,Hollis,NH,03049,7967158442,ans1,6,hello this
https://www.surveymonkey.com/r/3PKFVVC,pamollison97@outlook.com,Jeffkc ymmxl,IJVT sw 74th ave ste220,Hse14865,Tigard,OR,97224,7852989618,ans1,6,hello this
https://www.surveymonkey.com/r/3PKFVVC,Owen_Butkowski@outlook.com,KCPRO Medina,48L3 217 MIA DR Ln,APT77011,Newark,DE,19711,7153760592,ans1,6,hello this
https://www.surveymonkey.com/r/3PKFVVC,Aide_Nemetz@outlook.com,Jeffkc ymmxl,LMMC sw 74th ave ste220,Unit. #14865,Tigard,OR,97224,7625907905,ans1,6,hello this
https://www.surveymonkey.com/r/3PKFVVC,kathryneedster90@outlook.com,KCPRO Clark,50FQ 217 MIA DR Stret,APT77011,Newark,DE,19711,7265189528,ans1,6,hello this
https://www.surveymonkey.com/r/3PKFVVC,pablo-barias96@outlook.com,Brenda mchefs,HEOD clin.ton dr St,H0USE17A,Hollis,NH,03049,7373515667,ans1,6,hello this
https://www.surveymonkey.com/r/3PKFVVC,Velva_Alexzander@outlook.com,Jeffkc ymmxl,A0MW sw 74th ave ste220,Appartmente14865,Tigard,OR,97224,7734331086,ans1,6,hello this
https://www.surveymonkey.com/r/3PKFVVC,weitze_sydney@outlook.com,Alan mchefs,H81V Oakdale Ave St,Reception-Lounge.10,Nashua,NH,03062,7922341118,ans1,6,hello this
https://www.surveymonkey.com/r/3PKFVVC,Francesconi_Alfreda91@outlook.com,KCPRO Hernandez,K7UF 217 MIA DR Lne,APT77011,Newark,DE,19711,7833339493,ans1,6,hello this
https://www.surveymonkey.com/r/3PKFVVC,Krawiec_Madelyn@outlook.com,therealmchefs Cruz,71R7 Gold Pan St.,Concierge Room.11234,Charlotte,NC,28215,7125240315,ans1,6,hello this
https://www.surveymonkey.com/r/3PKFVVC,porscheneufer@outlook.com,Mathew mchefs,FSDE Brookfield Cir Stret,Appartment.11,Framingham,MA,01701,7566545567,ans1,6,hello this
https://www.surveymonkey.com/r/3PKFVVC,hubertdarring@outlook.com,Kristine mchefs,0T11 Oakdale Ave Ln.,Apt.10,Nashua,NH,03062,7900451916,ans1,6,hello this
https://www.surveymonkey.com/r/3PKFVVC,miyamura.charlie82@outlook.com,Jeffkc ymmxl,SBJO sw 74th ave ste220,R00M14865,Tigard,OR,97224,7965807321,ans1,6,hello this
https://www.surveymonkey.com/r/3PKFVVC,benedict.desamito94@outlook.com,KCPRO Higgins,S1U5 217 MIA DR Street,APT77011,Newark,DE,19711,7214720457,ans1,6,hello this
https://www.surveymonkey.com/r/3PKFVVC,leonardocranford@outlook.com,Jeffkc ymmxl,SEHM sw 74th ave ste220,Number.14865,Tigard,OR,97224,7579621154,ans1,6,hello this
https://www.surveymonkey.com/r/3PKFVVC,Badamo.Julee94@outlook.com,KCPRO Morgan,ABD2 217 MIA DR St,APT77011,Newark,DE,19711,7414063486,ans1,6,hello this
https://www.surveymonkey.com/r/3PKFVVC,karan-roenigk99@outlook.com,Jeffkc ymmxl,1W8K sw 74th ave ste220,Apartment14865,Tigard,OR,97224,7454077771,ans1,6,hello this
https://www.surveymonkey.com/r/3PKFVVC,Heiple-Kent@outlook.com,Christine mchefs,YPXB Oakdale Ave St,Apptment.10,Nashua,NH,03062,7892974868,ans1,6,hello this
https://www.surveymonkey.com/r/3PKFVVC,Darius-Blaskovich@outlook.com,Blake mchefs,KLE6 clinton dr Road.,Aparttment.17A,Hollis,NH,03049,7055062966,ans1,6,hello this
https://www.surveymonkey.com/r/3PKFVVC,ana-sotos@outlook.com,therealmchefs Cruz,SCTQ Gold Pan Rd,Flt11234,Charlotte,NC,28215,7214037376,ans1,6,hello this
https://www.surveymonkey.com/r/3PKFVVC,Desalvatore.Lucia@outlook.com,Frank mchefs,D4P7 clinton dr Lne,Appt.17A,Hollis,NH,03049,7439376027,ans1,6,hello this
https://www.surveymonkey.com/r/3PKFVVC,MittanSung@outlook.com,Tina mchefs,UJ2P clin.ton dr Rd.,Aparttmentt.17A,Hollis,NH,03049,7976180105,ans1,6,hello this
https://www.surveymonkey.com/r/3PKFVVC,gwen_smolinski@outlook.com,Keith mchefs,O0XK Oakdale Ave Stret,R00M10,Nashua,NH,03062,7833527312,ans1,6,hello this
https://www.surveymonkey.com/r/3PKFVVC,johnnie_awkward97@outlook.com,KCPRO Foster,7KXN 217 MIA DR R0AD,APT77011,Newark,DE,19711,7005788793,ans1,6,hello this
https://www.surveymonkey.com/r/3PKFVVC,Schock_Francoise90@outlook.com,Amy mchefs,ZLN1 Brookfield Cir Road.,Front Desk11,Framingham,MA,01701,7227477686,ans1,6,hello this
https://www.surveymonkey.com/r/3PKFVVC,Everett-Tillema@outlook.com,therealmchefs Cruz,RSL7 Gold Pan Road,Concierge Desk.11234,Charlotte,NC,28215,7182619488,ans1,6,hello this
https://www.surveymonkey.com/r/3PKFVVC,Lester.Deniro@outlook.com,therealmchefs Cruz,VPEE Gold Pan St,Reception-Lounge11234,Charlotte,NC,28215,7849511404,ans1,6,hello this
https://www.surveymonkey.com/r/3PKFVVC,reynaldo_vetterick@outlook.com,KCPRO Carter,XX36 217 MIA DR Strt,APT77011,Newark,DE,19711,7784205501,ans1,6,hello this
https://www.surveymonkey.com/r/3PKFVVC,Wala.Lizzette@outlook.com,KCPRO Woods,V2N4 217 MIA DR Lne.,APT77011,Newark,DE,19711,7470397483,ans1,6,hello this
https://www.surveymonkey.com/r/3PKFVVC,edgeston-waldo92@outlook.com,Jeffkc ymmxl,C9WS sw 74th ave ste220,Concierge Room14865,Tigard,OR,97224,7194617523,ans1,6,hello this
https://www.surveymonkey.com/r/3PKFVVC,graigmcmahan82@outlook.com,John mchefs,BTD7 clin.ton dr St.,Room17A,Hollis,NH,03049,7025711866,ans1,6,hello this
https://www.surveymonkey.com/r/3PKFVVC,PerlowNenita@outlook.com,Jeffkc ymmxl,J0YG sw 74th ave ste220,Flt. #14865,Tigard,OR,97224,7261640191,ans1,6,hello this
https://www.surveymonkey.com/r/3PKFVVC,TschidaVella99@outlook.com,Jeffkc ymmxl,Z4XG sw 74th ave ste220,Apartment.14865,Tigard,OR,97224,7800949310,ans1,6,hello this
https://www.surveymonkey.com/r/3PKFVVC,PaxtonTony@outlook.com,KCPRO Williams,PRGS 217 MIA DR R0AD,APT77011,Newark,DE,19711,7673144306,ans1,6,hello this
https://www.surveymonkey.com/r/3PKFVVC,chuck_amory@outlook.com,Hayden mchefs,F3WB Brookfield Cir R0AD,Concierge11,Framingham,MA,01701,7070992507,ans1,6,hello this
https://www.surveymonkey.com/r/3PKFVVC,maddox.carmina@outlook.com,Jeffkc ymmxl,IZRH sw 74th ave ste220,Flt. #14865,Tigard,OR,97224,7811320047,ans1,6,hello this
https://www.surveymonkey.com/r/3PKFVVC,Pantano-Dannie94@outlook.com,Alexandra mchefs,ML9S Brookfield Cir Street,Front Desk.11,Framingham,MA,01701,7296344406,ans1,6,hello this
https://www.surveymonkey.com/r/3PKFVVC,bierkortte.raymundo01@outlook.com,therealmchefs Cruz,P3F7 Gold Pan St.,Flat.11234,Charlotte,NC,28215,7275270402,ans1,6,hello this
https://www.surveymonkey.com/r/3PKFVVC,Margarett_Percival@outlook.com,Jeffkc ymmxl,P2N2 sw 74th ave ste220,Room14865,Tigard,OR,97224,7590933561,ans1,6,hello this
https://www.surveymonkey.com/r/3PKFVVC,EroJustina@outlook.com,Chad mchefs,XKX6 Oakdale Ave Lne.,Reception-Room.10,Nashua,NH,03062,7931653596,ans1,6,hello this
https://www.surveymonkey.com/r/3PKFVVC,alvarokendrick@outlook.com,Richard mchefs,F0WM clinton dr Strt.,Apartment.17A,Hollis,NH,03049,7316105086,ans1,6,hello this
https://www.surveymonkey.com/r/3PKFVVC,thao.charley@outlook.com,Mark mchefs,WZMH clin.ton dr Lane.,Concierge Desk17A,Hollis,NH,03049,7155153262,ans1,6,hello this
https://www.surveymonkey.com/r/3PKFVVC,kemberly.fagan@outlook.com,Robert mchefs,MO96 clin.ton dr Rd.,Number.17A,Hollis,NH,03049,7625092775,ans1,6,hello this
https://www.surveymonkey.com/r/3PKFVVC,cristie.mannix98@outlook.com,Cory mchefs,S18F Brookfield Cir Road,Unit11,Framingham,MA,01701,7757545190,ans1,6,hello this
https://www.surveymonkey.com/r/3PKFVVC,Brittney.Bisconer@outlook.com,Regina mchefs,R0TG clin.ton dr R0AD,Front-Desk.17A,Hollis,NH,03049,7881796185,ans1,6,hello this
https://www.surveymonkey.com/r/3PKFVVC,Buckley_Lucien91@outlook.com,Thomas mchefs,8L5Q clin.ton dr Lne,Unit17A,Hollis,NH,03049,7049826135,ans1,6,hello this
https://www.surveymonkey.com/r/3PKFVVC,KrowsLin@outlook.com,Mary mchefs,5IW7 Brookfield Cir Lane,N.11,Framingham,MA,01701,7645605291,ans1,6,hello this
https://www.surveymonkey.com/r/3PKFVVC,delmarbonier97@outlook.com,therealmchefs Cruz,RX9V Gold Pan Road,Reception-Room.11234,Charlotte,NC,28215,7711050943,ans1,6,hello this
https://www.surveymonkey.com/r/3PKFVVC,scharfenberg-darwin@outlook.com,Theresa mchefs,2E97 clinton dr St,Apt17A,Hollis,NH,03049,7942588959,ans1,6,hello this
https://www.surveymonkey.com/r/3PKFVVC,Zollman.Sherrill@outlook.com,Matthew mchefs,6U5T clinton dr Strt,Flt17A,Hollis,NH,03049,7537977939,ans1,6,hello this
https://www.surveymonkey.com/r/3PKFVVC,Yoshiko.Bayle96@outlook.com,Jeffkc ymmxl,PA4F sw 74th ave ste220,Reception-Lounge14865,Tigard,OR,97224,7541821784,ans1,6,hello this
https://www.surveymonkey.com/r/3PKFVVC,BoydUglum@outlook.com,Jeffkc ymmxl,6VOW sw 74th ave ste220,Concierge-Desk.14865,Tigard,OR,97224,7528331465,ans1,6,hello this
https://www.surveymonkey.com/r/3PKFVVC,Coralie.Bealle93@outlook.com,Jeffkc ymmxl,DF6X sw 74th ave ste220,Concierge Room14865,Tigard,OR,97224,7898984389,ans1,6,hello this
https://www.surveymonkey.com/r/3PKFVVC,Schuman.Lianne@outlook.com,Timothy mchefs,7BH3 clin.ton dr Lane.,Reception-Lounge.17A,Hollis,NH,03049,7586076996,ans1,6,hello this
https://www.surveymonkey.com/r/3PKFVVC,LaroccaDwayne91@outlook.com,Holly mchefs,O6BJ Oakdale Ave R0AD,Apt.10,Nashua,NH,03062,7622567901,ans1,6,hello this
https://www.surveymonkey.com/r/3PKFVVC,Bouldin.Kris92@outlook.com,Jeffkc ymmxl,5SM0 sw 74th ave ste220,Aptment. #14865,Tigard,OR,97224,7174740547,ans1,6,hello this
https://www.surveymonkey.com/r/3PKFVVC,alleshousetyrone@outlook.com,Ronald mchefs,XGSH clinton dr Road.,Reception Desk.17A,Hollis,NH,03049,7722293015,ans1,6,hello this
https://www.surveymonkey.com/r/3PKFVVC,Catharine_Rochow@outlook.com,Kevin mchefs,YVG4 clin.ton dr Rd,Appt17A,Hollis,NH,03049,7991045611,ans1,6,hello this
https://www.surveymonkey.com/r/3PKFVVC,Penuel_Clay@outlook.com,Jeffkc ymmxl,ZKFC sw 74th ave ste220,Reception Room.14865,Tigard,OR,97224,7710365690,ans1,6,hello this
https://www.surveymonkey.com/r/3PKFVVC,DrewryAndres93@outlook.com,therealmchefs Cruz,0A34 Gold Pan St.,Reception-Desk.11234,Charlotte,NC,28215,7659479317,ans1,6,hello this
https://www.surveymonkey.com/r/3PKFVVC,pansy.strebeck@outlook.com,Jessica mchefs,QRZ3 clinton dr St,Reception Lounge.17A,Hollis,NH,03049,7665873853,ans1,6,hello this
https://www.surveymonkey.com/r/3PKFVVC,mackeymichell@outlook.com,Patricia mchefs,R8OI Brookfield Cir Ln.,Apt11,Framingham,MA,01701,7363519282,ans1,6,hello this
https://www.surveymonkey.com/r/3PKFVVC,CarmaAshbrook00@outlook.com,Samantha mchefs,PW0Q clin.ton dr Ln,Front Desk.17A,Hollis,NH,03049,7935633361,ans1,6,hello this
https://www.surveymonkey.com/r/3PKFVVC,RonaldKlipfel78@outlook.com,Courtney mchefs,IHEP clin.ton dr Lane.,Number.17A,Hollis,NH,03049,7493106866,ans1,6,hello this
https://www.surveymonkey.com/r/3PKFVVC,portugal.emmaline00@outlook.com,Nicholas mchefs,MAHE Brookfield Cir Stret.,Reception Desk11,Framingham,MA,01701,7704408939,ans1,6,hello this
https://www.surveymonkey.com/r/3PKFVVC,Letha-Sultana@outlook.com,Terri mchefs,TD1E Oakdale Ave Street.,Lobby.10,Nashua,NH,03062,7425768331,ans1,6,hello this
https://www.surveymonkey.com/r/3PKFVVC,Reemer.Jackelyn@outlook.com,Danielle mchefs,M04M clinton dr Ln,Lobby.17A,Hollis,NH,03049,7605972143,ans1,6,hello this
https://www.surveymonkey.com/r/3PKFVVC,loban.timothy@outlook.com,Jeffkc ymmxl,RN7E sw 74th ave ste220,Apptment.14865,Tigard,OR,97224,7929904818,ans1,6,hello this
https://www.surveymonkey.com/r/3PKFVVC,IvetteOehm@outlook.com,Cameron mchefs,8Q4J clinton dr Rd,Concierge-Desk.17A,Hollis,NH,03049,7109297712,ans1,6,hello this
https://www.surveymonkey.com/r/3PKFVVC,chasgrabenstein@outlook.com,Jeffkc ymmxl,C61I sw 74th ave ste220,Apt.14865,Tigard,OR,97224,7214769501,ans1,6,hello this
https://www.surveymonkey.com/r/3PKFVVC,Horsch-Roman@outlook.com,Christopher mchefs,DC9R Brookfield Cir Lne,Appt11,Framingham,MA,01701,7328076328,ans1,6,hello this
https://www.surveymonkey.com/r/3PKFVVC,Claudio-Damberger@outlook.com,Kara mchefs,1980 Brookfield Cir Road.,Apartmentt.11,Framingham,MA,01701,7822205031,ans1,6,hello this
https://www.surveymonkey.com/r/3PKFVVC,adam.grassi75@outlook.com,Bruce mchefs,MS1D clinton dr Street,Apartmentt.17A,Hollis,NH,03049,7937915805,ans1,6,hello this
https://www.surveymonkey.com/r/3PKFVVC,Shiloh.Hylle01@outlook.com,Alan mchefs,HXK2 Oakdale Ave Rd,N.10,Nashua,NH,03062,7389629601,ans1,6,hello this
https://www.surveymonkey.com/r/3PKFVVC,capaccinocarolann99@outlook.com,therealmchefs Cruz,MD0N Gold Pan Rd,Aparttmentt11234,Charlotte,NC,28215,7929011118,ans1,6,hello this
https://www.surveymonkey.com/r/3PKFVVC,mica_wolff98@outlook.com,Phillip mchefs,YMRO Oakdale Ave Rd,Appt.10,Nashua,NH,03062,7601692440,ans1,6,hello this
https://www.surveymonkey.com/r/3PKFVVC,IgnacioSuess@outlook.com,April mchefs,LCJA clin.ton dr Stret,Front Desk.17A,Hollis,NH,03049,7717552773,ans1,6,hello this
https://www.surveymonkey.com/r/3PKFVVC,sandness-samuel@outlook.com,Shane mchefs,V2J9 clin.ton dr Stret.,Aptment17A,Hollis,NH,03049,7672571616,ans1,6,hello this
https://www.surveymonkey.com/r/3PKFVVC,arica_mcgaha@outlook.com,Jeffkc ymmxl,0KRJ sw 74th ave ste220,Reception.14865,Tigard,OR,97224,7050073195,ans1,6,hello this
https://www.surveymonkey.com/r/3PKFVVC,enriquekwasny95@outlook.com,Jeffkc ymmxl,3T9X sw 74th ave ste220,Concierge14865,Tigard,OR,97224,7688811422,ans1,6,hello this
https://www.surveymonkey.com/r/3PKFVVC,esteban-oksen98@outlook.com,Tracy mchefs,6FLP clinton dr Ln.,Concierge17A,Hollis,NH,03049,7138920890,ans1,6,hello this
https://www.surveymonkey.com/r/3PKFVVC,Junita-Stepney@outlook.com,Jeffkc ymmxl,LUN4 sw 74th ave ste220,Reception Desk14865,Tigard,OR,97224,7631295693,ans1,6,hello this
https://www.surveymonkey.com/r/3PKFVVC,SharellTant94@outlook.com,Brenda mchefs,W59B clin.ton dr Ln.,Room17A,Hollis,NH,03049,7133643506,ans1,6,hello this
https://www.surveymonkey.com/r/3PKFVVC,ErickBroersma@outlook.com,Erin mchefs,54IC Oakdale Ave Rd,Concierge10,Nashua,NH,03062,7785064083,ans1,6,hello this
https://www.surveymonkey.com/r/3PKFVVC,Riopel.Alma99@outlook.com,Rodney mchefs,2884 clin.ton dr Stret,Aparttment.17A,Hollis,NH,03049,7244828375,ans1,6,hello this
https://www.surveymonkey.com/r/3PKFVVC,johnie_bisagna85@outlook.com,therealmchefs Cruz,TELE Gold Pan R0AD,Concierge Room11234,Charlotte,NC,28215,7099616930,ans1,6,hello this
https://www.surveymonkey.com/r/3PKFVVC,demarcussylva@outlook.com,Micheal mchefs,E8JD clin.ton dr Strt,Apptment.17A,Hollis,NH,03049,7915578756,ans1,6,hello this
https://www.surveymonkey.com/r/3PKFVVC,RexSecker96@outlook.com,therealmchefs Cruz,6IRH Gold Pan Lane,Flt. #11234,Charlotte,NC,28215,7580412599,ans1,6,hello this
https://www.surveymonkey.com/r/3PKFVVC,Selman-Arron90@outlook.com,KCPRO Hinton,0UR9 217 MIA DR Strt.,APT77011,Newark,DE,19711,7122879286,ans1,6,hello this
https://www.surveymonkey.com/r/3PKFVVC,yostenthea@outlook.com,Jeffkc ymmxl,RHBP sw 74th ave ste220,Reception-Desk.14865,Tigard,OR,97224,7194058182,ans1,6,hello this
https://www.surveymonkey.com/r/3PKFVVC,earnest.pilotte@outlook.com,Jose mchefs,9C30 Brookfield Cir Ln.,Flt. #11,Framingham,MA,01701,7246226103,ans1,6,hello this
https://www.surveymonkey.com/r/3PKFVVC,Cuoco_Geoffrey@outlook.com,therealmchefs Cruz,2F49 Gold Pan Stret,Aptment. #11234,Charlotte,NC,28215,7438709219,ans1,6,hello this
https://www.surveymonkey.com/r/3PKFVVC,gerry-sipkema90@outlook.com,therealmchefs Cruz,GMLR Gold Pan Strt,Reception Lounge11234,Charlotte,NC,28215,7669296138,ans1,6,hello this
https://www.surveymonkey.com/r/3PKFVVC,MedusScarlett@outlook.com,KCPRO Waters,BRRZ 217 MIA DR Rd,APT77011,Newark,DE,19711,7142381882,ans1,6,hello this
https://www.surveymonkey.com/r/3PKFVVC,prince_mordan93@outlook.com,Jeffkc ymmxl,R4X4 sw 74th ave ste220,Aptment14865,Tigard,OR,97224,7717512214,ans1,6,hello this
https://www.surveymonkey.com/r/3PKFVVC,DurtschiLizzie@outlook.com,Ryan mchefs,PJDW Brookfield Cir R0AD,Aparttmentt11,Framingham,MA,01701,7713959342,ans1,6,hello this
https://www.surveymonkey.com/r/3PKFVVC,Sandy_Allan@outlook.com,KCPRO Howard,41D2 217 MIA DR St.,APT77011,Newark,DE,19711,7196771711,ans1,6,hello this
https://www.surveymonkey.com/r/3PKFVVC,Phillip.Bugna@outlook.com,Caleb mchefs,RP39 Oakdale Ave Lne,Reception Lounge.10,Nashua,NH,03062,7722170196,ans1,6,hello this
https://www.surveymonkey.com/r/3PKFVVC,leedybrain99@outlook.com,Michelle mchefs,JSD8 Brookfield Cir Strt.,Flt11,Framingham,MA,01701,7511533734,ans1,6,hello this
https://www.surveymonkey.com/r/3PKFVVC,Ropp-Vito@outlook.com,KCPRO Miles,CKAP 217 MIA DR Road.,APT77011,Newark,DE,19711,7946251318,ans1,6,hello this
https://www.surveymonkey.com/r/3PKFVVC,peter_schellhorn02@outlook.com,Rebecca mchefs,QR6Z Brookfield Cir Lne.,Aptment. #11,Framingham,MA,01701,7758430223,ans1,6,hello this
https://www.surveymonkey.com/r/3PKFVVC,lamont_youkers99@outlook.com,Shannon mchefs,8ZZP clin.ton dr Rd.,Apartmente17A,Hollis,NH,03049,7441631598,ans1,6,hello this
https://www.surveymonkey.com/r/3PKFVVC,KendrickBiscocho@outlook.com,KCPRO Rhodes,QOEN 217 MIA DR Lane,APT77011,Newark,DE,19711,7061222052,ans1,6,hello this
https://www.surveymonkey.com/r/3PKFVVC,jordan.dun03@outlook.com,KCPRO Wilson,19AY 217 MIA DR Lane,APT77011,Newark,DE,19711,7321325610,ans1,6,hello this
https://www.surveymonkey.com/r/3PKFVVC,Therese.Enomoto93@outlook.com,Jeffkc ymmxl,Q4SH sw 74th ave ste220,Front-Desk14865,Tigard,OR,97224,7515733248,ans1,6,hello this
https://www.surveymonkey.com/r/3PKFVVC,IgnacioStorlie@outlook.com,Raymond mchefs,M65M clin.ton dr Lane.,Reception Desk.17A,Hollis,NH,03049,7367028590,ans1,6,hello this
https://www.surveymonkey.com/r/3PKFVVC,Wallace_Giuliano@outlook.com,KCPRO Clark,8SGG 217 MIA DR Road.,APT77011,Newark,DE,19711,7381370571,ans1,6,hello this
https://www.surveymonkey.com/r/3PKFVVC,keenan_section02@outlook.com,therealmchefs Cruz,10GT Gold Pan Rd,Room.11234,Charlotte,NC,28215,7913216264,ans1,6,hello this
https://www.surveymonkey.com/r/3PKFVVC,shirley_worlie87@outlook.com,KCPRO Williams,7XLB 217 MIA DR Street,APT77011,Newark,DE,19711,7894504237,ans1,6,hello this
https://www.surveymonkey.com/r/3PKFVVC,ohaver_jenell@outlook.com,Stacy mchefs,LD91 Brookfield Cir Rd.,#11,Framingham,MA,01701,7470601948,ans1,6,hello this
https://www.surveymonkey.com/r/3PKFVVC,micha_reagin94@outlook.com,Jeffkc ymmxl,514D sw 74th ave ste220,Number.14865,Tigard,OR,97224,7926949355,ans1,6,hello this
https://www.surveymonkey.com/r/3PKFVVC,WeaklandDiann94@outlook.com,KCPRO Lewis,UGC9 217 MIA DR St,APT77011,Newark,DE,19711,7734792667,ans1,6,hello this
https://www.surveymonkey.com/r/3PKFVVC,chebretmike@outlook.com,therealmchefs Cruz,3S08 Gold Pan Stret,Reception Lounge11234,Charlotte,NC,28215,7070876814,ans1,6,hello this
https://www.surveymonkey.com/r/3PKFVVC,celestinaweier91@outlook.com,Dustin mchefs,O55R Oakdale Ave Lane.,Flat.10,Nashua,NH,03062,7853624359,ans1,6,hello this
https://www.surveymonkey.com/r/3PKFVVC,seth_carrao@outlook.com,Jeffkc ymmxl,FVED sw 74th ave ste220,Flat.14865,Tigard,OR,97224,7381340747,ans1,6,hello this
https://www.surveymonkey.com/r/3PKFVVC,KeenanPacetti@outlook.com,James mchefs,HUTQ clin.ton dr Road.,Appt.17A,Hollis,NH,03049,7046797877,ans1,6,hello this
https://www.surveymonkey.com/r/3PKFVVC,mcneer_indira@outlook.com,therealmchefs Cruz,A5QE Gold Pan Ln,Reception Desk11234,Charlotte,NC,28215,7009796702,ans1,6,hello this
https://www.surveymonkey.com/r/3PKFVVC,Silas_Maruscak@outlook.com,Jeffkc ymmxl,KNU1 sw 74th ave ste220,Appt.14865,Tigard,OR,97224,7081782159,ans1,6,hello this
https://www.surveymonkey.com/r/3PKFVVC,Torma.Erik00@outlook.com,KCPRO Gray,KDP0 217 MIA DR Lane.,APT77011,Newark,DE,19711,7818520144,ans1,6,hello this
https://www.surveymonkey.com/r/3PKFVVC,Zandra_Hornes94@outlook.com,Amy mchefs,0GQA Oakdale Ave Stret.,Concierge-Desk.10,Nashua,NH,03062,7442027806,ans1,6,hello this
https://www.surveymonkey.com/r/3PKFVVC,Poch.Ivory@outlook.com,Edward mchefs,6ICL Brookfield Cir Street.,Apartmente11,Framingham,MA,01701,7443466712,ans1,6,hello this
https://www.surveymonkey.com/r/3PKFVVC,Aills.Aaron@outlook.com,Vanessa mchefs,A6V3 Brookfield Cir Stret,Aptment11,Framingham,MA,01701,7686809332,ans1,6,hello this
https://www.surveymonkey.com/r/3PKFVVC,brian-teranishi@outlook.com,Tonya mchefs,H45D Brookfield Cir Lne.,Reception-Desk11,Framingham,MA,01701,7235942369,ans1,6,hello this
https://www.surveymonkey.com/r/3PKFVVC,FindleyDominick91@outlook.com,KCPRO Hernandez,2QSA 217 MIA DR Ln,APT77011,Newark,DE,19711,7012635215,ans1,6,hello this
https://www.surveymonkey.com/r/3PKFVVC,hernandes_dee@outlook.com,therealmchefs Cruz,1P7P Gold Pan Street,Reception Room11234,Charlotte,NC,28215,7551677214,ans1,6,hello this
https://www.surveymonkey.com/r/3PKFVVC,Jonah-Mingus@outlook.com,Jeffkc ymmxl,QAFR sw 74th ave ste220,H0USE14865,Tigard,OR,97224,7793765695,ans1,6,hello this
https://www.surveymonkey.com/r/3PKFVVC,MarianJacocks@outlook.com,therealmchefs Cruz,0O1I Gold Pan Stret,Reception-Lounge11234,Charlotte,NC,28215,7503677416,ans1,6,hello this
https://www.surveymonkey.com/r/3PKFVVC,Tyrone_Bean00@outlook.com,Jeffkc ymmxl,YGU4 sw 74th ave ste220,Flat14865,Tigard,OR,97224,7261472715,ans1,6,hello this
https://www.surveymonkey.com/r/3PKFVVC,Palmira_Tellman@outlook.com,Richard mchefs,IYRC clinton dr Stret,Hse17A,Hollis,NH,03049,7096196545,ans1,6,hello this
https://www.surveymonkey.com/r/3PKFVVC,Mcdewitt.Brinda@outlook.com,Jeffkc ymmxl,9AXR sw 74th ave ste220,Reception-Desk14865,Tigard,OR,97224,7023468374,ans1,6,hello this
https://www.surveymonkey.com/r/3PKFVVC,wilbercrapp99@outlook.com,KCPRO Frazier,9V2P 217 MIA DR Ln.,APT77011,Newark,DE,19711,7297051234,ans1,6,hello this
https://www.surveymonkey.com/r/3PKFVVC,Kuen.Morton90@outlook.com,Jeffkc ymmxl,5594 sw 74th ave ste220,Front Desk.14865,Tigard,OR,97224,7874446776,ans1,6,hello this
https://www.surveymonkey.com/r/3PKFVVC,crall.bambi@outlook.com,Natalie mchefs,ARNZ Brookfield Cir Lne,House11,Framingham,MA,01701,7687072935,ans1,6,hello this
https://www.surveymonkey.com/r/3PKFVVC,Levers_Eugenia96@outlook.com,Jeffkc ymmxl,JUJB sw 74th ave ste220,Apptment.14865,Tigard,OR,97224,7423123563,ans1,6,hello this
https://www.surveymonkey.com/r/3PKFVVC,hovden-lashonda91@outlook.com,Tyler mchefs,41L8 clin.ton dr Lane.,Appartment17A,Hollis,NH,03049,7147912446,ans1,6,hello this
https://www.surveymonkey.com/r/3PKFVVC,Lindsay.Friedler84@outlook.com,Sally mchefs,33E9 Brookfield Cir Lne.,Reception-Room.11,Framingham,MA,01701,7760450702,ans1,6,hello this
https://www.surveymonkey.com/r/3PKFVVC,Derrick.Sunde@outlook.com,KCPRO Morris,KD6P 217 MIA DR Road.,APT77011,Newark,DE,19711,7493354314,ans1,6,hello this
https://www.surveymonkey.com/r/3PKFVVC,MarkRounsville@outlook.com,Vernon mchefs,YAWJ Brookfield Cir Stret,Aparttment.11,Framingham,MA,01701,7836694787,ans1,6,hello this
https://www.surveymonkey.com/r/3PKFVVC,Lanze_Piedad@outlook.com,Victor mchefs,SN6X clinton dr R0AD,Reception Room17A,Hollis,NH,03049,7888679248,ans1,6,hello this
https://www.surveymonkey.com/r/3PKFVVC,AundreaTsau94@outlook.com,therealmchefs Cruz,X3L9 Gold Pan St,Concierge-Desk.11234,Charlotte,NC,28215,7970848266,ans1,6,hello this
https://www.surveymonkey.com/r/3PKFVVC,jon_trowel@outlook.com,Elizabeth mchefs,BZRD Oakdale Ave Lane,House10,Nashua,NH,03062,7680467122,ans1,6,hello this
https://www.surveymonkey.com/r/3PKFVVC,damianantle@outlook.com,James mchefs,L9X8 clin.ton dr Stret.,Aparttment17A,Hollis,NH,03049,7580788579,ans1,6,hello this
https://www.surveymonkey.com/r/3PKFVVC,elise-patock@outlook.com,therealmchefs Cruz,GARU Gold Pan Road,Apartmente11234,Charlotte,NC,28215,7094721340,ans1,6,hello this
https://www.surveymonkey.com/r/3PKFVVC,balonek-sherlyn90@outlook.com,Chelsea mchefs,QFE2 Brookfield Cir Strt.,Apartment11,Framingham,MA,01701,7629186618,ans1,6,hello this
https://www.surveymonkey.com/r/3PKFVVC,dahlquist_lindsy83@outlook.com,Jeffery mchefs,6GVG Oakdale Ave Road,Room10,Nashua,NH,03062,7306745424,ans1,6,hello this
https://www.surveymonkey.com/r/3PKFVVC,fumiko_blade90@outlook.com,Jeffkc ymmxl,TF53 sw 74th ave ste220,Lobby14865,Tigard,OR,97224,7000642629,ans1,6,hello this
https://www.surveymonkey.com/r/3PKFVVC,RinaMarchbanks@outlook.com,Matthew mchefs,OR9T Oakdale Ave Strt.,Reception-Lounge10,Nashua,NH,03062,7097275227,ans1,6,hello this
https://www.surveymonkey.com/r/3PKFVVC,ruzich-noah87@outlook.com,Jeffkc ymmxl,QRYJ sw 74th ave ste220,Front Desk14865,Tigard,OR,97224,7073731719,ans1,6,hello this
https://www.surveymonkey.com/r/3PKFVVC,ruh_anamaria@outlook.com,Jeffkc ymmxl,8NIZ sw 74th ave ste220,Reception-Lounge.14865,Tigard,OR,97224,7548374443,ans1,6,hello this
https://www.surveymonkey.com/r/3PKFVVC,cavanahmellie@outlook.com,Sydney mchefs,BUD2 clin.ton dr Lane.,Aparttment.17A,Hollis,NH,03049,7263663106,ans1,6,hello this
https://www.surveymonkey.com/r/3PKFVVC,vavraangelique02@outlook.com,Rachel mchefs,9X28 clinton dr St.,Flat17A,Hollis,NH,03049,7167159778,ans1,6,hello this
https://www.surveymonkey.com/r/3PKFVVC,jenae-loepp91@outlook.com,Lisa mchefs,FMR9 clin.ton dr St.,Concierge-Desk17A,Hollis,NH,03049,7567234364,ans1,6,hello this
https://www.surveymonkey.com/r/3PKFVVC,Rocky_Gilvin@outlook.com,therealmchefs Cruz,7A1H Gold Pan Ln,Reception-Room.11234,Charlotte,NC,28215,7738171189,ans1,6,hello this
https://www.surveymonkey.com/r/3PKFVVC,wire-nu76@outlook.com,Austin mchefs,32K3 Oakdale Ave St.,Apartmentt10,Nashua,NH,03062,7224707312,ans1,6,hello this
https://www.surveymonkey.com/r/3PKFVVC,Boben-Brandon90@outlook.com,Eddie mchefs,YC1R clinton dr Rd.,Unit17A,Hollis,NH,03049,7330093769,ans1,6,hello this
https://www.surveymonkey.com/r/3PKFVVC,dion_mullice@outlook.com,Jonathan mchefs,7431 Oakdale Ave Rd.,Appartmentt10,Nashua,NH,03062,7541175645,ans1,6,hello this
https://www.surveymonkey.com/r/3PKFVVC,Denoia.Claribel@outlook.com,KCPRO Mueller,7UZP 217 MIA DR Stret,APT77011,Newark,DE,19711,7227377669,ans1,6,hello this
https://www.surveymonkey.com/r/3PKFVVC,schleisman_vance01@outlook.com,therealmchefs Cruz,TM1W Gold Pan Strt.,Concierge Lounge11234,Charlotte,NC,28215,7059293818,ans1,6,hello this
https://www.surveymonkey.com/r/3PKFVVC,willian_silvis@outlook.com,Megan mchefs,2F9I clinton dr Strt,Front Desk17A,Hollis,NH,03049,7700053318,ans1,6,hello this
https://www.surveymonkey.com/r/3PKFVVC,Eric-Donayre83@outlook.com,KCPRO Aguilar,FDUY 217 MIA DR Lne,APT77011,Newark,DE,19711,7980135161,ans1,6,hello this
https://www.surveymonkey.com/r/3PKFVVC,Harthorne-Jammie@outlook.com,Jennifer mchefs,D3QL clin.ton dr Road.,House17A,Hollis,NH,03049,7529249933,ans1,6,hello this
https://www.surveymonkey.com/r/3PKFVVC,divina-buikema@outlook.com,Lindsay mchefs,1VRH Brookfield Cir Lne,R00M11,Framingham,MA,01701,7594026036,ans1,6,hello this
https://www.surveymonkey.com/r/3PKFVVC,Eden-Reas92@hotmail.com,Carl mchefs,7LWU clin.ton dr Rd,Appartmentt.17A,Hollis,NH,03049,7674849649,ans1,6,hello this
https://www.surveymonkey.com/r/3PKFVVC,galdon_teressa@outlook.com,Jeffkc ymmxl,9EN0 sw 74th ave ste220,Apartmente14865,Tigard,OR,97224,7692939734,ans1,6,hello this
https://www.surveymonkey.com/r/3PKFVVC,mitchell_parara@outlook.com,Christopher mchefs,4EOR Brookfield Cir Rd.,Reception-Lounge11,Framingham,MA,01701,7500271002,ans1,6,hello this
https://www.surveymonkey.com/r/3PKFVVC,Mihalkovic.Daniella76@hotmail.com,therealmchefs Cruz,QEOE Gold Pan St.,Flat11234,Charlotte,NC,28215,7641075205,ans1,6,hello this
https://www.surveymonkey.com/r/3PKFVVC,Piantanida-Zachary@outlook.com,Misty mchefs,9KJ3 clin.ton dr Street.,Aparttment.17A,Hollis,NH,03049,7682945216,ans1,6,hello this
https://www.surveymonkey.com/r/3PKFVVC,Charney-Malcom@outlook.com,Benjamin mchefs,CDLE Brookfield Cir Rd,Concierge Lounge11,Framingham,MA,01701,7800965069,ans1,6,hello this
https://www.surveymonkey.com/r/3PKFVVC,bemberry_hiram@hotmail.com,Jeffrey mchefs,C6ET Oakdale Ave R0AD,H0USE10,Nashua,NH,03062,7387338846,ans1,6,hello this
https://www.surveymonkey.com/r/3PKFVVC,HuttenDarrin@outlook.com,Billy mchefs,75DW Oakdale Ave Stret,Front Desk.10,Nashua,NH,03062,7204485881,ans1,6,hello this
https://www.surveymonkey.com/r/3PKFVVC,silvey.sunny@outlook.com,Jeffkc ymmxl,U4VZ sw 74th ave ste220,Appt14865,Tigard,OR,97224,7714616087,ans1,6,hello this
https://www.surveymonkey.com/r/3PKFVVC,darwin_jolla88@hotmail.com,therealmchefs Cruz,LY6E Gold Pan Street.,Flt11234,Charlotte,NC,28215,7336499678,ans1,6,hello this
https://www.surveymonkey.com/r/3PKFVVC,friebel.fermin@outlook.com,therealmchefs Cruz,FGWD Gold Pan St,Hse11234,Charlotte,NC,28215,7613802341,ans1,6,hello this
https://www.surveymonkey.com/r/3PKFVVC,schmitz_judie94@outlook.com,Alexis mchefs,V308 clinton dr Stret,H0USE. #17A,Hollis,NH,03049,7818745613,ans1,6,hello this
https://www.surveymonkey.com/r/3PKFVVC,Rosalinda.Feickert83@hotmail.com,KCPRO Anthony,Y7VZ 217 MIA DR Street.,APT77011,Newark,DE,19711,7182812180,ans1,6,hello this
https://www.surveymonkey.com/r/3PKFVVC,aliza-speraw@outlook.com,Mark mchefs,P11S Oakdale Ave Street,Concierge Room.10,Nashua,NH,03062,7067230740,ans1,6,hello this
https://www.surveymonkey.com/r/3PKFVVC,kikkert-roberto@outlook.com,Jeffkc ymmxl,457G sw 74th ave ste220,Apartmente14865,Tigard,OR,97224,7772015439,ans1,6,hello this
https://www.surveymonkey.com/r/3PKFVVC,Luke_Widdowson@hotmail.com,Eugene mchefs,IELY Oakdale Ave St.,Appt10,Nashua,NH,03062,7182177913,ans1,6,hello this
https://www.surveymonkey.com/r/3PKFVVC,Laine_Galaz99@outlook.com,Eduardo mchefs,6NIO Oakdale Ave Road,Apartmentt10,Nashua,NH,03062,7012227701,ans1,6,hello this
https://www.surveymonkey.com/r/3PKFVVC,Alvin-Kulakowski@outlook.com,Diana mchefs,5BGE clin.ton dr Road,Appartment.17A,Hollis,NH,03049,7372956781,ans1,6,hello this
https://www.surveymonkey.com/r/3PKFVVC,Maciak.Raymundo93@hotmail.com,Tanya mchefs,HRQ5 clin.ton dr R0AD,Reception Lounge17A,Hollis,NH,03049,7274268580,ans1,6,hello this
https://www.surveymonkey.com/r/3PKFVVC,Kymberly-Nealer@outlook.com,therealmchefs Cruz,4TJY Gold Pan Road,Reception11234,Charlotte,NC,28215,7876485482,ans1,6,hello this
https://www.surveymonkey.com/r/3PKFVVC,Wojtas-Deangelo@outlook.com,William mchefs,6BZ1 Oakdale Ave Stret,Front Desk.10,Nashua,NH,03062,7680850992,ans1,6,hello this
https://www.surveymonkey.com/r/3PKFVVC,Shawnta_Trigueiro@hotmail.com,Rachel mchefs,7WFZ Brookfield Cir Ln,Apt11,Framingham,MA,01701,7843339170,ans1,6,hello this
https://www.surveymonkey.com/r/3PKFVVC,Balentine-Alline@outlook.com,Wayne mchefs,JWV2 clin.ton dr Street.,#17A,Hollis,NH,03049,7973136666,ans1,6,hello this
https://www.surveymonkey.com/r/3PKFVVC,Limber.Lauran@outlook.com,Jeffkc ymmxl,RWQW sw 74th ave ste220,No.14865,Tigard,OR,97224,7874193123,ans1,6,hello this
https://www.surveymonkey.com/r/3PKFVVC,bromagen.hoa81@hotmail.com,Audrey mchefs,OXHM clinton dr Stret.,Concierge.17A,Hollis,NH,03049,7150206710,ans1,6,hello this
https://www.surveymonkey.com/r/3PKFVVC,ashly_stickel91@outlook.com,Jeffkc ymmxl,WS9C sw 74th ave ste220,Reception Room14865,Tigard,OR,97224,7043394557,ans1,6,hello this
https://www.surveymonkey.com/r/3PKFVVC,Jose-Mcbeath90@outlook.com,KCPRO Gregory,XKWG 217 MIA DR Rd,APT77011,Newark,DE,19711,7370726905,ans1,6,hello this
https://www.surveymonkey.com/r/3PKFVVC,nia_mearing@hotmail.com,Linda mchefs,FN5Z Brookfield Cir Strt,Concierge Room11,Framingham,MA,01701,7918150476,ans1,6,hello this
https://www.surveymonkey.com/r/3PKFVVC,timmerhollis@outlook.com,Katherine mchefs,P2XO clinton dr Strt.,Aparttment.17A,Hollis,NH,03049,7809781215,ans1,6,hello this
https://www.surveymonkey.com/r/3PKFVVC,archie-bong96@outlook.com,Vicki mchefs,OB46 Brookfield Cir Lane.,Flat.11,Framingham,MA,01701,7485717683,ans1,6,hello this
https://www.surveymonkey.com/r/3PKFVVC,Hollis-Flieller@hotmail.com,KCPRO Burgess,1KSA 217 MIA DR Stret,APT77011,Newark,DE,19711,7345442291,ans1,6,hello this
https://www.surveymonkey.com/r/3PKFVVC,bronwyn_stachurski@outlook.com,Jeffkc ymmxl,R8V6 sw 74th ave ste220,Appt.14865,Tigard,OR,97224,7318560926,ans1,6,hello this
https://www.surveymonkey.com/r/3PKFVVC,prester.irwin@outlook.com,Rebecca mchefs,6LA7 Oakdale Ave Strt.,House10,Nashua,NH,03062,7358855131,ans1,6,hello this
https://www.surveymonkey.com/r/3PKFVVC,dorisdelellis98@hotmail.com,Jamie mchefs,5IK1 Oakdale Ave Ln.,Flat.10,Nashua,NH,03062,7605925056,ans1,6,hello this
https://www.surveymonkey.com/r/3PKFVVC,tom-shields@outlook.com,Amanda mchefs,K39I clinton dr Rd.,Flat17A,Hollis,NH,03049,7085418752,ans1,6,hello this
https://www.surveymonkey.com/r/3PKFVVC,Young.Walsworth94@outlook.com,therealmchefs Cruz,OSQS Gold Pan Stret.,Flat11234,Charlotte,NC,28215,7512732579,ans1,6,hello this
https://www.surveymonkey.com/r/3PKFVVC,HaegerJulius@hotmail.com,Jeffkc ymmxl,66QL sw 74th ave ste220,Front Desk14865,Tigard,OR,97224,7906344403,ans1,6,hello this
https://www.surveymonkey.com/r/3PKFVVC,Mauricio.Underdue@outlook.com,Carmen mchefs,6LIL clinton dr Street,Reception-Room.17A,Hollis,NH,03049,7989122970,ans1,6,hello this
https://www.surveymonkey.com/r/3PKFVVC,scharp.veola@outlook.com,Margaret mchefs,IVF3 clinton dr Lne,Apptment17A,Hollis,NH,03049,7810473738,ans1,6,hello this
https://www.surveymonkey.com/r/3PKFVVC,lipsitz_son01@hotmail.com,Timothy mchefs,Y5PE clin.ton dr Ln,Reception-Lounge17A,Hollis,NH,03049,7173040202,ans1,6,hello this
https://www.surveymonkey.com/r/3PKFVVC,Hannam-Dione95@outlook.com,Kylie mchefs,5YAF Brookfield Cir Lne,Aparttment11,Framingham,MA,01701,7928500639,ans1,6,hello this
https://www.surveymonkey.com/r/3PKFVVC,trey_duclo93@outlook.com,KCPRO Price,R69Q 217 MIA DR Street.,APT77011,Newark,DE,19711,7191349825,ans1,6,hello this
https://www.surveymonkey.com/r/3PKFVVC,luisa_emdee@hotmail.com,Brenda mchefs,9BR2 clinton dr Road.,Apt17A,Hollis,NH,03049,7961931666,ans1,6,hello this
https://www.surveymonkey.com/r/3PKFVVC,JohannaMuzio02@outlook.com,Melissa mchefs,GXPO Oakdale Ave R0AD,H0USE. #10,Nashua,NH,03062,7518915666,ans1,6,hello this
https://www.surveymonkey.com/r/3PKFVVC,Lingafelt-Granville@outlook.com,therealmchefs Cruz,I392 Gold Pan Stret,Concierge Lounge11234,Charlotte,NC,28215,7722141730,ans1,6,hello this
https://www.surveymonkey.com/r/3PKFVVC,arntzleroy@hotmail.com,Lauren mchefs,868K Oakdale Ave Road,House10,Nashua,NH,03062,7653340393,ans1,6,hello this
https://www.surveymonkey.com/r/3PKFVVC,Ralph_Norviel@outlook.com,Diane mchefs,BPFW Brookfield Cir Lane,Lobby.11,Framingham,MA,01701,7398488455,ans1,6,hello this
https://www.surveymonkey.com/r/3PKFVVC,berry-dobrowski91@outlook.com,Aaron mchefs,6ER6 Oakdale Ave Lne.,Concierge-Desk.10,Nashua,NH,03062,7862236968,ans1,6,hello this
https://www.surveymonkey.com/r/3PKFVVC,pecci-milo@hotmail.com,Hunter mchefs,1VRC clinton dr Road.,Apptment.17A,Hollis,NH,03049,7946231618,ans1,6,hello this
https://www.surveymonkey.com/r/3PKFVVC,millican-demetrius00@outlook.com,William mchefs,XRF2 Brookfield Cir St.,Hse.11,Framingham,MA,01701,7247293357,ans1,6,hello this
https://www.surveymonkey.com/r/3PKFVVC,devon-henn@outlook.com,Jonathan mchefs,DEQG clin.ton dr Lne.,Concierge Desk17A,Hollis,NH,03049,7300490870,ans1,6,hello this
https://www.surveymonkey.com/r/3PKFVVC,Hartzer-Cathrine@hotmail.com,Cameron mchefs,FNXJ Brookfield Cir Rd.,Aparttment.11,Framingham,MA,01701,7189198785,ans1,6,hello this
https://www.surveymonkey.com/r/3PKFVVC,Stephanie_Tilley@outlook.com,therealmchefs Cruz,LW4T Gold Pan R0AD,Concierge Room.11234,Charlotte,NC,28215,7869508963,ans1,6,hello this
https://www.surveymonkey.com/r/3PKFVVC,steve.fredregill@outlook.com,Michelle mchefs,T73L clinton dr Lane.,Reception Room.17A,Hollis,NH,03049,7328724613,ans1,6,hello this
https://www.surveymonkey.com/r/3PKFVVC,marking_janice@hotmail.com,Sherri mchefs,PHLG Oakdale Ave St.,Reception.10,Nashua,NH,03062,7209953738,ans1,6,hello this
https://www.surveymonkey.com/r/3PKFVVC,Edgerton-Geri96@outlook.com,Kevin mchefs,DPMG clinton dr Lne.,Front-Desk.17A,Hollis,NH,03049,7858684010,ans1,6,hello this
https://www.surveymonkey.com/r/3PKFVVC,graham.hundley94@outlook.com,Ricky mchefs,IP59 clin.ton dr Lne.,Appartment.17A,Hollis,NH,03049,7421798022,ans1,6,hello this
https://www.surveymonkey.com/r/3PKFVVC,merideth.quicho@hotmail.com,Lisa mchefs,L8SV Oakdale Ave Lane,Reception Room.10,Nashua,NH,03062,7952335537,ans1,6,hello this
https://www.surveymonkey.com/r/3PKFVVC,WoutersMelita@outlook.com,therealmchefs Cruz,PC14 Gold Pan Rd,Appartmentt.11234,Charlotte,NC,28215,7126302152,ans1,6,hello this
https://www.surveymonkey.com/r/3PKFVVC,kory-yamagata@outlook.com,therealmchefs Cruz,C971 Gold Pan Lne.,Reception-Room11234,Charlotte,NC,28215,7149796743,ans1,6,hello this
https://www.surveymonkey.com/r/3PKFVVC,AureaZannino@hotmail.com,therealmchefs Cruz,HYU3 Gold Pan Street.,Concierge Lounge.11234,Charlotte,NC,28215,7645870355,ans1,6,hello this
https://www.surveymonkey.com/r/3PKFVVC,seabrook-scottie@outlook.com,Bryan mchefs,O0S3 clin.ton dr Street,Aparttment.17A,Hollis,NH,03049,7593206531,ans1,6,hello this
https://www.surveymonkey.com/r/3PKFVVC,FerneKalfas@outlook.com,Jeffkc ymmxl,RQ9D sw 74th ave ste220,Appartment14865,Tigard,OR,97224,7411481002,ans1,6,hello this
https://www.surveymonkey.com/r/3PKFVVC,NobleWease88@hotmail.com,Danielle mchefs,TMZ2 clin.ton dr Lane,Aptment17A,Hollis,NH,03049,7884087555,ans1,6,hello this
https://www.surveymonkey.com/r/3PKFVVC,Marlon.Vas01@outlook.com,Jeffkc ymmxl,OHMQ sw 74th ave ste220,Flat14865,Tigard,OR,97224,7190985692,ans1,6,hello this
https://www.surveymonkey.com/r/3PKFVVC,chrisco_margherita@outlook.com,David mchefs,HM33 clinton dr Lne,Concierge Room17A,Hollis,NH,03049,7801266598,ans1,6,hello this
https://www.surveymonkey.com/r/3PKFVVC,ranee_risse@hotmail.com,Justin mchefs,GWHZ Oakdale Ave Strt,Aptment10,Nashua,NH,03062,7430851995,ans1,6,hello this
https://www.surveymonkey.com/r/3PKFVVC,ErkerJarred@outlook.com,Jeffkc ymmxl,BJP5 sw 74th ave ste220,Flt14865,Tigard,OR,97224,7691079981,ans1,6,hello this
https://www.surveymonkey.com/r/3PKFVVC,Jimmie_Deveny@outlook.com,Maria mchefs,WWP9 clin.ton dr Lne,Reception.17A,Hollis,NH,03049,7352306986,ans1,6,hello this
https://www.surveymonkey.com/r/3PKFVVC,toleston.carlita02@hotmail.com,Brian mchefs,CNVG clin.ton dr Road.,Flat17A,Hollis,NH,03049,7897721949,ans1,6,hello this
https://www.surveymonkey.com/r/3PKFVVC,haymore.santiago@outlook.com,Barry mchefs,JSUF clin.ton dr Road.,Reception-Desk.17A,Hollis,NH,03049,7129789996,ans1,6,hello this
https://www.surveymonkey.com/r/3PKFVVC,JulianneGlasscock@outlook.com,Robert mchefs,O94P clinton dr St.,Front Desk.17A,Hollis,NH,03049,7265400204,ans1,6,hello this
https://www.surveymonkey.com/r/3PKFVVC,archie-chacon@hotmail.com,Travis mchefs,WQT6 Oakdale Ave Ln,Appt10,Nashua,NH,03062,7327098557,ans1,6,hello this
https://www.surveymonkey.com/r/3PKFVVC,Kawell_Elden@outlook.com,therealmchefs Cruz,EFT0 Gold Pan Street.,Concierge11234,Charlotte,NC,28215,7372848559,ans1,6,hello this
https://www.surveymonkey.com/r/3PKFVVC,SydneyHornsby@outlook.com,Michelle mchefs,V2PK Brookfield Cir Ln.,Reception-Desk11,Framingham,MA,01701,7200106259,ans1,6,hello this
https://www.surveymonkey.com/r/3PKFVVC,avril-toby86@hotmail.com,Jennifer mchefs,TX5G Brookfield Cir Strt,Front Desk11,Framingham,MA,01701,7132105276,ans1,6,hello this
https://www.surveymonkey.com/r/3PKFVVC,pinal-cletus@outlook.com,Jeffkc ymmxl,I6P1 sw 74th ave ste220,Apt.14865,Tigard,OR,97224,7412442869,ans1,6,hello this
https://www.surveymonkey.com/r/3PKFVVC,Tynisha.Santio@outlook.com,KCPRO Nunez,6KTL 217 MIA DR Ln,APT77011,Newark,DE,19711,7383221299,ans1,6,hello this
https://www.surveymonkey.com/r/3PKFVVC,Roman-Bessix84@hotmail.com,Edward mchefs,SPQ2 Oakdale Ave Road,Appartment.10,Nashua,NH,03062,7872066950,ans1,6,hello this
https://www.surveymonkey.com/r/3PKFVVC,LukasiewiczKimberley93@outlook.com,Valerie mchefs,XR6Z clinton dr Lne,Concierge17A,Hollis,NH,03049,7598123187,ans1,6,hello this
https://www.surveymonkey.com/r/3PKFVVC,Fenix-Joshua@outlook.com,Robert mchefs,6AD0 Oakdale Ave Strt,Reception.10,Nashua,NH,03062,7949740255,ans1,6,hello this
https://www.surveymonkey.com/r/3PKFVVC,leo-labreche96@hotmail.com,Cheryl mchefs,TINW Oakdale Ave St.,Reception Lounge.10,Nashua,NH,03062,7127941578,ans1,6,hello this
https://www.surveymonkey.com/r/3PKFVVC,pfeuffercoleman@outlook.com,KCPRO Hughes,6783 217 MIA DR Rd.,APT77011,Newark,DE,19711,7710870826,ans1,6,hello this
https://www.surveymonkey.com/r/3PKFVVC,Imada_Marianna@outlook.com,Jeffkc ymmxl,EOB0 sw 74th ave ste220,Reception Room14865,Tigard,OR,97224,7661465569,ans1,6,hello this
https://www.surveymonkey.com/r/3PKFVVC,onan-delmar@hotmail.com,Jeffkc ymmxl,1IH2 sw 74th ave ste220,Appt14865,Tigard,OR,97224,7150678822,ans1,6,hello this
https://www.surveymonkey.com/r/3PKFVVC,FeldhausFelton99@outlook.com,Brandon mchefs,85JE clin.ton dr Lane,Reception Room.17A,Hollis,NH,03049,7714397145,ans1,6,hello this
https://www.surveymonkey.com/r/3PKFVVC,Prodoehl-Tona90@outlook.com,Thomas mchefs,GB0T Oakdale Ave Ln,Apartmente.10,Nashua,NH,03062,7416080522,ans1,6,hello this
https://www.surveymonkey.com/r/3PKFVVC,shirar_shani98@hotmail.com,therealmchefs Cruz,WM0R Gold Pan Street.,Concierge Desk11234,Charlotte,NC,28215,7253190614,ans1,6,hello this
https://www.surveymonkey.com/r/3PKFVVC,Julian.Lieurance02@outlook.com,Edward mchefs,AIUF clin.ton dr Strt.,Reception Room.17A,Hollis,NH,03049,7525883791,ans1,6,hello this
https://www.surveymonkey.com/r/3PKFVVC,skinklemorton90@outlook.com,Antonio mchefs,EGOA clinton dr Strt,Aptment. #17A,Hollis,NH,03049,7330853211,ans1,6,hello this
https://www.surveymonkey.com/r/3PKFVVC,bussa.taunya@hotmail.com,therealmchefs Cruz,Q7HP Gold Pan Ln,Appartmentt.11234,Charlotte,NC,28215,7665408850,ans1,6,hello this
https://www.surveymonkey.com/r/3PKFVVC,alwan-alease00@outlook.com,KCPRO Williamson,NUEQ 217 MIA DR Rd.,APT77011,Newark,DE,19711,7490033084,ans1,6,hello this
https://www.surveymonkey.com/r/3PKFVVC,friedle-leroy@outlook.com,therealmchefs Cruz,PMIU Gold Pan Stret,N.11234,Charlotte,NC,28215,7376665700,ans1,6,hello this
https://www.surveymonkey.com/r/3PKFVVC,odell.stones@hotmail.com,Crystal mchefs,2QXZ clin.ton dr Lne,House17A,Hollis,NH,03049,7296117283,ans1,6,hello this
https://www.surveymonkey.com/r/3PKFVVC,promise_russel@outlook.com,Daniel mchefs,9ZML clinton dr Lne.,Front Desk.17A,Hollis,NH,03049,7799902085,ans1,6,hello this
https://www.surveymonkey.com/r/3PKFVVC,bolinderalessandra97@outlook.com,KCPRO Dunn,UXL2 217 MIA DR Road,APT77011,Newark,DE,19711,7396808241,ans1,6,hello this
https://www.surveymonkey.com/r/3PKFVVC,PanellaMinna@hotmail.com,Michael mchefs,WE7P clinton dr Strt.,Apptment17A,Hollis,NH,03049,7566321147,ans1,6,hello this
https://www.surveymonkey.com/r/3PKFVVC,Lanuza_Jackson@outlook.com,Patrick mchefs,I1TO Oakdale Ave Stret.,Number.10,Nashua,NH,03062,7477679935,ans1,6,hello this
https://www.surveymonkey.com/r/3PKFVVC,Froats-Rolf@outlook.com,Kimberly mchefs,BU57 clin.ton dr R0AD,Concierge.17A,Hollis,NH,03049,7192758895,ans1,6,hello this
https://www.surveymonkey.com/r/3PKFVVC,Dallas-Woodburg93@hotmail.com,therealmchefs Cruz,B3WV Gold Pan Road,Concierge-Desk.11234,Charlotte,NC,28215,7731082780,ans1,6,hello this
https://www.surveymonkey.com/r/3PKFVVC,ellangansert@outlook.com,Tracy mchefs,WXBL clin.ton dr Lane.,Hse17A,Hollis,NH,03049,7251599000,ans1,6,hello this
https://www.surveymonkey.com/r/3PKFVVC,grimme.jackeline@outlook.com,therealmchefs Cruz,ZDGQ Gold Pan Road.,Reception Room11234,Charlotte,NC,28215,7021382778,ans1,6,hello this
https://www.surveymonkey.com/r/3PKFVVC,TschirhartDuane@hotmail.com,KCPRO Ibarra,9SGJ 217 MIA DR Road.,APT77011,Newark,DE,19711,7318729445,ans1,6,hello this
